{"type":"FeatureCollection","metadata":{"schemaVersion":1,"lakeId":"hokesjon","units":"metres","sourceOrganization":"SMHI","sourceDataset":"Damm- och sj\u00f6registret","sourceMapNumber":"5-0025","sourceUrl":"https://vattenwebb.smhi.se/svarwebb/rest/downloadmap/642099-139212","sourceRetrievedAt":"2026-09-08","processedAt":"2026-09-08","processingMethod":"Color-band boundary vectorization; source graphics and typography excluded","georeferencingMethod":"Source-specific robust affine shoreline fit using 800 distributed control samples","controlPointCount":800,"shorelineMeanResidualMeters":18.7,"shorelineP90ResidualMeters":47.1,"preclipOutsidePercent":19.34,"clippedTo":"OpenStreetMap lake multipolygon including islands","depthValues":[2,3,4,5],"qualityStatus":"verified","license":"CC BY 4.0","warning":"Generalized depth data; not for navigation"},"features":[{"type":"Feature","properties":{"depth":2,"kind":"contour"},"geometry":{"type":"LineString","coordinates":[[13.9812483,57.9041241],[13.9809693,57.9041768],[13.9808443,57.9042817],[13.9804389,57.9044995],[13.9803679,57.9045055],[13.9801751,57.9046007],[13.9799844,57.9046073],[13.9797505,57.9047099],[13.9798515,57.9046994],[13.9799319,57.9047505],[13.9800736,57.904747],[13.9801139,57.9047683]]}},{"type":"Feature","properties":{"depth":2,"kind":"contour"},"geometry":{"type":"LineString","coordinates":[[13.9761747,57.9048805],[13.9770273,57.9048581],[13.9779517,57.9046823],[13.9790084,57.9046632],[13.97941,57.9044927],[13.9797913,57.9042594],[13.9799392,57.9042215],[13.9804195,57.9041736],[13.9806057,57.904127],[13.9811108,57.9038402],[13.9811943,57.9037655],[13.9812408,57.9036424],[13.9813239,57.903582],[13.9815026,57.9035082],[13.9818752,57.9034093],[13.982423,57.9031595],[13.9824618,57.9031308],[13.9825383,57.9028931],[13.9826492,57.9028097],[13.9829134,57.9026884],[13.9829582,57.9026367],[13.9828528,57.9024914],[13.9829345,57.9022652],[13.9831411,57.9021627],[13.9833434,57.9021275],[13.9835349,57.9019765],[13.9836652,57.9015385],[13.9841219,57.9011133],[13.9841255,57.9009617],[13.9842378,57.9009369],[13.984263,57.9009068],[13.9842501,57.9007639],[13.9841027,57.900553],[13.9840686,57.9003845],[13.9843815,57.9000543],[13.9844114,57.8999398],[13.9842864,57.89948],[13.9842782,57.8991398],[13.983611,57.8986954],[13.9833737,57.8986022],[13.9828979,57.8984642],[13.982013,57.898128],[13.981596,57.8980327],[13.9811164,57.8980521],[13.9809433,57.89812],[13.9808423,57.8982463],[13.980729,57.898314],[13.9805711,57.8983147],[13.9801398,57.8981366],[13.9794065,57.8977239],[13.9793379,57.8976327],[13.9793374,57.8974298],[13.9792446,57.89721],[13.9792017,57.8971845],[13.9791321,57.8969103],[13.9789371,57.8966396],[13.9787908,57.896383],[13.9787869,57.8963172],[13.9784628,57.8959842],[13.9783115,57.8959363],[13.9783583,57.8958017],[13.9783336,57.8956989],[13.9784074,57.8955727],[13.9783981,57.895507],[13.9782807,57.8954075],[13.9781055,57.8953325],[13.97777,57.8952454],[13.9771174,57.8952141],[13.9769385,57.8951835],[13.9767496,57.8951128],[13.9765321,57.8951024],[13.9763409,57.895129],[13.976244,57.8950808],[13.9759396,57.8950594],[13.9757395,57.8950031],[13.9755487,57.8950154],[13.9754814,57.8949828],[13.97552,57.8949626],[13.975496,57.8949413],[13.9753597,57.8949476],[13.9753043,57.8949879],[13.9752498,57.894991],[13.9752048,57.8949355],[13.9751425,57.8949257],[13.9751011,57.8949474],[13.9751268,57.8950102],[13.9751571,57.8949972],[13.9751974,57.8950184],[13.975164,57.8955017],[13.9751351,57.8955734],[13.9750197,57.8956168],[13.9748857,57.8957546],[13.9748381,57.8959235],[13.974879,57.896032],[13.9750846,57.8963141],[13.9750814,57.8966743],[13.9750296,57.8967918],[13.9751207,57.8968514],[13.975081,57.8969174],[13.9750148,57.896952],[13.9750217,57.8971206],[13.9752545,57.8973997],[13.975295,57.8977569],[13.9752519,57.8981889],[13.975342,57.8982914],[13.975359,57.8984914],[13.9750113,57.8989104],[13.9750083,57.8992621],[13.9749686,57.8993309],[13.9744115,57.8996279],[13.9742396,57.8997602],[13.9741859,57.899952],[13.9739879,57.9002646],[13.9738594,57.9008541],[13.9736648,57.9012467],[13.9734428,57.9014221],[13.9727092,57.9018171],[13.9721986,57.9022197],[13.9721752,57.9022884],[13.9719288,57.9025726],[13.9718767,57.9029245],[13.9719163,57.903093],[13.9720298,57.9031268],[13.9719503,57.9032644],[13.9719688,57.9036274],[13.9721015,57.9037669],[13.9721945,57.9039781],[13.9723198,57.9040847],[13.9726716,57.9041746],[13.9733137,57.9041917],[13.9734873,57.9042166],[13.9738881,57.9044192],[13.9741124,57.9046012],[13.9743354,57.9047245],[13.9751612,57.904798],[13.9755298,57.9048649],[13.9761747,57.9048805]]}},{"type":"Feature","properties":{"depth":2,"kind":"contour"},"geometry":{"type":"LineString","coordinates":[[13.9843387,57.9021744],[13.9842459,57.9021863],[13.9840222,57.9023174],[13.983997,57.9024605],[13.9840292,57.9024775],[13.9839176,57.9025895],[13.9839806,57.9025763],[13.9840453,57.9026018]]}},{"type":"Feature","properties":{"depth":2,"kind":"contour"},"geometry":{"type":"LineString","coordinates":[[13.9846047,57.9007337],[13.9845737,57.9006652],[13.9846235,57.9006307],[13.9844733,57.900537],[13.9845236,57.9004825],[13.9845085,57.9004311],[13.9846057,57.900352],[13.984695,57.900373],[13.9846944,57.9004016],[13.9847482,57.9004271],[13.9847283,57.9004601],[13.9848054,57.9004254],[13.984898,57.900425],[13.9849462,57.9004591],[13.985071,57.9004757],[13.9851789,57.9005181],[13.9852388,57.9005178],[13.9852255,57.9005021],[13.985311,57.9004574],[13.985373,57.9004815],[13.9850502,57.90032],[13.9848869,57.9002049],[13.9848215,57.9002081],[13.9847383,57.9002714],[13.9844225,57.9002728],[13.9841992,57.9003896],[13.9841914,57.9004868],[13.9842339,57.9005324],[13.9843096,57.9005521],[13.9842544,57.9005838],[13.9842645,57.900618],[13.9846047,57.9007337]]}},{"type":"Feature","properties":{"depth":2,"kind":"contour"},"geometry":{"type":"LineString","coordinates":[[13.9830705,57.8980775],[13.982946,57.8980466],[13.9829035,57.8981168],[13.9829848,57.8981336],[13.9829759,57.8981608],[13.9830901,57.898166],[13.9831543,57.8982172],[13.9832086,57.8982198]]}},{"type":"Feature","properties":{"depth":2,"kind":"contour"},"geometry":{"type":"LineString","coordinates":[[13.9832594,57.8982582],[13.9833162,57.8983866],[13.9833702,57.8984092],[13.9833748,57.8984435],[13.9834611,57.8984745],[13.9834654,57.898526],[13.9835823,57.8985297],[13.9836435,57.8985909],[13.9838187,57.898663]]}},{"type":"Feature","properties":{"depth":2,"kind":"contour"},"geometry":{"type":"LineString","coordinates":[[13.9811441,57.897696],[13.9812612,57.897694],[13.9814403,57.8976032],[13.9815127,57.8975342],[13.9815365,57.8974512],[13.9816085,57.8974023],[13.9815872,57.8973795],[13.981747,57.8973016],[13.9817094,57.8972789],[13.9817218,57.8972159]]}},{"type":"Feature","properties":{"depth":2,"kind":"contour"},"geometry":{"type":"LineString","coordinates":[[13.9802785,57.8971238],[13.9802374,57.897134],[13.9802365,57.8971712],[13.9801487,57.8972002],[13.9801425,57.8972317],[13.9801517,57.8973002],[13.9802318,57.8973656],[13.9806108,57.8975712],[13.9806924,57.8975737],[13.9807243,57.897605],[13.9808984,57.8976099],[13.980952,57.8976468],[13.9810174,57.8976437],[13.9810672,57.8976091],[13.9811441,57.897696]]}},{"type":"Feature","properties":{"depth":2,"kind":"contour"},"geometry":{"type":"LineString","coordinates":[[13.9745226,57.8944368],[13.9745936,57.8944279],[13.9747341,57.8943601],[13.974779,57.8943027],[13.9751516,57.8940937]]}},{"type":"Feature","properties":{"depth":3,"kind":"contour"},"geometry":{"type":"LineString","coordinates":[[13.9758598,57.9046161],[13.9765295,57.9045001],[13.9770114,57.9043864],[13.9784248,57.9042542],[13.9792256,57.9042362],[13.9799168,57.9040187],[13.9799921,57.9039454],[13.9799894,57.9036052],[13.9800024,57.9035165],[13.9800641,57.9034419],[13.9802491,57.903331],[13.9808558,57.9032339],[13.9810131,57.9031459],[13.9812592,57.9028732],[13.9813724,57.9026954],[13.9814035,57.9025352],[13.9815519,57.9022486],[13.9815885,57.9020883],[13.9816727,57.9019822],[13.9817571,57.9016415],[13.9817485,57.9015472],[13.9816356,57.9014877],[13.9816373,57.9014134],[13.9816819,57.9013731],[13.9815246,57.9012352],[13.9809702,57.901192],[13.9807225,57.9010787],[13.9805763,57.9010451],[13.9801087,57.9010186],[13.9799522,57.9009593],[13.9795334,57.9007153],[13.979323,57.9006334],[13.9788389,57.9006127],[13.9781553,57.9005129],[13.977828,57.9005373],[13.9777203,57.9006021],[13.9777058,57.9007508],[13.9778798,57.9012161],[13.977864,57.901645],[13.9779324,57.9017447],[13.9779187,57.901862],[13.9778219,57.9019239],[13.9776631,57.9019647],[13.9775219,57.9019482],[13.9773418,57.9018532],[13.9770436,57.9015744],[13.976928,57.9015106],[13.9764606,57.9014784],[13.9763772,57.9014345],[13.9763769,57.9012229],[13.9765123,57.901025],[13.9765818,57.9008503],[13.976628,57.9005156],[13.9766353,57.9002125],[13.9765793,57.9000469],[13.9765246,57.899381],[13.9764442,57.899327],[13.9764352,57.8992499],[13.9765561,57.8992007],[13.9767527,57.8987224],[13.9770152,57.8984496],[13.9770889,57.8983292],[13.9773067,57.8982152],[13.9776114,57.8982224],[13.9779323,57.8983482],[13.9781059,57.8984889],[13.9783316,57.898385],[13.9785383,57.8983955],[13.9787061,57.8984376],[13.9790661,57.8986361],[13.979572,57.8986566],[13.9797328,57.8986488],[13.9799907,57.8983388],[13.9798372,57.8982666],[13.9795012,57.8982024],[13.9792959,57.8981376],[13.9790022,57.8980088],[13.9787769,57.8978669],[13.9783568,57.8974514],[13.9783339,57.8972714],[13.9784196,57.8972181],[13.978735,57.8972338],[13.9789984,57.8973727],[13.9790559,57.8973624],[13.9789112,57.8972659],[13.9787528,57.8970607],[13.9786438,57.8968382],[13.9785796,57.8965612],[13.9784233,57.8962674],[13.9783322,57.8962107],[13.9782589,57.8960881],[13.978091,57.8960517],[13.9780932,57.8959602],[13.9781759,57.8959169],[13.9782311,57.8956565],[13.9782392,57.8955449],[13.9781917,57.8954851],[13.9780979,57.8954241],[13.9778277,57.8953395],[13.9775891,57.8952977],[13.9770996,57.8952742],[13.9765742,57.8951622],[13.975895,57.8951024],[13.9756185,57.8950551],[13.9754131,57.8949931],[13.9752441,57.8950025],[13.9752019,57.8950584],[13.9751919,57.8954759],[13.9751446,57.8956305],[13.9752053,57.8960505],[13.975381,57.8962155],[13.9754437,57.8963239],[13.9754417,57.8964097],[13.9753282,57.8965989],[13.9752886,57.8968878],[13.9753797,57.8969474],[13.9753108,57.8970964],[13.9753551,57.8972935],[13.9754595,57.8974817],[13.9754229,57.8980966],[13.9755052,57.8982963],[13.975495,57.8984937],[13.97524,57.8989122],[13.97521,57.8992555],[13.9750477,57.8994363],[13.9746272,57.8997156],[13.9744977,57.8998934],[13.9744843,57.8999964],[13.974216,57.9005151],[13.9741614,57.900747],[13.9739124,57.9011398],[13.9739039,57.9012656],[13.9738408,57.9014003],[13.9734523,57.901708],[13.9731232,57.9020354],[13.9730661,57.902373],[13.9729905,57.9025706],[13.9729865,57.9027365],[13.973027,57.902865],[13.9730884,57.9029176],[13.9731645,57.9029229],[13.9732263,57.9029555],[13.973219,57.9030328],[13.9732775,57.9030925],[13.973466,57.9031774],[13.9736992,57.9033293],[13.974177,57.9033844],[13.9744764,57.9035016],[13.9745055,57.9036502],[13.9743243,57.9039369],[13.9743083,57.9041514],[13.9746809,57.9045042],[13.9749596,57.9045759],[13.9758598,57.9046161]]}},{"type":"Feature","properties":{"depth":3,"kind":"contour"},"geometry":{"type":"LineString","coordinates":[[13.981963,57.9005513],[13.9820805,57.9005293],[13.9821606,57.9004818],[13.9821783,57.9004245],[13.9821303,57.9003847],[13.982127,57.9002961],[13.9822806,57.9002468],[13.9824841,57.8999342],[13.982497,57.8998541],[13.9827411,57.8996643],[13.9828869,57.8994864],[13.9828888,57.8994063],[13.9828222,57.8992322],[13.9826848,57.8990613],[13.9822919,57.8989845],[13.9817555,57.8986496],[13.9815976,57.8986474],[13.9812588,57.8987004],[13.9810681,57.8987042],[13.9809662,57.8987518],[13.9809362,57.8988692],[13.9808727,57.8989052],[13.9807853,57.8989199],[13.9805841,57.8989065],[13.9804878,57.8989484],[13.9804669,57.89914],[13.9805811,57.899597],[13.980575,57.8998543],[13.9806165,57.8999399],[13.9807858,57.9000292],[13.9811757,57.9001189],[13.9812858,57.9001799],[13.981553,57.9005031],[13.981963,57.9005513]]}},{"type":"Feature","properties":{"depth":4,"kind":"contour"},"geometry":{"type":"LineString","coordinates":[[13.9772355,57.9042381],[13.9774943,57.9042298],[13.977785,57.9041427],[13.9779105,57.9041279],[13.9789133,57.904089],[13.9795813,57.9039315],[13.9796674,57.9038611],[13.9798281,57.9035202],[13.9799508,57.9033967],[13.9808051,57.9029668],[13.9810859,57.9026081],[13.9812013,57.9023388],[13.9812291,57.90209],[13.9813916,57.9018948],[13.9814409,57.9016573],[13.9813474,57.9015848],[13.9812,57.9015998],[13.9810556,57.9014918],[13.9808285,57.9014271],[13.9806383,57.9012978],[13.9805107,57.9011698],[13.9804271,57.9011373],[13.9796006,57.9010896],[13.9786857,57.9008707],[13.9784629,57.9008546],[13.9782881,57.9008783],[13.9781531,57.9009432],[13.9781129,57.9010292],[13.9781033,57.9012036],[13.9779857,57.9015672],[13.9780375,57.9019015],[13.9779237,57.9019921],[13.9777433,57.9020244],[13.9764459,57.9020874],[13.9761393,57.9021603],[13.9757358,57.902185],[13.9755241,57.9022703],[13.9753131,57.9026687],[13.9753988,57.9027255],[13.975331,57.9028287],[13.9753882,57.9031658],[13.975555,57.9034767],[13.9757287,57.9036117],[13.9760017,57.903692],[13.9760572,57.9038776],[13.9763975,57.9041033],[13.9770641,57.9042318],[13.9772355,57.9042381]]}},{"type":"Feature","properties":{"depth":5,"kind":"contour"},"geometry":{"type":"LineString","coordinates":[[13.9788153,57.9030673],[13.9790427,57.9030077],[13.9793673,57.902869],[13.9796189,57.9028221],[13.9801347,57.9026539],[13.9806023,57.9023416],[13.9806615,57.902144],[13.9805735,57.9019529],[13.9803138,57.9017725],[13.9800114,57.9016681],[13.9798108,57.9016347],[13.9796746,57.9016353],[13.9791074,57.9016751],[13.9787791,57.9017423],[13.9786001,57.9018303],[13.9784994,57.9021682],[13.9785291,57.902291],[13.9784711,57.9024399],[13.9785193,57.902474],[13.9785119,57.9025541],[13.9783969,57.9025803],[13.9783902,57.9026347],[13.9784838,57.9028172],[13.9786925,57.9029678],[13.9787501,57.9030619],[13.9788153,57.9030673]]}}]}
