{"type":"FeatureCollection","metadata":{"schemaVersion":1,"lakeId":"knipesjon","units":"metres","sourceOrganization":"SMHI","sourceDataset":"Damm- och sj\u00f6registret","sourceMapNumber":"5-0026","sourceUrl":"https://vattenwebb.smhi.se/svarwebb/rest/downloadmap/642528-138795","sourceRetrievedAt":"2026-09-08","processedAt":"2026-09-08","processingMethod":"Color-band boundary vectorization; source graphics and typography excluded","georeferencingMethod":"Source-specific robust affine shoreline fit using 800 distributed control samples","controlPointCount":800,"shorelineMeanResidualMeters":37.9,"shorelineP90ResidualMeters":116.7,"preclipOutsidePercent":23.1,"clippedTo":"OpenStreetMap lake multipolygon including islands","depthValues":[1,2,3,4],"qualityStatus":"verified","license":"CC BY 4.0","warning":"Generalized depth data; not for navigation"},"features":[{"type":"Feature","properties":{"depth":1,"kind":"contour"},"geometry":{"type":"LineString","coordinates":[[13.8951445,57.9449182],[13.8951218,57.9449079],[13.8952019,57.9448527],[13.8952022,57.9448071],[13.8952946,57.9447514],[13.895267,57.9447328],[13.8953511,57.9446489],[13.8953288,57.9446358],[13.8954815,57.9445372],[13.8955159,57.944507],[13.8954939,57.944491],[13.8956539,57.9444049],[13.8957184,57.9443975],[13.8957479,57.9443591],[13.895921,57.944288],[13.895899,57.944272],[13.896102,57.944181]]}},{"type":"Feature","properties":{"depth":1,"kind":"contour"},"geometry":{"type":"LineString","coordinates":[[13.8960386,57.9439419],[13.8958796,57.9439553],[13.8958046,57.9439945],[13.8957869,57.9440352],[13.8955751,57.944168],[13.895597,57.944184],[13.8952964,57.9443467],[13.8952832,57.9443986],[13.8950799,57.9445566],[13.8951023,57.9445698],[13.8950569,57.9445919],[13.8950788,57.944608],[13.8950395,57.9446298],[13.8950736,57.9446452],[13.8950304,57.9446958],[13.8950588,57.9447086],[13.8949738,57.9447982],[13.8949966,57.9448085],[13.8949042,57.9448643],[13.894883,57.9449736],[13.8948003,57.9450032],[13.8946891,57.945151],[13.8945806,57.9452147],[13.8944857,57.9452449],[13.8941568,57.9452637],[13.8940837,57.9452245],[13.8936431,57.9452201],[13.893581,57.9451889],[13.8930695,57.9452165],[13.8929396,57.9451943],[13.8927957,57.9452298],[13.8926588,57.9453019],[13.8923806,57.9453467],[13.8922973,57.9452937],[13.8919548,57.9452362],[13.8918293,57.9451825],[13.8915976,57.9451538],[13.8916119,57.9452029],[13.8915665,57.9452251],[13.8916867,57.9452734],[13.89166,57.9452918],[13.8917724,57.9452878],[13.8918719,57.9453328],[13.8918451,57.9453512],[13.8919088,57.9453496],[13.8921448,57.9454564],[13.8921445,57.945502]]}},{"type":"Feature","properties":{"depth":1,"kind":"contour"},"geometry":{"type":"LineString","coordinates":[[13.8926814,57.9447695],[13.8929653,57.9447486],[13.8929879,57.9446948],[13.8930494,57.9446648],[13.8932271,57.9446476],[13.893449,57.9445073],[13.8935542,57.9444025],[13.8937936,57.9442669],[13.89474,57.9439363],[13.8949016,57.9438387],[13.895138,57.9436165],[13.895241,57.9434405],[13.8953436,57.9430937],[13.8955916,57.9426999],[13.8957884,57.9425451],[13.8962902,57.9422388],[13.8967736,57.9418479],[13.8970454,57.9416752],[13.8973431,57.9413588]]}},{"type":"Feature","properties":{"depth":1,"kind":"contour"},"geometry":{"type":"LineString","coordinates":[[13.8974445,57.9398894],[13.897493,57.9398016],[13.8976966,57.9396408],[13.8978704,57.9393902],[13.8982472,57.939201],[13.8988688,57.9387721],[13.899293,57.9385465],[13.899625,57.9382882],[13.8999932,57.9380738],[13.9001988,57.9378986],[13.9009269,57.9375515],[13.9014404,57.9373785],[13.9023499,57.9368787],[13.9027889,57.9367634],[13.903368,57.9366841],[13.9038103,57.9365887],[13.9043574,57.9365223],[13.9047087,57.9365167],[13.9048936,57.9364907],[13.9049624,57.9364304],[13.9052788,57.9364151],[13.9054985,57.936356],[13.9062466,57.9362344],[13.906547,57.93616],[13.9069243,57.9359894],[13.9071053,57.935861],[13.9071278,57.9357858],[13.9070083,57.9355152],[13.907151,57.9350097],[13.9070777,57.934885],[13.9070685,57.9347772]]}},{"type":"Feature","properties":{"depth":1,"kind":"contour"},"geometry":{"type":"LineString","coordinates":[[13.9058443,57.9343449],[13.9055464,57.9345973],[13.9052194,57.9347541],[13.9048267,57.9348842],[13.9046337,57.9349249],[13.9041875,57.9349607],[13.9036359,57.9349731],[13.9034626,57.9349587],[13.9034175,57.9349352],[13.9031936,57.9349375],[13.9024783,57.9352143],[13.9016728,57.9355752],[13.9010717,57.9357695],[13.9006541,57.9360133],[13.8999686,57.9365536],[13.8998102,57.9366282],[13.8994401,57.9367259],[13.898821,57.9370279],[13.8985636,57.9372711],[13.8984465,57.937462],[13.8982528,57.9375725],[13.8979618,57.9376663],[13.8978154,57.9376763],[13.8977634,57.9376588],[13.8974271,57.93747],[13.8973375,57.9375056],[13.8972531,57.937504],[13.8972105,57.9374847],[13.8972253,57.9374213],[13.8970239,57.9373484],[13.8967278,57.9371747],[13.8965394,57.9371169],[13.8962249,57.9370751],[13.8960612,57.9369705],[13.8960119,57.9368902],[13.8957185,57.9366964],[13.8956649,57.9366691],[13.8954693,57.9366415],[13.8950239,57.9366716],[13.8945057,57.9367479],[13.8942608,57.9368139],[13.8940173,57.9369354],[13.8938728,57.9370407],[13.8933457,57.9371587],[13.8932796,57.93733],[13.8930528,57.9374621],[13.8928967,57.9374981],[13.8923727,57.9375292],[13.8920556,57.9375929],[13.8915087,57.9375709]]}},{"type":"Feature","properties":{"depth":1,"kind":"contour"},"geometry":{"type":"LineString","coordinates":[[13.8914572,57.937572],[13.8911981,57.9376315],[13.8910392,57.9376449],[13.8907039,57.9377523],[13.8904562,57.9377956],[13.8902358,57.9379245],[13.8899091,57.9381882],[13.8892167,57.938518],[13.8890887,57.9386125],[13.8891265,57.9389497],[13.8892302,57.939204],[13.889342,57.9393125],[13.8894455,57.9394813],[13.8894779,57.9396393],[13.8896196,57.9398376],[13.8896287,57.9400764],[13.8896742,57.940097],[13.8896939,57.940173],[13.8897543,57.9406516],[13.8896011,57.9408841],[13.889578,57.9410504],[13.8896083,57.9411373],[13.8897701,57.9412776],[13.8902275,57.9415518],[13.8903422,57.9418141],[13.8904284,57.9418897],[13.8905514,57.9420917],[13.8905767,57.9423013],[13.8905533,57.9423822],[13.8904655,57.9424492],[13.8904285,57.9425849]]}},{"type":"Feature","properties":{"depth":1,"kind":"contour"},"geometry":{"type":"LineString","coordinates":[[13.8903411,57.9428227],[13.8901922,57.9431547],[13.8898794,57.9434491],[13.8898683,57.9437032],[13.8900324,57.9439573],[13.8902554,57.9440705],[13.8906947,57.9442145],[13.8910181,57.9442786],[13.8915062,57.944463],[13.8918938,57.944544],[13.892478,57.9447323],[13.8926814,57.9447695]]}},{"type":"Feature","properties":{"depth":1,"kind":"contour"},"geometry":{"type":"LineString","coordinates":[[13.9047898,57.937651],[13.9048509,57.9375598],[13.9050178,57.9374676],[13.9051155,57.9374601],[13.9051868,57.9374253],[13.905345,57.9374176],[13.9054228,57.9373797],[13.9055384,57.9373741],[13.905514,57.9373539],[13.9055455,57.9373011],[13.9053348,57.9372301],[13.9052005,57.9372394],[13.9049194,57.9373926],[13.9046334,57.9374064],[13.904504,57.9373814],[13.9044036,57.9373207],[13.9041424,57.9373305],[13.9040356,57.9372729],[13.903677,57.9372874],[13.9036892,57.9373082],[13.9036038,57.9373579],[13.9036261,57.9373711],[13.9035087,57.9374765],[13.9034601,57.9375002],[13.9033084,57.9375047],[13.9031646,57.9374305],[13.9031892,57.9373837],[13.9031534,57.937337],[13.903187,57.9373126],[13.9031034,57.9372838],[13.9029798,57.9373254],[13.9029033,57.9373975],[13.9029152,57.9374425],[13.9027629,57.9375382],[13.9027913,57.9375511],[13.9027459,57.9375732],[13.9028174,57.9376239],[13.9027911,57.9376394],[13.9029841,57.9377512],[13.903165,57.9377538],[13.9032332,57.9377847],[13.9034097,57.9377762],[13.9035605,57.9377347],[13.9037035,57.9376622],[13.9038069,57.9376572],[13.9039269,57.9376201],[13.9040207,57.9376626],[13.9040005,57.9376778],[13.9040842,57.9377279],[13.9040643,57.9377402]]}},{"type":"Feature","properties":{"depth":2,"kind":"contour"},"geometry":{"type":"LineString","coordinates":[[13.893154,57.9438036],[13.8935368,57.9437665],[13.8938372,57.9436922],[13.8943117,57.9436265],[13.8945179,57.9435125],[13.894687,57.9431653],[13.8948647,57.9430171],[13.8952065,57.9426445],[13.8954506,57.9422794],[13.8955159,57.9421138],[13.8957199,57.9419074],[13.8959086,57.9416361],[13.895951,57.9413748],[13.8958981,57.9410155],[13.8959514,57.9407622],[13.8964719,57.9402784],[13.8966566,57.9399931],[13.8969268,57.9397008],[13.8970767,57.9394485],[13.897158,57.939211],[13.8973657,57.9388904],[13.8983944,57.9382281],[13.8987153,57.9380715],[13.8994429,57.9378369],[13.9001507,57.9374836],[13.9003797,57.9374013],[13.9014744,57.9371774],[13.9017091,57.9370977],[13.901852,57.9370039],[13.9019061,57.9368759],[13.9021741,57.9368174],[13.9020397,57.936784],[13.9020453,57.9367438],[13.9021328,57.9367011],[13.9022269,57.936698],[13.9022129,57.9366246],[13.9022826,57.9365799],[13.9024428,57.9365579],[13.9025978,57.9365732],[13.9026461,57.9365951],[13.9026361,57.9366668],[13.902549,57.9367066],[13.9024054,57.9366965],[13.9023065,57.936734],[13.902245,57.9368068],[13.9027441,57.9366943],[13.9032994,57.936525],[13.9037784,57.9364705],[13.9043371,57.9363638],[13.904414,57.9362888],[13.9045904,57.9362803],[13.904653,57.9363086],[13.9047256,57.9363079],[13.9055188,57.9362097],[13.9058839,57.9361921],[13.9063341,57.9360179],[13.9064891,57.9358594],[13.906334,57.9358227],[13.9059921,57.9359789],[13.9053576,57.9359782],[13.9046125,57.9360342],[13.9043816,57.9359998],[13.9040905,57.9358985],[13.9038794,57.9356779],[13.9038096,57.9356585],[13.9037212,57.9355117],[13.9036546,57.9354694],[13.9036225,57.9353085],[13.9035631,57.9352359],[13.9034032,57.9352123],[13.9028404,57.935305],[13.9026337,57.9353791],[13.9021368,57.9356938],[13.9015769,57.9360043],[13.9009619,57.936168],[13.9007666,57.9362472],[13.9005834,57.9364783],[13.8999832,57.9368407],[13.8998666,57.9369403],[13.8996799,57.93724],[13.8995973,57.9373123],[13.899155,57.9375602],[13.8988073,57.9376924],[13.898709,57.9378339],[13.8981726,57.9381063],[13.8976899,57.938275],[13.8973116,57.9383445],[13.8967599,57.938357],[13.8963919,57.9383092],[13.896065,57.9381826],[13.8959377,57.9381859],[13.8958832,57.9381643],[13.8959099,57.9381032],[13.8958553,57.9380175],[13.8956132,57.9378896],[13.8955713,57.9378432],[13.8955493,57.9376534],[13.8956326,57.9374015],[13.8955839,57.93723],[13.8953553,57.9369619],[13.895059,57.9368978],[13.8949008,57.9369055],[13.8947006,57.9369764],[13.8945704,57.9373047],[13.8944015,57.9374111],[13.8937368,57.9374974],[13.8931952,57.9377857],[13.8930509,57.937824],[13.8926632,57.9378741],[13.8914967,57.9379618],[13.8911712,57.9380431],[13.8910314,57.938114],[13.8902683,57.9387349],[13.8901896,57.9389097],[13.890179,57.9390299],[13.8902573,57.9392056],[13.8906563,57.9397703],[13.8907052,57.9400272],[13.8907704,57.9401238],[13.8909713,57.9408093],[13.8910054,57.9408247],[13.8911366,57.9412286],[13.8911578,57.9414242],[13.8913374,57.9418714],[13.8913319,57.9420853],[13.8911915,57.9425736],[13.8912213,57.9427944],[13.8911896,57.9432404],[13.8914664,57.9434663],[13.8915157,57.9435466],[13.891499,57.9437098],[13.891588,57.9437439],[13.8920488,57.9437331],[13.8928034,57.943782],[13.8928922,57.9437521],[13.8930804,57.9437459],[13.893154,57.9438036]]}},{"type":"Feature","properties":{"depth":3,"kind":"contour"},"geometry":{"type":"LineString","coordinates":[[13.8924803,57.9430412],[13.8925561,57.943039],[13.8929326,57.9428954],[13.8929569,57.9428729],[13.8929183,57.9428463],[13.893007,57.942795],[13.8932066,57.9427939],[13.8934936,57.9427287],[13.8938897,57.9426184],[13.8940161,57.9425567],[13.894029,57.9425076],[13.8941019,57.9424614],[13.8941109,57.9423527],[13.8940711,57.9423347],[13.894293,57.9419991],[13.8943628,57.9417137],[13.8943551,57.9415517],[13.894289,57.9413754],[13.8942069,57.9413138],[13.8941677,57.9412046],[13.8940098,57.9410356],[13.8939721,57.9406984],[13.8940307,57.9403195],[13.8941571,57.9399316],[13.8942517,57.9397731],[13.89427,57.9396412],[13.8942293,57.9394124],[13.8942775,57.9390653],[13.8943769,57.9387414],[13.8942794,57.9387034],[13.8942966,57.9386228],[13.8943707,57.9385679],[13.8942719,57.9384744],[13.893878,57.9384821],[13.8935204,57.9385335],[13.8928588,57.9387279],[13.892573,57.9387845],[13.8917152,57.9391949],[13.8916217,57.9392593],[13.8916141,57.9393138],[13.8915392,57.9393744],[13.8915302,57.9394831],[13.8916314,57.9395807],[13.891619,57.9396269],[13.8917788,57.9397816],[13.8918184,57.939888],[13.8918956,57.9399412],[13.8919451,57.9401069],[13.8919654,57.9404393],[13.8920166,57.9404624],[13.8920017,57.9405258],[13.8920786,57.9407557],[13.8921769,57.9408308],[13.8921308,57.9408586],[13.8922359,57.9411897],[13.8923871,57.9413192],[13.8922981,57.9417423],[13.8921918,57.9418985],[13.8921739,57.9420275],[13.8920791,57.9421005],[13.8920736,57.9421406],[13.892189,57.9422234],[13.8921901,57.9423458],[13.8922911,57.9424891],[13.8923293,57.9426924],[13.8924547,57.9428772],[13.8924803,57.9430412]]}}]}
