{"type":"FeatureCollection","metadata":{"schemaVersion":1,"lakeId":"munksjon","units":"metres","sourceOrganization":"SMHI","sourceDataset":"Damm- och sj\u00f6registret","sourceMapNumber":"3-6432","sourceUrl":"https://vattenwebb.smhi.se/svarwebb/rest/downloadmap/640746-140268","sourceRetrievedAt":"2026-09-08","processedAt":"2026-09-08","processingMethod":"Reviewed two-metre colour-band boundary vectorization; source shoreline, hatching, labels and soundings excluded","georeferencingMethod":"Source-specific robust affine shoreline fit using 800 distributed control samples","controlPointCount":800,"shorelineMeanResidualMeters":26.1,"shorelineP90ResidualMeters":71.3,"preclipOutsidePercent":12.06,"postclipSampleCount":40684,"postclipLandPointCount":0,"postclipLandPercent":0.0,"islandCount":0,"islandClippingPassed":true,"topologyStatus":"reviewed-plausible","clippedTo":"OpenStreetMap lake multipolygon including islands","depthValues":[2,4,6,8,10,12,14,16,18],"qualityStatus":"verified","license":"CC BY 4.0","warning":"Generalized depth data; not for navigation"},"features":[{"type":"Feature","properties":{"depth":2,"kind":"contour"},"geometry":{"type":"LineString","coordinates":[[14.1690364,57.7816447],[14.1690254,57.7816245],[14.1692499,57.781515],[14.1693488,57.7815095],[14.169492,57.7814525],[14.1695321,57.7814671],[14.1696676,57.781401],[14.1697239,57.7814206]]}},{"type":"Feature","properties":{"depth":2,"kind":"contour"},"geometry":{"type":"LineString","coordinates":[[14.1703591,57.7812433],[14.1704862,57.7811813],[14.1705102,57.7811909],[14.1705947,57.781154],[14.1706184,57.7811681]]}},{"type":"Feature","properties":{"depth":2,"kind":"contour"},"geometry":{"type":"LineString","coordinates":[[14.1708523,57.7811053],[14.1710768,57.7809958],[14.1710536,57.7809729],[14.1711222,57.7809267],[14.1711176,57.7808691],[14.1712532,57.780803],[14.1712314,57.7807581],[14.1712692,57.7806799],[14.1711979,57.7806377],[14.171266,57.7806002],[14.1712701,57.7804701]]}},{"type":"Feature","properties":{"depth":2,"kind":"contour"},"geometry":{"type":"LineString","coordinates":[[14.1743935,57.7776226],[14.1744867,57.7775772],[14.1744889,57.7775419],[14.1744262,57.7774957],[14.1746591,57.777382],[14.1747072,57.7774013],[14.1747453,57.7773827],[14.1747227,57.7773511],[14.1747653,57.777326],[14.1747099,57.7772932],[14.1749381,57.7771905],[14.1749542,57.7769348],[14.1749088,57.7769399],[14.1748652,57.7769142],[14.1749673,57.7767277],[14.1750238,57.7758329],[14.1748108,57.7755651],[14.1745897,57.7750364],[14.1743234,57.7748971],[14.1736703,57.7747073],[14.1735708,57.7746575],[14.1736004,57.7746431]]}},{"type":"Feature","properties":{"depth":2,"kind":"contour"},"geometry":{"type":"LineString","coordinates":[[14.1707609,57.7735799],[14.1701586,57.7733652],[14.1699808,57.7732554],[14.1697034,57.7729678],[14.1691671,57.7726825],[14.1689665,57.7726094],[14.1686497,57.7725546],[14.1684819,57.7726107],[14.1683839,57.772603],[14.1681448,57.7724889],[14.167947,57.7724999],[14.1678441,57.772439],[14.1677698,57.7724454],[14.1676022,57.772369],[14.1673687,57.7722309],[14.1674029,57.7722099],[14.1673353,57.7721745],[14.1672424,57.7722156],[14.1667771,57.7719768],[14.1671883,57.771772],[14.1673638,57.771853],[14.1675573,57.7717801],[14.1674518,57.7716948],[14.1678037,57.7715189],[14.1678356,57.7715333],[14.1678738,57.7715147],[14.1679011,57.7714714],[14.1681087,57.7713702],[14.168272,57.7713845],[14.1683441,57.7714135],[14.1685643,57.7713061],[14.1686378,57.771313],[14.1687104,57.771269],[14.1686202,57.7712019],[14.1685134,57.7712028],[14.1684537,57.771172],[14.1684377,57.7709065],[14.1684006,57.7709074],[14.1680561,57.7707081],[14.1681665,57.77065],[14.1681195,57.770613],[14.1678374,57.7704644],[14.1677273,57.7705181],[14.1675275,57.7704318],[14.1673256,57.7703124],[14.1672815,57.7702314],[14.1671562,57.7701344],[14.1673189,57.7700295],[14.1672823,57.7699576],[14.1669188,57.7697333],[14.1671063,57.7696248],[14.1669327,57.7695129],[14.1669847,57.7694705],[14.1668818,57.7694096],[14.166967,57.7693594],[14.1668882,57.7693082],[14.167155,57.7691781],[14.1672342,57.7692249],[14.1671997,57.7691862],[14.1672338,57.7691653],[14.1669951,57.7689143],[14.1670228,57.7688666],[14.1669177,57.768905],[14.1667238,57.7687903],[14.1669949,57.7686581],[14.1669745,57.7685911],[14.1668877,57.7685352],[14.1669162,57.7684743],[14.1665877,57.7682799],[14.1665284,57.7683088],[14.1664323,57.7682703],[14.1662187,57.7682719],[14.1659066,57.768078],[14.1658311,57.7679739],[14.1659073,57.7679367],[14.1658525,57.7678951],[14.1659541,57.7678455],[14.165958,57.7677838],[14.1658713,57.7677279],[14.1659644,57.7676825],[14.1658338,57.7676052],[14.1655676,57.7675299],[14.1652262,57.7673461],[14.1651612,57.7673351],[14.1649559,57.7672045],[14.1648904,57.7672023],[14.1647624,57.7671494],[14.1646801,57.767151],[14.1645535,57.7670761],[14.1644868,57.7670915],[14.1644142,57.7670714],[14.1641934,57.766927],[14.1641265,57.7669468],[14.1640708,57.7669184],[14.1638934,57.7669964],[14.16379,57.7669443],[14.1637086,57.7669327],[14.1636747,57.7669493],[14.1633551,57.7668104],[14.1632791,57.7668431],[14.162792,57.7665595],[14.1628352,57.7665256],[14.1627165,57.7664553],[14.1627576,57.7663242],[14.1627346,57.7661688],[14.162358,57.7659552],[14.1623075,57.7659755],[14.1618765,57.7658439]]}},{"type":"Feature","properties":{"depth":2,"kind":"contour"},"geometry":{"type":"LineString","coordinates":[[14.1601848,57.7652634],[14.1600578,57.7651929],[14.1598634,57.765151],[14.1598298,57.7651631],[14.1595514,57.7650212],[14.1593472,57.7651336],[14.1592161,57.7651291],[14.1590834,57.7652152],[14.1590618,57.7652984],[14.158632,57.7655379],[14.1585585,57.765531],[14.1582699,57.7656803],[14.1582134,57.7656651],[14.1580535,57.765726],[14.1579965,57.7657196],[14.1575802,57.7658756],[14.1576198,57.7658991],[14.1575844,57.7661982],[14.1575319,57.7662495],[14.1573159,57.7663548],[14.1572922,57.7663408],[14.1572247,57.7663694],[14.1571851,57.766346],[14.1569685,57.7664602],[14.1570031,57.7665629],[14.1570899,57.7666188],[14.1569956,57.7666819],[14.1570823,57.7667379],[14.1568748,57.7668391],[14.1566847,57.7668592],[14.1566451,57.7668357],[14.1565293,57.7668495],[14.156408,57.7668189],[14.1562521,57.7668181],[14.1560936,57.7668569],[14.1560043,57.7668406],[14.1557891,57.7669327]]}},{"type":"Feature","properties":{"depth":2,"kind":"contour"},"geometry":{"type":"LineString","coordinates":[[14.1559117,57.7674625],[14.1561811,57.7676174],[14.1562069,57.7677287],[14.1561188,57.7678229],[14.1561901,57.767865],[14.1561088,57.7679815],[14.1555776,57.7682021],[14.1556158,57.7682476],[14.1555226,57.768293],[14.1556247,57.7683672],[14.1554933,57.7684312]]}},{"type":"Feature","properties":{"depth":2,"kind":"contour"},"geometry":{"type":"LineString","coordinates":[[14.1560654,57.7689938],[14.1560892,57.7690079],[14.1562149,57.7689679],[14.1565956,57.7691795],[14.1566547,57.769155],[14.1568802,57.7692885],[14.1568664,57.7693124],[14.1569173,57.7692876],[14.1569653,57.7693069],[14.1570582,57.7692658],[14.1572643,57.7693832],[14.1573575,57.7693378],[14.1575079,57.7694268],[14.1576434,57.7693607],[14.1577674,57.7693472],[14.1578073,57.7693662],[14.1579259,57.7693084],[14.158016,57.7693114],[14.1580914,57.7692874],[14.158181,57.7692993],[14.1585047,57.7695046],[14.1589294,57.7692804],[14.1589619,57.7692859],[14.1591991,57.7691702],[14.1593152,57.769152],[14.1593966,57.7691636],[14.1595149,57.7691102],[14.1596186,57.7691579],[14.1597796,57.7690794],[14.1599681,57.7690857],[14.1601818,57.7692122],[14.1602831,57.769167],[14.1603637,57.7691918],[14.16066,57.7693763],[14.1606752,57.7693945],[14.1606075,57.7694275],[14.1606694,57.7694871],[14.1606349,57.7695124],[14.1608325,57.7696339],[14.1606885,57.7697041]]}},{"type":"Feature","properties":{"depth":2,"kind":"contour"},"geometry":{"type":"LineString","coordinates":[[14.1614971,57.7714629],[14.1615183,57.7714526],[14.1615878,57.7715212],[14.161918,57.7716892],[14.1619548,57.7717566],[14.1619105,57.7718082],[14.1619656,57.7718454],[14.1618639,57.7718949],[14.1620186,57.7720459],[14.1620158,57.7723506],[14.1618953,57.7724393],[14.1619902,57.7724955],[14.1619951,57.7725487],[14.1618045,57.7726416]]}},{"type":"Feature","properties":{"depth":2,"kind":"contour"},"geometry":{"type":"LineString","coordinates":[[14.1626233,57.7756685],[14.1629177,57.7756232],[14.1629196,57.7755923],[14.1628405,57.7755455],[14.1628791,57.775454],[14.1629299,57.7754292],[14.162903,57.7753356],[14.1631444,57.7752178],[14.1632015,57.7752242],[14.1635207,57.7754359],[14.163508,57.7755062],[14.1635476,57.7755296],[14.1635579,57.7756271],[14.1635045,57.7756916],[14.1635995,57.7757478],[14.1635765,57.775853],[14.1634917,57.7758943],[14.1634867,57.7759737],[14.1635492,57.7760244],[14.1635066,57.7760494],[14.1635532,57.7760908],[14.1634174,57.7761613],[14.1635265,57.7761892],[14.1637204,57.776304],[14.163678,57.7763247],[14.1636897,57.7764001],[14.1634347,57.7765373],[14.1634791,57.7766139],[14.1634444,57.7766436],[14.1634268,57.7767932],[14.1633844,57.7768139],[14.1633627,57.7768971],[14.1631679,57.7769921],[14.163223,57.7770293],[14.1631846,57.7770523]]}},{"type":"Feature","properties":{"depth":2,"kind":"contour"},"geometry":{"type":"LineString","coordinates":[[14.1631883,57.777059],[14.1631922,57.7770614],[14.1632007,57.7770572],[14.1632482,57.7770853],[14.1632731,57.7770818],[14.1633126,57.7771052],[14.1633804,57.7770721],[14.1635229,57.7771565],[14.1635483,57.7771441],[14.1637937,57.7772893],[14.1638055,57.7772963],[14.1637801,57.7773087],[14.1638237,57.7773345],[14.1638914,57.7773014],[14.1638996,57.7773017],[14.1639709,57.7773438],[14.1639793,57.7773397],[14.1640189,57.7773631],[14.1640432,57.7773684],[14.1642648,57.7774995],[14.1643157,57.7774747],[14.1643473,57.7774935],[14.1643722,57.7774899],[14.1644118,57.7775133],[14.1644361,57.7775186],[14.1645865,57.7776075],[14.1646204,57.777591],[14.164652,57.7776098],[14.1646602,57.77761],[14.1647948,57.7776897],[14.164803,57.7776899],[14.1648199,57.7776817],[14.1648363,57.7776822],[14.1648521,57.7776916],[14.1648775,57.7776792],[14.1650279,57.7777682],[14.1650525,57.777769],[14.1651033,57.7777443],[14.1652221,57.7778145],[14.1652305,57.7778104],[14.165263,57.7778159],[14.165457,57.7779307],[14.1654567,57.7779351],[14.1656387,57.7780428],[14.1656133,57.7780552],[14.1656648,57.7780856],[14.1656975,57.7780867],[14.1657314,57.7780702],[14.1657631,57.778089],[14.1658563,57.7780435],[14.16588,57.7780576],[14.1658885,57.7780534],[14.1659049,57.778054],[14.1661191,57.7781716],[14.1661353,57.7781766],[14.1661601,57.778173],[14.1663778,57.7783018],[14.1663603,57.7783189],[14.1663803,57.7783262],[14.1664516,57.7783684],[14.166468,57.7783689],[14.1665075,57.7783924],[14.1665157,57.7783926],[14.166575,57.7783637],[14.1666384,57.7784012],[14.1666466,57.7784015],[14.1668405,57.7785162],[14.1667388,57.7785658],[14.1667385,57.7785702],[14.1668137,57.7786147],[14.1668561,57.7785941],[14.1668643,57.7785943],[14.1670661,57.7787138],[14.1670574,57.7787223],[14.1670811,57.7787364],[14.1670218,57.7787653],[14.167034,57.7787679],[14.1670679,57.7787514],[14.1672934,57.7788849],[14.167285,57.778889],[14.1673245,57.7789124],[14.167324,57.7789212],[14.1672816,57.7789419],[14.1673212,57.7789653],[14.1672958,57.7789777],[14.1672955,57.7789821],[14.1673153,57.7789938],[14.1673235,57.7789941],[14.1673658,57.7789735],[14.1675914,57.779107],[14.167583,57.7791111],[14.1676146,57.7791298],[14.1675892,57.7791422],[14.1675889,57.7791466],[14.1676087,57.7791583],[14.1676257,57.7791501],[14.1678275,57.7792695],[14.1678272,57.7792739],[14.1677933,57.7792905],[14.1677931,57.7792949],[14.1678247,57.7793136],[14.1678162,57.7793177],[14.1678157,57.7793265],[14.1677649,57.7793513],[14.1677635,57.7793734],[14.1679059,57.7794577],[14.1679136,57.7794668],[14.1679133,57.7794712],[14.1678625,57.779496],[14.1678622,57.7795004],[14.1679097,57.7795285],[14.1678927,57.7795367]]}},{"type":"Feature","properties":{"depth":2,"kind":"contour"},"geometry":{"type":"LineString","coordinates":[[14.1680189,57.7797486],[14.1681535,57.7798282],[14.1681338,57.7798806],[14.1682101,57.7799715],[14.1681633,57.7799986]]}},{"type":"Feature","properties":{"depth":2,"kind":"contour"},"geometry":{"type":"LineString","coordinates":[[14.1684021,57.7804418],[14.1685427,57.7805569],[14.168668,57.780782],[14.1686498,57.7809404],[14.1685757,57.7810749],[14.1685291,57.7810976]]}},{"type":"Feature","properties":{"depth":4,"kind":"contour"},"geometry":{"type":"LineString","coordinates":[[14.1690364,57.7816447],[14.1690254,57.7816245],[14.1692499,57.781515],[14.1693488,57.7815095],[14.169492,57.7814525],[14.1695321,57.7814671],[14.1696676,57.781401],[14.1697239,57.7814206]]}},{"type":"Feature","properties":{"depth":4,"kind":"contour"},"geometry":{"type":"LineString","coordinates":[[14.1703591,57.7812433],[14.1704862,57.7811813],[14.1705102,57.7811909],[14.1705947,57.781154],[14.1706184,57.7811681]]}},{"type":"Feature","properties":{"depth":4,"kind":"contour"},"geometry":{"type":"LineString","coordinates":[[14.1708523,57.7811053],[14.1710768,57.7809958],[14.1710536,57.7809729],[14.1711222,57.7809267],[14.1711176,57.7808691],[14.1712532,57.780803],[14.1712314,57.7807581],[14.1712692,57.7806799],[14.1711979,57.7806377],[14.171266,57.7806002],[14.1712701,57.7804701]]}},{"type":"Feature","properties":{"depth":4,"kind":"contour"},"geometry":{"type":"LineString","coordinates":[[14.1712075,57.7791208],[14.1708729,57.7790874],[14.1707112,57.7789825],[14.1703028,57.7781693],[14.1702819,57.7778505],[14.1703977,57.7775762],[14.1707215,57.7772602],[14.1709354,57.7769936],[14.1711307,57.776501],[14.1712122,57.7761195],[14.1713468,57.7759385],[14.1715464,57.7757686],[14.171909,57.7755533],[14.171983,57.7755514],[14.1720265,57.7755772],[14.1720613,57.7759361],[14.1723687,57.7765296],[14.1727913,57.7769899],[14.1731421,57.7772204],[14.1735087,57.7773962],[14.1736712,57.7774238],[14.1738681,57.777426],[14.1740975,57.7773697],[14.1746177,57.7769323],[14.1748432,57.7766131],[14.1749036,57.7763059],[14.1748626,57.7759158],[14.1745234,57.7754361],[14.1743462,57.775121],[14.1740816,57.7749552],[14.1735175,57.774786],[14.1729477,57.7745128]]}},{"type":"Feature","properties":{"depth":4,"kind":"contour"},"geometry":{"type":"LineString","coordinates":[[14.1722145,57.7742253],[14.1720351,57.774206],[14.1717689,57.7741307],[14.1715733,57.7740424],[14.1714048,57.7739152],[14.1711869,57.7738549],[14.1706185,57.7736237],[14.1700881,57.7734424],[14.169839,57.7732904],[14.1696088,57.7730353],[14.1692879,57.77285],[14.1689999,57.7727298],[14.16861,57.7726637],[14.1686287,57.772693],[14.1685821,57.7727157],[14.1682783,57.7727143],[14.1679377,57.7727779],[14.16755,57.7726765],[14.1673478,57.7725614],[14.1670786,57.7722741],[14.1671876,57.772238],[14.1669496,57.7721063],[14.1667783,57.7719592],[14.1671883,57.771772],[14.1673005,57.7718156],[14.1675022,57.7717429],[14.1674518,57.7716948],[14.1678037,57.7715189],[14.1678356,57.7715333],[14.1678738,57.7715147],[14.1679011,57.7714714],[14.1681087,57.7713702],[14.168272,57.7713845],[14.1683441,57.7714135],[14.1685643,57.7713061],[14.1686378,57.771313],[14.1687104,57.771269],[14.1686589,57.7712386],[14.1684781,57.7712413],[14.168378,57.7712004],[14.1683252,57.7708673],[14.1680561,57.7707081],[14.1681069,57.7706833],[14.1680241,57.7706297],[14.1676391,57.7704842],[14.1675337,57.770463],[14.1672953,57.7704682],[14.1671743,57.7704332],[14.1670997,57.7703799],[14.1671061,57.7702785],[14.167202,57.770189],[14.1671576,57.7701124],[14.1672084,57.7700876],[14.167132,57.7698686],[14.1669114,57.7697198],[14.1670391,57.769649],[14.167004,57.769555],[14.1669327,57.7695129],[14.1669527,57.7694561],[14.1668818,57.7694096],[14.1669247,57.7693801],[14.1669275,57.769336],[14.1668879,57.7693126],[14.1669305,57.7692875],[14.1669346,57.7690933],[14.1669812,57.7690706],[14.1670301,57.7690767],[14.1670889,57.7691206],[14.1671005,57.7691961],[14.167155,57.7691781],[14.167239,57.769214],[14.1671196,57.7690245],[14.1669951,57.7689143],[14.1670228,57.7688666],[14.1669177,57.768905],[14.1667238,57.7687903],[14.1668424,57.7687324],[14.1668415,57.7686176],[14.1668948,57.7685531],[14.1669001,57.7684693],[14.1668568,57.7684392],[14.1666785,57.7684022],[14.1664241,57.76827],[14.1662187,57.7682719],[14.1659066,57.768078],[14.1658311,57.7679739],[14.1659073,57.7679367],[14.1658525,57.7678951],[14.1659541,57.7678455],[14.1659567,57.7678059],[14.165871,57.7677323],[14.1659063,57.7676937],[14.1658002,57.7676173],[14.165575,57.7675434],[14.1653278,57.7675572],[14.1647683,57.7674455],[14.1642048,57.7672675],[14.1639241,57.7670968],[14.1639715,57.7670609],[14.1647435,57.7671885],[14.1647892,57.767179],[14.1643102,57.7670281],[14.163977,57.7669727],[14.1638934,57.7669964],[14.1637414,57.7669338],[14.1636747,57.7669493],[14.163363,57.7668151],[14.1632791,57.7668431],[14.162792,57.7665595],[14.1628352,57.7665256],[14.1627165,57.7664553],[14.1627576,57.7663242],[14.1627179,57.7661727],[14.1624205,57.7660058],[14.1618765,57.7658439]]}},{"type":"Feature","properties":{"depth":4,"kind":"contour"},"geometry":{"type":"LineString","coordinates":[[14.1601848,57.7652634],[14.1600578,57.7651929],[14.1598634,57.765151],[14.1598298,57.7651631],[14.1596873,57.7650788],[14.1594992,57.765068],[14.1593472,57.7651336],[14.1592161,57.7651291],[14.1590834,57.7652152],[14.1590618,57.7652984],[14.158632,57.7655379],[14.1585585,57.765531],[14.1582699,57.7656803],[14.1582134,57.7656651],[14.1580535,57.765726],[14.1579965,57.7657196],[14.1575884,57.7658759],[14.1576198,57.7658991],[14.1575844,57.7661982],[14.1575319,57.7662495],[14.1573159,57.7663548],[14.1572922,57.7663408],[14.1572247,57.7663694],[14.1571851,57.766346],[14.1569685,57.7664602],[14.1570031,57.7665629],[14.1570899,57.7666188],[14.1569956,57.7666819],[14.1570823,57.7667379],[14.1568748,57.7668391],[14.1566847,57.7668592],[14.1566451,57.7668357],[14.1565293,57.7668495],[14.156408,57.7668189],[14.1562521,57.7668181],[14.1560936,57.7668569],[14.1560043,57.7668406],[14.1557891,57.7669327]]}},{"type":"Feature","properties":{"depth":4,"kind":"contour"},"geometry":{"type":"LineString","coordinates":[[14.1559117,57.7674625],[14.1561811,57.7676174],[14.1562069,57.7677287],[14.1561188,57.7678229],[14.1561901,57.767865],[14.1561088,57.7679815],[14.1555776,57.7682021],[14.1556158,57.7682476],[14.1555226,57.768293],[14.1556247,57.7683672],[14.1554933,57.7684312]]}},{"type":"Feature","properties":{"depth":4,"kind":"contour"},"geometry":{"type":"LineString","coordinates":[[14.1560654,57.7689938],[14.1560892,57.7690079],[14.1562149,57.7689679],[14.1565956,57.7691795],[14.1566547,57.769155],[14.1568802,57.7692885],[14.1568664,57.7693124],[14.1569173,57.7692876],[14.1569653,57.7693069],[14.1570582,57.7692658],[14.1572643,57.7693832],[14.1573575,57.7693378],[14.1575079,57.7694268],[14.1576434,57.7693607],[14.1577674,57.7693472],[14.1578073,57.7693662],[14.1579259,57.7693084],[14.158016,57.7693114],[14.1580914,57.7692874],[14.158181,57.7692993],[14.1585047,57.7695046],[14.1589294,57.7692804],[14.1589619,57.7692859],[14.1591991,57.7691702],[14.1593152,57.769152],[14.1593966,57.7691636],[14.1595149,57.7691102],[14.1596186,57.7691579],[14.1597796,57.7690794],[14.1599681,57.7690857],[14.1601818,57.7692122],[14.1602831,57.769167],[14.1603637,57.7691918],[14.16066,57.7693763],[14.1606752,57.7693945],[14.1606075,57.7694275],[14.1606694,57.7694871],[14.1606349,57.7695124],[14.1608325,57.7696339],[14.1606885,57.7697041]]}},{"type":"Feature","properties":{"depth":4,"kind":"contour"},"geometry":{"type":"LineString","coordinates":[[14.1613717,57.7711738],[14.1615022,57.771187],[14.1616246,57.771264],[14.1617916,57.7716098],[14.161918,57.7716892],[14.1619548,57.7717566],[14.1619105,57.7718082],[14.1619656,57.7718454],[14.1618724,57.7718908],[14.1620186,57.7720459],[14.1620363,57.7721569],[14.162006,57.7723768],[14.1618953,57.7724393],[14.1619902,57.7724955],[14.1619951,57.7725487],[14.1618045,57.7726416]]}},{"type":"Feature","properties":{"depth":4,"kind":"contour"},"geometry":{"type":"LineString","coordinates":[[14.1626233,57.7756685],[14.1628925,57.7756312],[14.1629038,57.775583],[14.1628405,57.7755455],[14.1628791,57.775454],[14.1629299,57.7754292],[14.162903,57.7753356],[14.1631772,57.7752189],[14.1635207,57.7754359],[14.163508,57.7755062],[14.1635476,57.7755296],[14.1635579,57.7756271],[14.1635045,57.7756916],[14.1635995,57.7757478],[14.1635784,57.7758222],[14.163701,57.7757667],[14.1637748,57.7758332],[14.1638386,57.7761225],[14.1637827,57.7761625],[14.1637313,57.7761321],[14.163559,57.7759341],[14.1635028,57.7759786],[14.1635492,57.7760244],[14.1635066,57.7760494],[14.1635532,57.7760908],[14.1635109,57.7761114],[14.1636175,57.7762431],[14.1637204,57.776304],[14.163678,57.7763247],[14.1636897,57.7764001],[14.1635022,57.7765087],[14.1634565,57.7765822],[14.1634791,57.7766139],[14.1634444,57.7766436],[14.1634268,57.7767932],[14.1633844,57.7768139],[14.1633627,57.7768971],[14.1631679,57.7769921],[14.163223,57.7770293],[14.1631846,57.7770523]]}},{"type":"Feature","properties":{"depth":4,"kind":"contour"},"geometry":{"type":"LineString","coordinates":[[14.1631883,57.777059],[14.1631922,57.7770614],[14.1632007,57.7770572],[14.1632482,57.7770853],[14.1632731,57.7770818],[14.1633126,57.7771052],[14.1633804,57.7770721],[14.1635229,57.7771565],[14.1635483,57.7771441],[14.1637937,57.7772893],[14.1638055,57.7772963],[14.1637801,57.7773087],[14.1638237,57.7773345],[14.1638914,57.7773014],[14.1638996,57.7773017],[14.1639709,57.7773438],[14.1639793,57.7773397],[14.1640189,57.7773631],[14.1640432,57.7773684],[14.1642648,57.7774995],[14.1643157,57.7774747],[14.1643473,57.7774935],[14.1643722,57.7774899],[14.1644118,57.7775133],[14.1644361,57.7775186],[14.1645865,57.7776075],[14.1646204,57.777591],[14.164652,57.7776098],[14.1646602,57.77761],[14.1647948,57.7776897],[14.164803,57.7776899],[14.1648199,57.7776817],[14.1648363,57.7776822],[14.1648521,57.7776916],[14.1648775,57.7776792],[14.1650279,57.7777682],[14.1650525,57.777769],[14.1651033,57.7777443],[14.1652221,57.7778145],[14.1652305,57.7778104],[14.165263,57.7778159],[14.165457,57.7779307],[14.1654567,57.7779351],[14.1656387,57.7780428],[14.1656133,57.7780552],[14.1656648,57.7780856],[14.1656975,57.7780867],[14.1657314,57.7780702],[14.1657631,57.778089],[14.1658563,57.7780435],[14.16588,57.7780576],[14.1658885,57.7780534],[14.1659049,57.778054],[14.1661191,57.7781716],[14.1661353,57.7781766],[14.1661601,57.778173],[14.1663778,57.7783018],[14.1663603,57.7783189],[14.1663803,57.7783262],[14.1664516,57.7783684],[14.166468,57.7783689],[14.1665075,57.7783924],[14.1665157,57.7783926],[14.166575,57.7783637],[14.1666384,57.7784012],[14.1666466,57.7784015],[14.1668405,57.7785162],[14.1667388,57.7785658],[14.1667385,57.7785702],[14.1668137,57.7786147],[14.1668561,57.7785941],[14.1668643,57.7785943],[14.1670661,57.7787138],[14.1670574,57.7787223],[14.1670811,57.7787364],[14.1670218,57.7787653],[14.167034,57.7787679],[14.1670679,57.7787514],[14.1672934,57.7788849],[14.167285,57.778889],[14.1673245,57.7789124],[14.167324,57.7789212],[14.1672816,57.7789419],[14.1673212,57.7789653],[14.1672958,57.7789777],[14.1672955,57.7789821],[14.1673153,57.7789938],[14.1673235,57.7789941],[14.1673658,57.7789735],[14.1675914,57.779107],[14.167583,57.7791111],[14.1676146,57.7791298],[14.1675892,57.7791422],[14.1675889,57.7791466],[14.1676087,57.7791583],[14.1676257,57.7791501],[14.1678275,57.7792695],[14.1678272,57.7792739],[14.1677933,57.7792905],[14.1677931,57.7792949],[14.1678247,57.7793136],[14.1678162,57.7793177],[14.1678157,57.7793265],[14.1677649,57.7793513],[14.1677635,57.7793734],[14.1679059,57.7794577],[14.1679136,57.7794668],[14.1679133,57.7794712],[14.1678625,57.779496],[14.1678622,57.7795004],[14.1679097,57.7795285],[14.1678927,57.7795367]]}},{"type":"Feature","properties":{"depth":4,"kind":"contour"},"geometry":{"type":"LineString","coordinates":[[14.1680189,57.7797486],[14.1681535,57.7798282],[14.1681338,57.7798806],[14.1682101,57.7799715],[14.1681633,57.7799986]]}},{"type":"Feature","properties":{"depth":4,"kind":"contour"},"geometry":{"type":"LineString","coordinates":[[14.1682153,57.7800843],[14.168611,57.7805151],[14.1687901,57.7807994],[14.1687736,57.7809314],[14.1686608,57.7811572],[14.1686973,57.7814897],[14.1686086,57.7815287]]}},{"type":"Feature","properties":{"depth":6,"kind":"contour"},"geometry":{"type":"LineString","coordinates":[[14.1689429,57.7816305],[14.1690291,57.7816312],[14.1692499,57.781515],[14.1693488,57.7815095],[14.169492,57.7814525],[14.1695321,57.7814671],[14.1696676,57.781401],[14.1697239,57.7814206]]}},{"type":"Feature","properties":{"depth":6,"kind":"contour"},"geometry":{"type":"LineString","coordinates":[[14.1703591,57.7812433],[14.1704862,57.7811813],[14.1705102,57.7811909],[14.1705947,57.781154],[14.1706184,57.7811681]]}},{"type":"Feature","properties":{"depth":6,"kind":"contour"},"geometry":{"type":"LineString","coordinates":[[14.1708523,57.7811053],[14.1710768,57.7809958],[14.1710536,57.7809729],[14.1711222,57.7809267],[14.1711176,57.7808691],[14.1712532,57.780803],[14.1712314,57.7807581],[14.1712692,57.7806799],[14.1711979,57.7806377],[14.171266,57.7806002],[14.1712701,57.7804701]]}},{"type":"Feature","properties":{"depth":6,"kind":"contour"},"geometry":{"type":"LineString","coordinates":[[14.171279,57.7791585],[14.1708218,57.7791166],[14.1706503,57.7790379],[14.1702088,57.7782279],[14.1701778,57.7780679],[14.1702497,57.77758],[14.1702364,57.7772704],[14.1706707,57.7770244],[14.1707675,57.7769217],[14.170825,57.7767911],[14.1708106,57.7762385],[14.1707454,57.7759712],[14.1707841,57.7757473],[14.170873,57.7756398],[14.1711373,57.7754853],[14.1712776,57.7753443],[14.1712829,57.7752605],[14.1711968,57.7750633],[14.1711876,57.77482],[14.1708654,57.7744602],[14.1704516,57.7742519],[14.1703226,57.7740841],[14.1701001,57.7739662],[14.1698513,57.7737458],[14.1694261,57.7734576],[14.169365,57.7733848],[14.1692387,57.7730449],[14.1691174,57.7729502],[14.1689891,57.7729017],[14.168633,57.772819],[14.1682897,57.7727942],[14.1681519,57.7728315],[14.1681056,57.7729139],[14.1687811,57.7734005],[14.1689824,57.7735928],[14.1690647,57.7737192],[14.1691183,57.773911],[14.16911,57.7740432],[14.1690654,57.7740991],[14.1689521,57.7741373],[14.1688137,57.7741193],[14.168568,57.7739785],[14.1681093,57.7738305],[14.1679703,57.7737574],[14.1678797,57.7736307],[14.1678295,57.773386],[14.1678452,57.7732673],[14.1680019,57.7731268],[14.1679802,57.7729494],[14.167827,57.7728404],[14.1675204,57.772755],[14.1673335,57.7726581],[14.1670315,57.7723697],[14.1666439,57.7721357],[14.1665195,57.7720255],[14.1665166,57.7719415],[14.1666318,57.7718725],[14.1670866,57.7718216],[14.1671883,57.771772],[14.16727,57.7717792],[14.1674634,57.7717062],[14.1681087,57.7713702],[14.168272,57.7713845],[14.1683441,57.7714135],[14.1685643,57.7713061],[14.1686378,57.771313],[14.1687098,57.7712778],[14.168468,57.7712719],[14.1683117,57.7712114],[14.1682498,57.7708913],[14.1681652,57.7708001],[14.1679956,57.7706906],[14.1677867,57.7706173],[14.1671614,57.7705078],[14.1670328,57.7704637],[14.1669505,57.7704013],[14.1669425,57.7702685],[14.167039,57.7699096],[14.1669977,57.7697845],[14.1669114,57.7697198],[14.1669628,57.7696862],[14.1668332,57.7693991],[14.1668279,57.7689616],[14.1667792,57.7688231],[14.1667238,57.7687903],[14.1667662,57.7687696],[14.1666984,57.7685421],[14.1665531,57.7684378],[14.1661832,57.7683149],[14.1659166,57.76818],[14.165849,57.7680805],[14.165799,57.7678315],[14.1656701,57.7677277],[14.1655096,57.7676693],[14.1645768,57.7674877],[14.1641102,57.767335],[14.1635703,57.7670429],[14.1627673,57.7666912],[14.1626759,57.7665776],[14.1626814,57.7663614],[14.1626058,57.7662572],[14.1624993,57.7661896],[14.1614547,57.7658275]]}},{"type":"Feature","properties":{"depth":6,"kind":"contour"},"geometry":{"type":"LineString","coordinates":[[14.1609957,57.7656839],[14.160376,57.7654863],[14.1598773,57.7654518],[14.1594643,57.7654909],[14.1587985,57.7656319],[14.1584299,57.7657475],[14.1581043,57.7658978],[14.1578686,57.7661195],[14.1577107,57.7662135],[14.1571693,57.7664007],[14.157081,57.7664993],[14.1570506,57.766591],[14.1570899,57.7666188],[14.157019,57.7667004],[14.1570823,57.7667379],[14.1568748,57.7668391],[14.1566847,57.7668592],[14.1566451,57.7668357],[14.1565293,57.7668495],[14.156408,57.7668189],[14.1562521,57.7668181],[14.156173,57.7668353],[14.1560188,57.7669361]]}},{"type":"Feature","properties":{"depth":6,"kind":"contour"},"geometry":{"type":"LineString","coordinates":[[14.1559117,57.7674625],[14.1561811,57.7676174],[14.1562105,57.7676714],[14.1561701,57.7679218],[14.1561167,57.7679862],[14.1559013,57.7680828],[14.1558603,57.7680814],[14.1557451,57.7681504],[14.1556119,57.7683093],[14.1556247,57.7683672],[14.1555484,57.7684043],[14.1555292,57.7684479]]}},{"type":"Feature","properties":{"depth":6,"kind":"contour"},"geometry":{"type":"LineString","coordinates":[[14.1560654,57.7689938],[14.1560892,57.7690079],[14.1562149,57.7689679],[14.1565956,57.7691795],[14.1566547,57.769155],[14.1568802,57.7692885],[14.1568664,57.7693124],[14.1569173,57.7692876],[14.1569653,57.7693069],[14.1570582,57.7692658],[14.1572643,57.7693832],[14.1573575,57.7693378],[14.1575079,57.7694268],[14.1576434,57.7693607],[14.1577674,57.7693472],[14.1578073,57.7693662],[14.1579259,57.7693084],[14.158016,57.7693114],[14.1580914,57.7692874],[14.158181,57.7692993],[14.1585047,57.7695046],[14.1589294,57.7692804],[14.1589619,57.7692859],[14.1591991,57.7691702],[14.1593152,57.769152],[14.1593966,57.7691636],[14.1595149,57.7691102],[14.1596186,57.7691579],[14.1597796,57.7690794],[14.1599681,57.7690857],[14.1601818,57.7692122],[14.1602831,57.769167],[14.1603637,57.7691918],[14.16066,57.7693763],[14.1606752,57.7693945],[14.1606075,57.7694275],[14.1606694,57.7694871],[14.1606349,57.7695124],[14.1608325,57.7696339],[14.1606885,57.7697041]]}},{"type":"Feature","properties":{"depth":6,"kind":"contour"},"geometry":{"type":"LineString","coordinates":[[14.1609011,57.7697842],[14.1610384,57.7698198],[14.1612227,57.7699563],[14.161422,57.7703119],[14.161432,57.7704139],[14.1613657,57.770553],[14.1612938,57.7706522],[14.1612472,57.7706749],[14.1612152,57.7706605]]}},{"type":"Feature","properties":{"depth":6,"kind":"contour"},"geometry":{"type":"LineString","coordinates":[[14.1612968,57.7709283],[14.1613802,57.7709091],[14.1619109,57.771086],[14.1620497,57.7711635],[14.1621171,57.7712674],[14.1621093,57.7713908],[14.161986,57.7716517],[14.1621789,57.7721087],[14.162194,57.7722594],[14.1620054,57.7726462],[14.1619451,57.7728208],[14.1619734,57.7728925],[14.1618887,57.7729338]]}},{"type":"Feature","properties":{"depth":6,"kind":"contour"},"geometry":{"type":"LineString","coordinates":[[14.1625231,57.7754354],[14.1625395,57.7754359],[14.1625474,57.7754406],[14.1626375,57.7754437],[14.162646,57.7754395],[14.1626954,57.7754368],[14.1627457,57.7754208],[14.1627669,57.7754105],[14.1627672,57.7754061],[14.1627928,57.7753893],[14.1627934,57.7753805],[14.1628019,57.7753763],[14.162803,57.7753587],[14.1628115,57.7753546],[14.1628126,57.7753369],[14.1628047,57.7753323],[14.162806,57.7753102],[14.1627981,57.7753055],[14.162799,57.7752923],[14.1627911,57.7752876],[14.1627919,57.7752744],[14.1627766,57.7752562],[14.1627775,57.775243],[14.1627695,57.7752383],[14.162763,57.7752116],[14.1627551,57.7752069],[14.1627559,57.7751937],[14.162748,57.775189],[14.1627497,57.7751625],[14.1627418,57.7751579],[14.1627437,57.775127],[14.1627522,57.7751229],[14.162753,57.7751097],[14.1627618,57.7751011],[14.1628084,57.7750784],[14.1628414,57.7750751],[14.1628499,57.775071],[14.1629154,57.7750732],[14.1629234,57.7750779],[14.1629479,57.7750787],[14.1629559,57.7750834],[14.1629965,57.7750892],[14.1630932,57.7751189],[14.163133,57.7751379],[14.1631412,57.7751382],[14.1632925,57.775214],[14.163373,57.7752388],[14.1633888,57.7752482],[14.1634131,57.7752534],[14.163429,57.7752628],[14.1634612,57.7752727],[14.1635364,57.7753172],[14.1635361,57.7753216],[14.1635599,57.7753357],[14.1635751,57.7753538],[14.163591,57.7753632],[14.1635983,57.7753767],[14.1636141,57.7753861],[14.1637058,57.7754952],[14.1637052,57.775504],[14.163759,57.7755632],[14.1637584,57.775572],[14.1637969,57.7756131],[14.1637963,57.7756219],[14.1638727,57.7757128],[14.1638721,57.7757216],[14.1638953,57.7757445],[14.1638948,57.7757533],[14.1639103,57.7757671],[14.1639098,57.7757759],[14.163925,57.7757941],[14.1639242,57.7758073],[14.1639321,57.775812],[14.1639384,57.7758431],[14.1639463,57.7758478],[14.1639449,57.7758699],[14.1639528,57.7758745],[14.1639579,57.7759233],[14.1639658,57.775928],[14.1639647,57.7759456],[14.1639726,57.7759503],[14.1639713,57.7759723],[14.1639792,57.775977],[14.1639781,57.7759947],[14.163986,57.7759993],[14.1639849,57.776017],[14.1639928,57.7760217],[14.1639976,57.7760748],[14.1640055,57.7760795],[14.1640036,57.7761104],[14.1640115,57.776115],[14.164009,57.7761547],[14.1640169,57.7761594],[14.164013,57.7762211],[14.1640209,57.7762258],[14.1640151,57.7763184],[14.1640066,57.7763225],[14.1640047,57.7763533],[14.1639962,57.7763575],[14.1639951,57.7763751],[14.1639776,57.7763922],[14.163977,57.776401],[14.1639686,57.7764051],[14.163968,57.7764139],[14.1639418,57.7764396],[14.163813,57.776528],[14.1637693,57.7765707],[14.1637506,57.7766054],[14.1637422,57.7766095],[14.163732,57.7766401],[14.1637236,57.7766442],[14.1637224,57.7766618],[14.163714,57.776666],[14.1637129,57.7766836],[14.1637044,57.7766877],[14.1636917,57.776758],[14.1636833,57.7767621],[14.163681,57.7767974],[14.1636726,57.7768015],[14.1636602,57.7768674],[14.1636517,57.7768715],[14.1636391,57.7769417],[14.1636306,57.7769459],[14.1636287,57.7769767],[14.1636202,57.7769808],[14.1636188,57.7770029],[14.1636103,57.777007],[14.1636095,57.7770202],[14.163592,57.7770373],[14.1635914,57.7770461],[14.1635364,57.777073],[14.1634626,57.7770705],[14.1634547,57.7770658],[14.163414,57.77706],[14.1633818,57.7770501],[14.1633329,57.777044],[14.1633036,57.7770541],[14.1633024,57.7770717],[14.1633256,57.7770946],[14.1633296,57.7770969],[14.1633804,57.7770721],[14.1635229,57.7771565],[14.1635483,57.7771441],[14.1638055,57.7772963],[14.1637801,57.7773087],[14.1638237,57.7773345],[14.1638914,57.7773014],[14.1638996,57.7773017],[14.1639709,57.7773438],[14.1639793,57.7773397],[14.1640189,57.7773631],[14.1640432,57.7773684],[14.1642648,57.7774995],[14.1643157,57.7774747],[14.1643473,57.7774935],[14.1643722,57.7774899],[14.1644118,57.7775133],[14.1644361,57.7775186],[14.1645865,57.7776075],[14.1646204,57.777591],[14.164652,57.7776098],[14.1646602,57.77761],[14.1647948,57.7776897],[14.164803,57.7776899],[14.1648199,57.7776817],[14.1648363,57.7776822],[14.1648521,57.7776916],[14.1648775,57.7776792],[14.1650279,57.7777682],[14.1650525,57.777769],[14.1651033,57.7777443],[14.1652221,57.7778145],[14.1652305,57.7778104],[14.165263,57.7778159],[14.165457,57.7779307],[14.1654567,57.7779351],[14.1656387,57.7780428],[14.1656133,57.7780552],[14.1656648,57.7780856],[14.1656975,57.7780867],[14.1657314,57.7780702],[14.1657631,57.778089],[14.1658563,57.7780435],[14.16588,57.7780576],[14.1658885,57.7780534],[14.1659049,57.778054],[14.1661191,57.7781716],[14.1661353,57.7781766],[14.1661601,57.778173],[14.1663778,57.7783018],[14.1663603,57.7783189],[14.1663803,57.7783262],[14.1664516,57.7783684],[14.166468,57.7783689],[14.1665075,57.7783924],[14.1665157,57.7783926],[14.166575,57.7783637],[14.1666384,57.7784012],[14.1666466,57.7784015],[14.1668405,57.7785162],[14.1667388,57.7785658],[14.1667385,57.7785702],[14.1668137,57.7786147],[14.1668561,57.7785941],[14.1668643,57.7785943],[14.1670661,57.7787138],[14.1670574,57.7787223],[14.1670811,57.7787364],[14.1670218,57.7787653],[14.167034,57.7787679],[14.1670679,57.7787514],[14.1672934,57.7788849],[14.167285,57.778889],[14.1673245,57.7789124],[14.167324,57.7789212],[14.1672816,57.7789419],[14.1673212,57.7789653],[14.1672958,57.7789777],[14.1672955,57.7789821],[14.1673153,57.7789938],[14.1673235,57.7789941],[14.1673658,57.7789735],[14.1675914,57.779107],[14.167583,57.7791111],[14.1676146,57.7791298],[14.1675892,57.7791422],[14.1675889,57.7791466],[14.1676087,57.7791583],[14.1676257,57.7791501],[14.1678275,57.7792695],[14.1678272,57.7792739],[14.1677933,57.7792905],[14.1677931,57.7792949],[14.1678247,57.7793136],[14.1678162,57.7793177],[14.1678157,57.7793265],[14.1677649,57.7793513],[14.1677635,57.7793734],[14.1679059,57.7794577],[14.1679136,57.7794668],[14.1679133,57.7794712],[14.1678625,57.779496],[14.1678622,57.7795004],[14.1679097,57.7795285],[14.1678927,57.7795367]]}},{"type":"Feature","properties":{"depth":6,"kind":"contour"},"geometry":{"type":"LineString","coordinates":[[14.1679188,57.7795796],[14.1682228,57.7799013],[14.1688898,57.7807807],[14.1688981,57.7809091],[14.1687706,57.7811079],[14.1687453,57.7812484],[14.1688575,57.7815526],[14.1689429,57.7816305]]}},{"type":"Feature","properties":{"depth":6,"kind":"contour"},"geometry":{"type":"LineString","coordinates":[[14.1736862,57.7771217],[14.1739365,57.7771236],[14.1741441,57.7770864],[14.1742949,57.7769744],[14.1743159,57.7767719],[14.1741765,57.7763785],[14.1741072,57.7763055],[14.1739676,57.7762412],[14.1738285,57.7762321],[14.1734144,57.7762888],[14.1732211,57.7762292],[14.1730913,57.7761387],[14.1729569,57.7759266],[14.1729493,57.7756569],[14.1727762,57.7751475],[14.1727811,57.7749401],[14.1726911,57.7748045],[14.1724882,57.7747027],[14.172142,57.7745938],[14.1717416,57.7745627],[14.1715843,57.7745839],[14.1713937,57.7746768],[14.1713621,57.7747862],[14.1713904,57.7748578],[14.1715265,57.7750435],[14.1716758,57.7751501],[14.1720757,57.7752542],[14.1721345,57.7752981],[14.1721399,57.7753425],[14.1720606,57.7754281],[14.1723015,57.7756439],[14.1725547,57.7760544],[14.1726089,57.7764979],[14.172683,57.7766241],[14.1728767,57.7768073],[14.1732368,57.7770204],[14.1734053,57.7770835],[14.1736862,57.7771217]]}},{"type":"Feature","properties":{"depth":8,"kind":"contour"},"geometry":{"type":"LineString","coordinates":[[14.1690957,57.7815518],[14.1693488,57.7815095],[14.169492,57.7814525],[14.1695321,57.7814671],[14.1696676,57.781401],[14.169749,57.7814126]]}},{"type":"Feature","properties":{"depth":8,"kind":"contour"},"geometry":{"type":"LineString","coordinates":[[14.1703591,57.7812433],[14.1704862,57.7811813],[14.1705102,57.7811909],[14.1705947,57.781154],[14.1706184,57.7811681]]}},{"type":"Feature","properties":{"depth":8,"kind":"contour"},"geometry":{"type":"LineString","coordinates":[[14.1708523,57.7811053],[14.1710689,57.7809911],[14.1710536,57.7809729],[14.1711222,57.7809267],[14.1711176,57.7808691],[14.1712532,57.780803],[14.1712314,57.7807581],[14.1712692,57.7806799],[14.1711979,57.7806377],[14.171266,57.7806002],[14.1712701,57.7804701]]}},{"type":"Feature","properties":{"depth":8,"kind":"contour"},"geometry":{"type":"LineString","coordinates":[[14.171385,57.7798202],[14.1713019,57.779771],[14.1715227,57.7796548],[14.1715986,57.7794939],[14.171584,57.7793344]]}},{"type":"Feature","properties":{"depth":8,"kind":"contour"},"geometry":{"type":"LineString","coordinates":[[14.1713664,57.7792056],[14.170738,57.7791447],[14.1705656,57.7790792],[14.1700793,57.7781971],[14.1701208,57.7772797],[14.1702001,57.777194],[14.1704453,57.777083],[14.1705912,57.776982],[14.170704,57.7767561],[14.1706869,57.7762475],[14.1706218,57.7761084],[14.1705143,57.7759899],[14.1704646,57.7757365],[14.1702471,57.7755392],[14.1697813,57.7752452],[14.1696896,57.7751361],[14.1693247,57.7749339],[14.1693724,57.7748935],[14.1695187,57.7748521],[14.1695576,57.7747562],[14.1695128,57.7745559],[14.1693114,57.7743636],[14.1691636,57.774299],[14.1690328,57.7742902],[14.1688582,57.774324],[14.1686142,57.7744174],[14.1685707,57.7743916],[14.1685753,57.7741886],[14.1684684,57.7740613],[14.1683378,57.773984],[14.1680009,57.7738578],[14.1678471,57.7737576],[14.1677528,57.7735601],[14.167753,57.773167],[14.167669,57.773067],[14.1675982,57.7728879],[14.1672819,57.7726961],[14.1670118,57.772422],[14.1665219,57.7721184],[14.1664218,57.7720134],[14.1664364,57.7719123],[14.1665516,57.7718433],[14.1667267,57.7718006],[14.1671736,57.771745],[14.1673916,57.7716729],[14.1679084,57.7714209],[14.1680324,57.7714074],[14.1681087,57.7713702],[14.168296,57.7713942],[14.1684118,57.7713804],[14.1685347,57.7713205],[14.16836,57.7712903],[14.1682054,57.7712034],[14.1681105,57.7708866],[14.1679182,57.7707454],[14.167693,57.7706715],[14.1669713,57.7705279],[14.1668746,57.7704981],[14.1667765,57.7704264],[14.1667635,57.7701123],[14.1668162,57.769668],[14.1666649,57.7692035],[14.1664767,57.7689321],[14.1664604,57.768671],[14.1663964,57.7685142],[14.16612,57.7684055],[14.1656486,57.7683277],[14.1654168,57.7681631],[14.1652109,57.7679132],[14.1650011,57.7677891],[14.1635997,57.7673575],[14.1627147,57.7669389],[14.162529,57.7668245],[14.1623661,57.7666732],[14.1622624,57.7663649],[14.1621258,57.7662521],[14.1610189,57.7659674],[14.1604405,57.7658949],[14.1599243,57.7658774],[14.1591387,57.7659658],[14.1580289,57.7662464],[14.1577725,57.7663415],[14.1576472,57.7665051],[14.1576558,57.7666291],[14.1577875,57.7667528],[14.1577319,57.7667885],[14.1573107,57.7668273],[14.1570827,57.7667975],[14.1566505,57.7668801]]}},{"type":"Feature","properties":{"depth":8,"kind":"contour"},"geometry":{"type":"LineString","coordinates":[[14.1565121,57.7671868],[14.1564843,57.767367],[14.1566595,57.767713],[14.1566492,57.7678761],[14.1565959,57.7679406],[14.1564812,57.7680007],[14.1561129,57.768112],[14.1559395,57.7681923],[14.155791,57.768333],[14.1556841,57.7685304]]}},{"type":"Feature","properties":{"depth":8,"kind":"contour"},"geometry":{"type":"LineString","coordinates":[[14.1560657,57.7689894],[14.1560977,57.7690037],[14.1562149,57.7689679],[14.1565956,57.7691795],[14.1566547,57.769155],[14.1568752,57.7693038],[14.1569254,57.7692878],[14.1569653,57.7693069],[14.1570582,57.7692658],[14.1572643,57.7693832],[14.1573575,57.7693378],[14.1575079,57.7694268],[14.1576434,57.7693607],[14.1577674,57.7693472],[14.1578073,57.7693662],[14.1579259,57.7693084],[14.158016,57.7693114],[14.1580914,57.7692874],[14.158181,57.7692993],[14.158473,57.7694858],[14.1585468,57.7694883],[14.1589294,57.7692804],[14.1589619,57.7692859],[14.1591991,57.7691702],[14.1593028,57.7691538],[14.1592897,57.7691004],[14.159253,57.7690969],[14.1589787,57.7691495],[14.1589273,57.7691191],[14.1589306,57.7690662],[14.1590528,57.768951],[14.1592273,57.7688531],[14.1594593,57.7688212],[14.1595833,57.7688718],[14.1596212,57.7689216],[14.1595564,57.7690387],[14.159611,57.7691488],[14.1597796,57.7690794],[14.1599681,57.7690857],[14.1601818,57.7692122],[14.1602831,57.769167],[14.1603637,57.7691918],[14.16066,57.7693763],[14.1606752,57.7693945],[14.1606075,57.7694275],[14.1606694,57.7694871],[14.1606352,57.769508],[14.1608365,57.7696363],[14.1610481,57.7696655],[14.1615476,57.7698833],[14.1618336,57.7702949],[14.1617936,57.7704084],[14.1616353,57.7705753],[14.1616433,57.7707081],[14.1617802,57.7708806],[14.1621675,57.7711189],[14.1622501,57.771241],[14.1622437,57.7713424],[14.1621165,57.7715368],[14.1620909,57.7716817],[14.1622772,57.7721121],[14.1622822,57.7722933],[14.1619425,57.7731211]]}},{"type":"Feature","properties":{"depth":8,"kind":"contour"},"geometry":{"type":"LineString","coordinates":[[14.1623792,57.7744632],[14.1625562,57.7745862],[14.1626714,57.7748419],[14.1627755,57.7749492],[14.1629385,57.7749679],[14.1631232,57.7749035],[14.1632464,57.7749032],[14.1635539,57.7749755],[14.1636531,57.7750296],[14.1639423,57.7755208],[14.1641276,57.7760969],[14.1641618,57.7767253],[14.1640727,57.7768371],[14.1637685,57.7769726],[14.1636314,57.7771932],[14.1638055,57.7772963],[14.1637801,57.7773087],[14.1638078,57.7773251],[14.1638996,57.7773017],[14.1642648,57.7774995],[14.1643157,57.7774747],[14.1643722,57.7774899],[14.1645865,57.7776075],[14.1646204,57.777591],[14.1647948,57.7776897],[14.1648775,57.7776792],[14.1650279,57.7777682],[14.1651033,57.7777443],[14.1657631,57.778089],[14.1658563,57.7780435],[14.1659049,57.778054],[14.1661601,57.778173],[14.1664516,57.7783684],[14.1665157,57.7783926],[14.166575,57.7783637],[14.1668405,57.7785162],[14.1667724,57.7785537],[14.1670661,57.7787138],[14.1670639,57.778749],[14.1672934,57.7788849],[14.1673534,57.7789752],[14.1675914,57.779107],[14.1675889,57.7791466],[14.1678275,57.7792695],[14.1677812,57.7793519],[14.168193,57.7797236],[14.1686374,57.780357],[14.1689907,57.7807443],[14.1690126,57.7809173],[14.1689017,57.7811124],[14.1688855,57.7812399],[14.1689293,57.7813253],[14.1690232,57.7813992],[14.1690315,57.7815275],[14.1690957,57.7815518]]}},{"type":"Feature","properties":{"depth":8,"kind":"contour"},"geometry":{"type":"LineString","coordinates":[[14.170759,57.7754946],[14.1708449,57.7754998],[14.1709701,57.7754686],[14.1710937,57.7753955],[14.1711482,57.7753134],[14.1709866,57.7747514],[14.1708941,57.7746555],[14.1707398,57.7745642],[14.1704219,57.774527],[14.1701661,57.7744167],[14.1700271,57.7744076],[14.1698789,57.7744799],[14.1698476,57.7745849],[14.1701354,57.7750982],[14.1704541,57.7753828],[14.170759,57.7754946]]}},{"type":"Feature","properties":{"depth":10,"kind":"contour"},"geometry":{"type":"LineString","coordinates":[[14.1695334,57.781381],[14.1697354,57.781368],[14.17031,57.7812416],[14.1708045,57.7810816],[14.1711157,57.7809],[14.1712525,57.7806837],[14.1711979,57.7806377],[14.171266,57.7806002],[14.171181,57.7801248],[14.1711897,57.7799881],[14.1713251,57.7797939],[14.1713019,57.779771],[14.1713784,57.7797295],[14.1715062,57.7795262],[14.1715414,57.7793595],[14.1714882,57.7792914],[14.1713565,57.7792318],[14.1711612,57.7792031],[14.1706699,57.7791821],[14.1704814,57.7791117],[14.169981,57.7781937],[14.1700403,57.7772549],[14.1701275,57.7771739],[14.1704921,57.7769919],[14.1706201,57.7767842],[14.1705623,57.7762698],[14.1703544,57.7760508],[14.170266,57.7757607],[14.170072,57.7755819],[14.1695886,57.775305],[14.1695224,57.7751835],[14.168824,57.7748662],[14.1685045,57.7746588],[14.1684225,57.774528],[14.1684482,57.7742506],[14.1683814,57.7741379],[14.1678093,57.7738359],[14.1676863,57.7737036],[14.1676441,57.7735918],[14.1676268,57.7732157],[14.1673934,57.772881],[14.1671601,57.7726744],[14.1669457,57.7724286],[14.166479,57.7721478],[14.1663322,57.7720015],[14.1663553,57.7718963],[14.1665046,57.7718064],[14.167121,57.7716682],[14.1676259,57.7714732],[14.1678719,57.771349],[14.1681499,57.7713672],[14.1682163,57.7713562],[14.1682555,57.7713199],[14.1681566,57.7712614],[14.1679783,57.7712245],[14.1677027,57.7710385],[14.1671394,57.770856],[14.1670088,57.7707787],[14.1669672,57.7706581],[14.1667874,57.7705791],[14.1666424,57.7704704],[14.1665188,57.7700864],[14.1666041,57.7697757],[14.1666123,57.7695153],[14.1664813,57.7692503],[14.1660095,57.7686602],[14.166004,57.7686158],[14.1661052,57.768575],[14.1661068,57.7685486],[14.1660232,57.7685082],[14.1657711,57.7684688],[14.1654891,57.7683842],[14.16532,57.7682659],[14.1650281,57.7679468],[14.164826,57.7678318],[14.1641882,57.7676601],[14.1637149,57.7676132],[14.1635492,57.767506],[14.1633328,57.7674236],[14.1631826,57.7673302],[14.1628924,57.7672453],[14.1625684,57.7670444],[14.1622678,57.7669945],[14.1618337,57.7668474],[14.1617198,57.7667662],[14.1613973,57.7664108],[14.1610101,57.7662365],[14.1601334,57.766207],[14.1595161,57.7662303],[14.1591761,57.7663491],[14.1590459,57.7664596],[14.1588426,57.7665587],[14.1586334,57.7667504],[14.1583578,57.7668251],[14.1583341,57.7669391],[14.1580766,57.7670519],[14.1577949,57.767091],[14.1575433,57.7671752],[14.1573023,57.7672201],[14.1570814,57.7672082],[14.1569813,57.7671673],[14.1569781,57.7670877],[14.1570756,57.7670402],[14.1573392,57.767027],[14.1575228,57.7669802],[14.1579087,57.76698],[14.1580166,57.7669615],[14.1580894,57.7669132],[14.158062,57.7668924],[14.157758,57.7668954],[14.1575173,57.7669358],[14.1571877,57.7669556],[14.1568462,57.7670965]]}},{"type":"Feature","properties":{"depth":10,"kind":"contour"},"geometry":{"type":"LineString","coordinates":[[14.1568205,57.7671133],[14.1567073,57.7672155],[14.1566973,57.7673742],[14.1568044,57.767433],[14.1569561,57.7673719],[14.157037,57.7674563],[14.1570342,57.7675004],[14.1569876,57.7675231],[14.1568333,57.7674958],[14.1568023,57.7675323],[14.1568646,57.7677155],[14.1568394,57.7679841],[14.1567324,57.7680534],[14.156291,57.7682174],[14.1561781,57.7683152],[14.1562724,57.7683161],[14.1568066,57.7681796],[14.156903,57.7680172],[14.1571685,57.7679091],[14.1573397,57.7679281],[14.1574463,57.7679958],[14.1574814,57.7680897],[14.1574007,57.7681334],[14.1572631,57.7681022],[14.1571642,57.7681077],[14.1568967,57.7681826],[14.1567436,57.7682658],[14.1565595,57.7683214],[14.1564779,57.7683783],[14.156253,57.7686887],[14.156198,57.7687156],[14.1560976,57.7686791],[14.1559777,57.7685624],[14.1558117,57.7686562]]}},{"type":"Feature","properties":{"depth":10,"kind":"contour"},"geometry":{"type":"LineString","coordinates":[[14.1558606,57.7687263],[14.1559678,57.7687851],[14.1561572,57.7689704],[14.1562149,57.7689679],[14.1564532,57.7690952],[14.1566547,57.769155],[14.1569659,57.769298],[14.1570582,57.7692658],[14.1572643,57.7693832],[14.1573575,57.7693378],[14.1575079,57.7694268],[14.1576434,57.7693607],[14.1577674,57.7693472],[14.1578073,57.7693662],[14.1579259,57.7693084],[14.158016,57.7693114],[14.1580914,57.7692874],[14.158181,57.7692993],[14.1583947,57.7694258],[14.1584995,57.7693918],[14.1586344,57.7692064],[14.1586301,57.7691444],[14.1585854,57.7691363],[14.1584168,57.7692057],[14.1582532,57.7691957],[14.1582018,57.7691653],[14.15847,57.7690131],[14.158641,57.7690365],[14.1588954,57.7688441],[14.1591024,57.7687517],[14.1593021,57.7687099],[14.1594902,57.7687207],[14.1596112,57.7687557],[14.1597178,57.7688233],[14.1598861,57.769083],[14.1599681,57.7690857],[14.1600868,57.769156],[14.1602165,57.7691825],[14.1602913,57.7691673],[14.1603637,57.7691918],[14.1607182,57.7694291],[14.1611873,57.7695421],[14.161691,57.7698219],[14.162074,57.7702589],[14.1620438,57.7703462],[14.1618395,57.7705911],[14.1618397,57.7707192],[14.1619007,57.7707919],[14.1623011,57.7710837],[14.1624058,57.7712462],[14.1623649,57.771373],[14.1621951,57.7715925],[14.1622031,57.7717253],[14.1623809,57.7721597],[14.1623605,57.7723534],[14.1621992,57.7726969],[14.1621125,57.7730297],[14.1621319,57.7732424],[14.1622834,57.7735743],[14.1622617,57.7736575],[14.1621384,57.7737903]]}},{"type":"Feature","properties":{"depth":10,"kind":"contour"},"geometry":{"type":"LineString","coordinates":[[14.1623387,57.7743249],[14.1625077,57.7743792],[14.1628616,57.7746252],[14.1630069,57.7746655],[14.1630821,57.77471],[14.1630994,57.7747613],[14.1633511,57.7748052],[14.1637137,57.7749146],[14.1638435,57.7750051],[14.1640851,57.7753401],[14.164178,57.7755597],[14.1642076,57.7758699],[14.1643713,57.7765291],[14.1643681,57.7767101],[14.1642603,57.7768567],[14.1638381,57.7770412],[14.163765,57.777158],[14.1637917,57.7772561],[14.1645472,57.7775797],[14.1649895,57.7777272],[14.1651033,57.7777443],[14.1657981,57.7780548],[14.1659049,57.778054],[14.1663422,57.7782808],[14.1665496,57.7783761],[14.166575,57.7783637],[14.1668405,57.7785162],[14.1668233,57.7785289],[14.167288,57.7788405],[14.1678275,57.7792695],[14.1678179,57.7792913],[14.1682929,57.7797004],[14.1685452,57.7799961],[14.1687235,57.7802936],[14.1691136,57.7807485],[14.1691194,57.7809165],[14.1690549,57.7811573],[14.1690827,57.7812377],[14.1691494,57.7812864],[14.1695334,57.781381]]}},{"type":"Feature","properties":{"depth":12,"kind":"contour"},"geometry":{"type":"LineString","coordinates":[[14.1694697,57.7812199],[14.1696703,57.7812288],[14.1700336,57.7811969],[14.1701505,57.7811655],[14.1704312,57.7810116],[14.1705643,57.7809851],[14.1708194,57.7809761],[14.1709112,57.7809527],[14.1710603,57.7808672],[14.1711765,57.7807165],[14.1712004,57.780598],[14.1710909,57.7801217],[14.1711001,57.7799763],[14.1714265,57.7794881],[14.1714583,57.7793744],[14.171421,57.7793157],[14.1713212,57.7792704],[14.1711339,57.7792464],[14.1706256,57.7792336],[14.1704801,57.7791978],[14.170389,57.7791439],[14.1703053,57.7790395],[14.1701861,57.7787175],[14.1698485,57.7782114],[14.1698383,57.7781138],[14.1699183,57.7778868],[14.1699253,57.7772554],[14.1700046,57.7771698],[14.1704025,57.77698],[14.1705199,57.7768117],[14.1705061,57.776639],[14.1703307,57.7762974],[14.1701788,57.7761023],[14.1701085,57.7759144],[14.1698608,57.7756764],[14.1696021,57.7755462],[14.1694648,57.7755106],[14.1691701,57.7754962],[14.1690679,57.7755546],[14.1687776,57.7754057],[14.1686613,57.7751677],[14.168632,57.7749812],[14.168333,57.7746442],[14.1682868,57.7742054],[14.1681494,57.7741058],[14.1677896,57.7739523],[14.167605,57.7738202],[14.1674935,57.7736353],[14.1674844,57.7732595],[14.1671874,57.7728917],[14.1669404,57.7725124],[14.1667925,57.7723837],[14.166349,57.7721258],[14.166241,57.7720161],[14.1662307,57.7719186],[14.1663018,57.7718327],[14.166493,57.7717309],[14.1667404,57.7716487],[14.1667765,57.7715969],[14.1667072,57.7715239],[14.16677,57.7713096],[14.1666244,57.770885],[14.1666406,57.7707575],[14.1663789,57.7703511],[14.1662874,57.7701095],[14.1663185,57.7697483],[14.1662775,57.7694864],[14.166047,57.7692356],[14.1659516,57.7690557],[14.1656541,57.7686967],[14.1654164,57.7686247],[14.1652292,57.7684682],[14.1649302,57.7683918],[14.1647753,57.7683093],[14.1644968,57.7680393],[14.1645261,57.7679652],[14.1644746,57.7679348],[14.1639581,57.7677936],[14.1636164,57.7677424],[14.1634067,57.7676823],[14.163159,57.7677048],[14.1629157,57.7676569],[14.1626022,57.7674851],[14.1624511,57.7672768],[14.1623759,57.7672323],[14.1620156,57.7670876],[14.1615304,57.7669697],[14.1611289,57.7669561],[14.1608774,57.7669079],[14.1606158,57.7668902],[14.159411,57.766854],[14.1592775,57.7669533],[14.159147,57.7670041],[14.1590815,57.7670019],[14.1589243,57.7668906],[14.1585996,57.7670916],[14.1583225,57.7671883],[14.1577491,57.767297],[14.157609,57.7673696],[14.1576187,57.7674119],[14.1577902,57.7674265],[14.1579915,57.7673582],[14.1582074,57.7673213],[14.1583432,57.7672508],[14.1584005,57.7672528],[14.1585682,57.7673931],[14.1584889,57.7674788],[14.1584215,57.7676355],[14.1583749,57.7676583],[14.1582026,57.7676569],[14.1579851,57.7677202],[14.1577961,57.7677227],[14.1576636,57.7676762],[14.1575804,57.767563],[14.1575041,57.7675361],[14.1574391,57.7675891],[14.1574707,57.7677404],[14.1575634,57.7678319],[14.1578594,57.7680207],[14.1579184,57.7679322],[14.1579819,57.7679012],[14.1582378,57.7678789],[14.1583593,57.767841],[14.1583943,57.7678069],[14.1583919,57.767714],[14.1584473,57.7676828],[14.1586106,57.7676971],[14.1588179,57.7676644],[14.1590621,57.7676991],[14.1592694,57.7676664],[14.1593814,57.7677784],[14.1593507,57.7678745],[14.1592956,57.7679013],[14.1589526,57.7678721],[14.1587853,57.7677914],[14.1585881,57.7677935],[14.1584991,57.7678369],[14.1585359,57.7679044],[14.1585117,57.7680273],[14.1589873,57.768103],[14.1591671,57.7681819],[14.1594024,57.7684858],[14.1598403,57.7687038],[14.1601296,57.7690625],[14.160189,57.7690976],[14.1607514,57.7692933],[14.1613372,57.7693793],[14.161732,57.7694986],[14.1617987,57.7695473],[14.1618701,57.7697175],[14.1622537,57.7700131],[14.1623848,57.7702782],[14.162321,57.7703776],[14.1621296,57.7705478],[14.1621207,57.7706889],[14.1622031,57.7708154],[14.1624904,57.7710768],[14.1625651,57.7711942],[14.1625387,57.7713523],[14.1623677,57.7715895],[14.1625306,57.7721294],[14.162491,57.7723666],[14.1623442,57.7727416],[14.1623026,57.7730096],[14.1624216,57.7735967],[14.1623454,57.7740225],[14.1624614,57.7741369],[14.1631455,57.7745509],[14.1639362,57.7747719],[14.1641077,57.7747865],[14.1642462,57.7748685],[14.1642912,57.7749363],[14.1642769,57.775033],[14.1643517,57.7752784],[14.1645071,57.7755487],[14.1644861,57.7757512],[14.1645783,57.7758515],[14.1646281,57.7759724],[14.1646262,57.7760033],[14.1645163,57.7760526],[14.1645119,57.7761231],[14.1645698,57.7761803],[14.1646515,57.7761874],[14.1647185,57.7762317],[14.164824,57.776381],[14.1648934,57.7765821],[14.1648173,57.7767474],[14.1648262,57.7768669],[14.1647583,57.7770325],[14.1647874,57.7773515],[14.1647408,57.7773742],[14.1644797,57.7773478],[14.1640244,57.7771469],[14.1639371,57.7771638],[14.163925,57.7772252],[14.1641192,57.7773356],[14.1646234,57.7775425],[14.1652828,57.7777636],[14.1665453,57.7783141],[14.166867,57.7784862],[14.1676882,57.7790042],[14.1679218,57.7792064],[14.1681372,57.7793065],[14.168288,57.7795192],[14.1688181,57.7799655],[14.1689622,57.780284],[14.1692695,57.7807493],[14.1692859,57.7810105],[14.1692453,57.7811328],[14.1693194,57.7811949],[14.1694697,57.7812199]]}},{"type":"Feature","properties":{"depth":14,"kind":"contour"},"geometry":{"type":"LineString","coordinates":[[14.1698222,57.7810992],[14.1700236,57.781095],[14.1703936,57.7809573],[14.1708744,57.7808852],[14.1710147,57.7808082],[14.1711146,57.780657],[14.171003,57.7800834],[14.17103,57.7799165],[14.1711939,57.7796614],[14.1711845,57.7795506],[14.1710909,57.7794724],[14.1708243,57.7793375],[14.1704358,57.7792493],[14.170297,57.7791717],[14.1701824,57.7790354],[14.1700861,57.7787406],[14.1696669,57.7782273],[14.1696733,57.7781259],[14.1698083,57.777808],[14.1697845,57.7774053],[14.1698131,57.7772119],[14.1698571,57.7771648],[14.1702878,57.7769761],[14.1703857,57.7768558],[14.1704102,57.7767285],[14.1703276,57.7766064],[14.170094,57.7764042],[14.1697938,57.7759568],[14.1696092,57.7758247],[14.1694882,57.7757897],[14.1693001,57.7757789],[14.1690591,57.7758238],[14.1687548,57.7758312],[14.1686794,57.7757911],[14.1686516,57.7757106],[14.1687151,57.7756156],[14.1685347,57.7754814],[14.1683753,57.7751448],[14.1683197,57.7748558],[14.1681839,57.7746657],[14.1682085,57.7744059],[14.1681614,57.7742409],[14.1680478,57.7741553],[14.1677194,57.774025],[14.1674005,57.7738088],[14.1673297,57.7736298],[14.1673645,57.7734675],[14.1673273,57.7732763],[14.1672224,57.7731182],[14.1669964,57.772925],[14.1668497,57.7725181],[14.1667177,57.7723988],[14.1662504,57.7721269],[14.1661268,57.7720034],[14.1661207,57.7718398],[14.1664784,57.7715073],[14.166537,57.7713591],[14.1664745,57.7710478],[14.1663559,57.7708451],[14.1663306,57.7705968],[14.1661352,57.7701795],[14.1661345,57.7696715],[14.1660786,57.769515],[14.165448,57.76884],[14.1651695,57.7686981],[14.1650417,57.7685767],[14.1647343,57.7685045],[14.1645185,57.7683448],[14.1643966,57.7681949],[14.1640266,57.768008],[14.1637118,57.7679223],[14.1627457,57.7677483],[14.1624692,57.7675756],[14.1622813,57.7674963],[14.1621896,57.7673872],[14.1619931,57.7672481],[14.1618611,57.7671928],[14.1607642,57.7670101],[14.1598121,57.7670044],[14.1596056,57.767024],[14.159472,57.7670592],[14.1593483,57.7671323],[14.1592965,57.7673029],[14.1594249,57.7674795],[14.1598154,57.7677974],[14.1597284,57.7681346],[14.1597571,57.7683299],[14.1598174,57.7684159],[14.1602299,57.7687743],[14.160507,57.7689383],[14.1606215,57.7690747],[14.1607923,57.7691666],[14.1611407,57.7692401],[14.1616509,57.769222],[14.1618123,57.7692672],[14.1619194,57.7693261],[14.1621285,57.7696556],[14.1625959,57.7700556],[14.1626921,57.7702223],[14.1626778,57.770319],[14.1624077,57.7705661],[14.1623813,57.7707242],[14.1624399,57.7708366],[14.162689,57.7710526],[14.1627388,57.7711735],[14.162702,57.7713667],[14.1625883,57.7716058],[14.1626679,57.7717763],[14.1627166,57.7721755],[14.1625646,57.7725016],[14.16249,57.772773],[14.1625142,57.7729107],[14.1624751,57.7733997],[14.1625615,57.7739813],[14.162874,57.7742347],[14.1631561,57.7743834],[14.1633887,57.7744707],[14.1639411,57.7745645],[14.1641347,57.7746196],[14.1643144,57.7746985],[14.1644702,57.7748319],[14.1646521,57.7750721],[14.1646489,57.7752531],[14.1647754,57.7757212],[14.1649155,57.7759733],[14.164986,57.7761568],[14.1649858,57.7762893],[14.1651245,57.7765634],[14.1650748,57.7768312],[14.1649589,57.7771055],[14.1651248,57.7774689],[14.1652744,57.7775711],[14.1653087,57.7776783],[14.1654147,57.7777548],[14.1656694,57.7778826],[14.1662222,57.7781],[14.1667957,57.77838],[14.1673006,57.7787062],[14.1680467,57.7789832],[14.16828,57.7791258],[14.1684109,57.7792627],[14.1684732,57.7794459],[14.1686492,57.7796506],[14.1690896,57.779957],[14.1695397,57.7808909],[14.169654,57.7810317],[14.1698222,57.7810992]]}},{"type":"Feature","properties":{"depth":16,"kind":"contour"},"geometry":{"type":"LineString","coordinates":[[14.1698639,57.7809593],[14.169991,57.7809614],[14.1702588,57.7808821],[14.1705311,57.7808604],[14.1706314,57.7808328],[14.1708126,57.7806291],[14.1709331,57.7805404],[14.1709616,57.7804795],[14.1708695,57.7802468],[14.1708526,57.7799944],[14.1709606,57.7797154],[14.1709455,57.7795647],[14.1706721,57.7794075],[14.1702942,57.7792799],[14.1701563,57.7791891],[14.1700341,57.7790436],[14.1699383,57.77874],[14.1698096,57.7785678],[14.1696153,57.7783934],[14.1695256,57.7782535],[14.1695331,57.7781345],[14.1696512,57.7778248],[14.1696552,57.7772419],[14.1697446,57.7771257],[14.1700265,57.7770181],[14.1701505,57.7769406],[14.1702063,57.7768365],[14.1701977,57.7767125],[14.1701301,57.776613],[14.1698097,57.7763549],[14.1694391,57.7761127],[14.1693238,57.7760536],[14.1689934,57.7759541],[14.1688872,57.7759461],[14.1687284,57.7759893],[14.1686277,57.7760897],[14.1684969,57.7761449],[14.1683805,57.7761675],[14.1682658,57.7761636],[14.1682223,57.7761379],[14.1684084,57.7757908],[14.1682088,57.775572],[14.1681352,57.775437],[14.1680917,57.7752147],[14.1681579,57.7749475],[14.1680192,57.7746734],[14.1680395,57.7743516],[14.1679391,57.774251],[14.167471,57.7739923],[14.1672671,57.7738397],[14.1671734,57.7736333],[14.167214,57.773511],[14.167198,57.7733735],[14.1670727,57.7731485],[14.1668126,57.7729763],[14.1667257,57.7725316],[14.1666174,57.7724264],[14.1660407,57.7720668],[14.1658091,57.7718337],[14.1658226,57.7717502],[14.1660795,57.7715822],[14.1661766,57.7714751],[14.166207,57.7713833],[14.1661982,57.7710032],[14.1660688,57.7707117],[14.1660867,57.7705577],[14.1659355,57.7702213],[14.1659036,57.7699464],[14.1659706,57.7696659],[14.1659445,57.769559],[14.1657358,57.7694173],[14.165384,57.7692685],[14.1651579,57.7692078],[14.16493,57.7689815],[14.1646481,57.7688284],[14.1641703,57.768724],[14.1636549,57.7686933],[14.163389,57.7686137],[14.1631951,57.7684989],[14.163005,57.7682584],[14.162826,57.7681662],[14.162657,57.7681119],[14.1620314,57.7680069],[14.161655,57.7678573],[14.161385,57.7677112],[14.1612556,57.7676804],[14.161157,57.7676815],[14.1610344,57.767737],[14.1610001,57.7678904],[14.1608636,57.7681022],[14.1608176,57.7684408],[14.1608671,57.7685661],[14.1610356,57.7686933],[14.1612759,57.7687897],[14.1615057,57.7689212],[14.1617872,57.7690146],[14.1619336,57.7691013],[14.1621137,57.7692399],[14.1623332,57.7695344],[14.1624819,57.7696498],[14.1625877,57.7697947],[14.1630159,57.7699704],[14.1631222,57.7700425],[14.1631669,57.7701146],[14.1631622,57.7701896],[14.1630801,57.7703193],[14.1627467,57.7705289],[14.1626918,57.7707479],[14.1627195,57.7708284],[14.1629512,57.7710614],[14.1628942,57.7714438],[14.1629964,57.771646],[14.1629245,57.7718733],[14.1629705,57.7720559],[14.1627163,57.7724405],[14.1626357,57.7726763],[14.1626279,57.7727997],[14.1627286,57.7731565],[14.1626956,57.7732879],[14.1625952,57.7734479],[14.1626228,57.7736609],[14.1629591,57.7740565],[14.1632693,57.7742812],[14.1636307,57.7744082],[14.1640322,57.7744218],[14.1643708,57.7745216],[14.1645257,57.7746041],[14.1648285,57.7748793],[14.1649578,57.7750427],[14.165062,57.7753422],[14.1651684,57.7754783],[14.1652667,57.7760028],[14.1653697,57.7761918],[14.1653933,57.7763384],[14.165565,57.7766092],[14.1655339,57.7768422],[14.165451,57.7769852],[14.1654265,57.7771125],[14.1654727,57.7772907],[14.1658836,57.7776756],[14.1661527,57.7778349],[14.1662987,57.7779944],[14.1665231,57.7781455],[14.1670505,57.7783753],[14.1672165,57.7785422],[14.1673313,57.7786101],[14.1681673,57.7788945],[14.1685523,57.779104],[14.1690026,57.7796449],[14.1693484,57.7798906],[14.169483,57.7800984],[14.1696374,57.7805144],[14.1696829,57.7808339],[14.1697519,57.7809114],[14.1698639,57.7809593]]}},{"type":"Feature","properties":{"depth":18,"kind":"contour"},"geometry":{"type":"LineString","coordinates":[[14.1695933,57.7792628],[14.1697131,57.7792514],[14.169769,57.7792114],[14.1697093,57.7791166],[14.1697826,57.7789954],[14.1697298,57.7787904],[14.1696082,57.7786361],[14.169421,57.7784796],[14.1692232,57.7783625],[14.1691946,57.7782953],[14.1693658,57.7780537],[14.1694563,57.7777917],[14.1694555,57.7772838],[14.1695985,57.7770986],[14.1698109,57.7769866],[14.1698722,57.7769268],[14.1699155,57.7767604],[14.1698651,57.7766483],[14.1695236,57.7764004],[14.168942,57.7762483],[14.1687541,57.7762331],[14.1686417,57.776258],[14.1687486,57.7763853],[14.1687193,57.7764594],[14.1686476,57.7764901],[14.1684619,57.7764397],[14.1683047,57.7763284],[14.1679275,57.7763201],[14.1678549,57.7762999],[14.1677802,57.7762466],[14.1677759,57.7761846],[14.1679258,57.7760219],[14.1679557,57.7759389],[14.167772,57.7758576],[14.1675895,57.7756262],[14.1676202,57.7755301],[14.1676835,57.7755035],[14.1678443,57.7755575],[14.1678912,57.7755304],[14.1679032,57.775469],[14.1678063,57.7753796],[14.1676475,57.7754228],[14.16744,57.7752634],[14.1673495,57.7751367],[14.1671612,57.7749978],[14.1671558,57.7749534],[14.167234,57.7748854],[14.167041,57.7748855],[14.1667169,57.7748172],[14.1663139,57.7746975],[14.1659915,57.7747308],[14.1657627,57.7747143],[14.1656499,57.7746796],[14.1655484,57.7745966],[14.1654657,57.7746711],[14.1655226,57.77481],[14.1658649,57.7749806],[14.1660832,57.7751646],[14.16612,57.7752321],[14.1660324,57.7752534],[14.1657171,57.7751765],[14.1656354,57.7751694],[14.1656216,57.7751932],[14.1658856,57.7753037],[14.1660677,57.7754755],[14.1662329,57.775459],[14.1662977,57.7755385],[14.1662774,57.7755996],[14.1662308,57.7756223],[14.1660509,57.7756118],[14.1658668,57.7757315],[14.1658227,57.7757786],[14.1658311,57.775907],[14.1657512,57.7760015],[14.1657592,57.7761343],[14.1658172,57.7761914],[14.1660822,57.7761562],[14.1662057,57.7762156],[14.1662264,57.7762781],[14.1661801,57.7763605],[14.166265,57.7764473],[14.1662537,57.7764955],[14.1661984,57.7765267],[14.1660173,57.7765339],[14.1659661,57.776499],[14.1660149,57.776377],[14.1658433,57.7762983],[14.1657642,57.7763155],[14.1657434,57.7763855],[14.1658547,57.7767029],[14.1657961,57.7768511],[14.1658934,57.7770001],[14.1660475,57.7770959],[14.1664437,57.7771932],[14.1670844,57.7771883],[14.1672656,57.7772452],[14.1673397,57.7773714],[14.1672887,57.7775287],[14.1672665,57.7778813],[14.1670733,57.7779499],[14.1670798,57.7779766],[14.1676123,57.7781911],[14.1678115,57.7781581],[14.1681585,57.7782537],[14.1683643,57.7783755],[14.1685887,57.7784626],[14.1686944,57.7785434],[14.1686823,57.7786049],[14.1686273,57.7786317],[14.1684586,57.778573],[14.1682021,57.7786041],[14.1679853,57.7785261],[14.1679141,57.778548],[14.1679274,57.7785971],[14.1680425,57.7786606],[14.1690208,57.7789012],[14.169219,57.779078],[14.1695082,57.7792445],[14.1695933,57.7792628]]}},{"type":"Feature","properties":{"depth":18,"kind":"contour"},"geometry":{"type":"LineString","coordinates":[[14.1655456,57.7745767],[14.1657506,57.7745151],[14.1660964,57.7745003],[14.1662758,57.7745196],[14.1664072,57.7744555],[14.1664361,57.7742578],[14.1663702,57.7741959],[14.1661173,57.7741697],[14.1659432,57.7740666],[14.165844,57.7740766],[14.1656839,57.7741418],[14.165561,57.7741377],[14.1654931,57.7741067],[14.1654801,57.7740532],[14.1655334,57.7739888],[14.1657907,57.7738804],[14.1659065,57.7738666],[14.1661102,57.7738912],[14.1663594,57.7738466],[14.1665088,57.7737567],[14.1665471,57.7736696],[14.1664784,57.7735878],[14.1663387,57.7735234],[14.1662509,57.7735492],[14.1662103,57.7736715],[14.1660804,57.7737135],[14.1658218,57.7736473],[14.1655192,57.7736283],[14.1654601,57.7735888],[14.1654649,57.7735138],[14.1655284,57.7734828],[14.1656519,57.7734782],[14.1657067,57.7734557],[14.1657622,57.773356],[14.1658512,57.7733126],[14.1661027,57.7733609],[14.1663018,57.7733278],[14.1668336,57.773359],[14.1668799,57.7733407],[14.1668824,57.7733011],[14.1666799,57.7731264],[14.166549,57.7730535],[14.1664872,57.773058],[14.1664065,57.7731657],[14.1663432,57.7731923],[14.1661256,57.7731275],[14.165953,57.7731306],[14.1658772,57.7730949],[14.1658114,57.7728365],[14.1658317,57.7727753],[14.166144,57.772512],[14.1663194,57.7724649],[14.1661729,57.7723142],[14.1656849,57.7719797],[14.1655226,57.7718196],[14.1655208,57.771718],[14.1657523,57.7715623],[14.165757,57.7714874],[14.1655488,57.7714693],[14.1652551,57.7713092],[14.1650666,57.7712388],[14.1651312,57.7711902],[14.1653434,57.7711466],[14.1654057,57.7710692],[14.1653938,57.7709981],[14.1653432,57.7709544],[14.1651559,57.7709304],[14.1649791,57.7709996],[14.164844,57.7709928],[14.164765,57.7710741],[14.1648318,57.7711867],[14.1647846,57.7712183],[14.1646021,57.7712475],[14.164466,57.7713224],[14.1641635,57.7714314],[14.1639014,57.7714226],[14.1638381,57.7714492],[14.16376,57.7716453],[14.1637669,57.7717957],[14.1636097,57.771881],[14.1634763,57.7719118],[14.1633947,57.7719687],[14.1633638,57.7720692],[14.1632049,57.772245],[14.1629025,57.7724821],[14.1628383,57.7727185],[14.1628962,57.7729722],[14.1630096,57.7731262],[14.1630274,57.7733653],[14.162984,57.7735317],[14.1630528,57.7736135],[14.1632967,57.7737167],[14.1633752,57.7737083],[14.1634585,57.773625],[14.1635345,57.7736563],[14.1635315,57.7737048],[14.1634465,57.7737505],[14.1634827,57.7738268],[14.1642593,57.7743367],[14.1646323,57.7744111],[14.164881,57.7745034],[14.1649799,57.7744979],[14.1650651,57.7744478],[14.1653279,57.7744478],[14.1655456,57.7745767]]}}]}
