{"type":"FeatureCollection","metadata":{"schemaVersion":1,"lakeId":"svansjon","units":"metres","sourceOrganization":"SMHI","sourceDataset":"Damm- och sj\u00f6registret","sourceMapNumber":"3-5723","sourceUrl":"https://vattenwebb.smhi.se/svarwebb/rest/downloadmap/641175-137986","sourceRetrievedAt":"2026-09-08","processedAt":"2026-09-08","processingMethod":"Reviewed labelled contour-region extraction; source shoreline, typography, symbols and sounding point excluded","georeferencingMethod":"Source-specific robust affine shoreline fit using 800 distributed control samples","controlPointCount":800,"shorelineMeanResidualMeters":23.9,"shorelineP90ResidualMeters":91.0,"preclipOutsidePercent":0.96,"postclipSampleCount":10282,"postclipLandPointCount":0,"postclipLandPercent":0.0,"islandCount":1,"islandClippingPassed":true,"topologyStatus":"reviewed-plausible","clippedTo":"OpenStreetMap lake multipolygon including islands","depthValues":[1,2,4],"qualityStatus":"verified","license":"CC BY 4.0","warning":"Generalized depth data; not for navigation"},"features":[{"type":"Feature","properties":{"depth":1,"kind":"contour"},"geometry":{"type":"LineString","coordinates":[[13.777863,57.8136186],[13.7781466,57.8135955],[13.7785077,57.8135174],[13.7786591,57.8134528],[13.778792,57.8133137],[13.7787989,57.8130818],[13.7785571,57.8128597],[13.7782741,57.812474],[13.778221,57.8122495],[13.7782599,57.8120225],[13.7783307,57.8118053],[13.7786514,57.8113856],[13.7787522,57.8110854],[13.7788383,57.8109756],[13.7790374,57.8108524],[13.779282,57.8108256],[13.7795923,57.8107524],[13.7797554,57.8106048],[13.7797688,57.8104632],[13.7796982,57.8100508],[13.77971,57.8098091],[13.7799285,57.8094211],[13.7799548,57.8091551],[13.779869,57.8086352],[13.779775,57.8083911]]}},{"type":"Feature","properties":{"depth":1,"kind":"contour"},"geometry":{"type":"LineString","coordinates":[[13.7797515,57.8083313],[13.7797107,57.8082325],[13.7797217,57.8078639],[13.7796225,57.8076418],[13.7793777,57.807366],[13.7792915,57.8071707],[13.7795366,57.8068144],[13.7795845,57.8064386],[13.7796371,57.8063727],[13.779714,57.8063373]]}},{"type":"Feature","properties":{"depth":1,"kind":"contour"},"geometry":{"type":"LineString","coordinates":[[13.7799785,57.8061824],[13.7800701,57.8061177],[13.7803062,57.8060665],[13.780701,57.806091],[13.7809692,57.8060447],[13.7812954,57.806057],[13.7814302,57.8060082],[13.7816136,57.8060278],[13.7817569,57.8060058],[13.7819084,57.8060156],[13.7820516,57.8060706],[13.7823074,57.8062879],[13.7824643,57.8065783],[13.7825798,57.8066406],[13.7827898,57.8066943],[13.7829514,57.8066724],[13.783239,57.8065919],[13.7834846,57.8064516],[13.7836164,57.8062723]]}},{"type":"Feature","properties":{"depth":1,"kind":"contour"},"geometry":{"type":"LineString","coordinates":[[13.7848508,57.805904],[13.7850977,57.8059553],[13.7856324,57.8061495],[13.785722,57.80623],[13.7856821,57.8064119],[13.7857886,57.8063082],[13.7858097,57.8062179],[13.7856315,57.8060226],[13.7852611,57.8058724],[13.7846214,57.8057282],[13.7845242,57.8056733],[13.7843156,57.805417],[13.7842411,57.8052925],[13.784184,57.805046],[13.7841691,57.8047726],[13.7842592,57.8045261],[13.7843972,57.80437],[13.7845121,57.8042956],[13.7848087,57.80422],[13.7851957,57.8042005],[13.7855428,57.8041274],[13.7865236,57.803781],[13.7867452,57.8036749],[13.7869476,57.8035188],[13.7870882,57.8032772],[13.7871795,57.8032223],[13.7872396,57.8032125],[13.7873493,57.8032345],[13.7874865,57.8033383],[13.7876525,57.803403],[13.7878683,57.8034177],[13.787991,57.8033872],[13.7878224,57.8034128],[13.7875982,57.8033737],[13.7871333,57.8030758],[13.7870641,57.8030807],[13.7870328,57.8031283],[13.7870349,57.8033674],[13.7868932,57.8034943],[13.7867053,57.8035492],[13.7865262,57.8035394],[13.7863433,57.8035003],[13.7858433,57.8033001],[13.7854466,57.8031853],[13.7851562,57.8032047],[13.7849845,57.8032559],[13.7848748,57.8033108],[13.7847797,57.8034158],[13.7847232,57.8037696],[13.7846219,57.8039283],[13.7844852,57.8040405],[13.7839936,57.8043333],[13.7833612,57.8046419],[13.783153,57.8046809],[13.7826753,57.8046588],[13.7825318,57.8046905],[13.7821053,57.8051895],[13.7817901,57.8053518],[13.7815782,57.8053615],[13.7812538,57.8052882],[13.7804969,57.8052197],[13.7802211,57.8052147],[13.7794796,57.8052463],[13.7790706,57.805234],[13.7785661,57.8053388],[13.7783462,57.8053095],[13.7782078,57.8053241],[13.7781114,57.8053961],[13.7780453,57.8056084],[13.7778004,57.8058012],[13.7776512,57.8060232],[13.777196,57.8064844],[13.7770858,57.806554],[13.776826,57.8066296],[13.7765672,57.8067503],[13.7766028,57.8069431],[13.7765484,57.8070725],[13.7764241,57.8071542],[13.7761649,57.8072078],[13.7760543,57.807292],[13.7758748,57.8076093],[13.7758928,57.8077752],[13.7760952,57.8080877],[13.7760882,57.8081658],[13.776362,57.8082391],[13.7763133,57.8082549],[13.7760664,57.8082036],[13.7759527,57.8083927],[13.7759373,57.8086026],[13.7760527,57.808898],[13.7760856,57.809186],[13.7760508,57.8092738],[13.7757413,57.8096301],[13.7756103,57.8098595],[13.7757,57.8104013],[13.7758903,57.810809],[13.7760453,57.8110116],[13.7763288,57.8109909],[13.776509,57.8110385],[13.7763544,57.8115998],[13.7763971,57.8117121],[13.7766021,57.8119318],[13.7767118,57.8121124],[13.7767703,57.8124664],[13.7767705,57.812769],[13.7767253,57.8128983],[13.7767436,57.8132107],[13.7768547,57.8133426],[13.7770741,57.8134659],[13.7773888,57.8135562],[13.777863,57.8136186]]}},{"type":"Feature","properties":{"depth":2,"kind":"contour"},"geometry":{"type":"LineString","coordinates":[[13.7778083,57.8111193],[13.7780505,57.8110962],[13.7784265,57.8109791],[13.7785504,57.8109121],[13.7788379,57.8106778],[13.7790169,57.8103801],[13.7792983,57.8097309],[13.7796017,57.8088084],[13.7796252,57.8086352],[13.7795721,57.8084106],[13.7792214,57.8078272],[13.779089,57.8077161],[13.7787875,57.8076477],[13.7784473,57.8076403],[13.7782858,57.8076574],[13.7781419,57.8077037],[13.7779145,57.8078489],[13.7776887,57.808171],[13.7775247,57.8085859],[13.7774571,57.8090032],[13.777647,57.8090362],[13.777667,57.8090594],[13.7776229,57.8090728],[13.7774419,57.8090496],[13.7773783,57.8094889],[13.7772554,57.8099111],[13.777275,57.8103358],[13.777488,57.8109069],[13.7776216,57.8110558],[13.7778083,57.8111193]]}},{"type":"Feature","properties":{"depth":2,"kind":"contour"},"geometry":{"type":"LineString","coordinates":[[13.7816945,57.8142394],[13.781996,57.8142309],[13.7824116,57.8141773],[13.7836382,57.8139164],[13.7841466,57.8138335],[13.7846806,57.813819],[13.7849561,57.8138337],[13.785712,57.8137826],[13.7861346,57.8137998],[13.7865078,57.8137779],[13.7873308,57.8137903],[13.7876212,57.8137684],[13.7877232,57.8137416],[13.7881699,57.8137222],[13.7886183,57.8136466],[13.7890867,57.8135173],[13.7892854,57.8134112],[13.7894267,57.813299],[13.7894334,57.8132258],[13.7893852,57.8131477],[13.7888286,57.8126814],[13.7881717,57.812032],[13.7881505,57.8119734],[13.7882453,57.8117245],[13.7880658,57.8114169],[13.7880593,57.8113266],[13.7882766,57.8111314],[13.7884794,57.8110424],[13.7891116,57.8109718],[13.7894178,57.8108815],[13.7899679,57.8107913],[13.7902191,57.8106938],[13.7903894,57.810612],[13.7907277,57.8103729],[13.7909414,57.810146],[13.7910401,57.809919],[13.7911044,57.809614],[13.791067,57.8091673],[13.7910947,57.8088549],[13.7912391,57.8086377],[13.7913177,57.8083132],[13.7912329,57.8080715],[13.7910153,57.8076541],[13.790489,57.8069438],[13.7904182,57.8065386],[13.7905974,57.8062336],[13.7910852,57.8059164],[13.7915719,57.8054796],[13.7918334,57.8050379],[13.7919949,57.8043985],[13.7919822,57.8042081],[13.7918426,57.8039518],[13.7916506,57.8037565],[13.7912282,57.8034196],[13.7909233,57.8032329],[13.7903653,57.8029716],[13.7898375,57.8027762],[13.7896954,57.8027591],[13.7893752,57.8028567],[13.7890625,57.8030079],[13.7887189,57.8031177],[13.7879224,57.8034543],[13.7876329,57.8034445],[13.7874963,57.8033956],[13.7873204,57.8032784],[13.7871966,57.8032662],[13.7870115,57.8035383],[13.7867997,57.8036993],[13.7865967,57.8037981],[13.7855137,57.8041786],[13.7851252,57.8042518],[13.7848214,57.804259],[13.7845804,57.80432],[13.7844659,57.8043822],[13.7843136,57.804553],[13.7842429,57.8047678],[13.7842597,57.8051314],[13.7843363,57.8053389],[13.7845847,57.8056489],[13.7846682,57.8057038],[13.7852121,57.8058187],[13.7856083,57.805953],[13.7858395,57.8061446],[13.785877,57.8062764],[13.7857576,57.8064253],[13.7852507,57.8067669],[13.7851982,57.8068303],[13.7851508,57.8070329],[13.7853594,57.807443],[13.7853746,57.8075528],[13.7853429,57.8076919],[13.785215,57.8078163],[13.7849477,57.8079127],[13.7847493,57.8079322],[13.7842436,57.8079247],[13.7838829,57.8079881],[13.7833865,57.808132],[13.7828922,57.8084358],[13.782632,57.8086798],[13.7825313,57.8088189],[13.7824229,57.8090629],[13.7824152,57.8091678],[13.7826038,57.8094754],[13.7828671,57.8097488],[13.7829217,57.8099246],[13.7825931,57.8106128],[13.7825871,57.8106591],[13.7827639,57.810747],[13.7827243,57.8107653],[13.7825698,57.8107018],[13.7825421,57.8107836],[13.7824921,57.8110716],[13.7825425,57.8113889],[13.7825054,57.8115548],[13.7824971,57.8121455],[13.7823846,57.8125262],[13.7824227,57.8131046],[13.7823753,57.8133072],[13.7823079,57.8134072]]}},{"type":"Feature","properties":{"depth":2,"kind":"contour"},"geometry":{"type":"LineString","coordinates":[[13.7820949,57.8136098],[13.7818179,57.8137232],[13.7814294,57.8137939],[13.7810902,57.8139878],[13.7811239,57.8140928],[13.7812065,57.814177],[13.7816945,57.8142394]]}},{"type":"Feature","properties":{"depth":4,"kind":"contour"},"geometry":{"type":"LineString","coordinates":[[13.7868138,57.812532],[13.7869127,57.8125333],[13.7870886,57.8124967],[13.7872745,57.8124309],[13.787508,57.8122344],[13.7876159,57.8120075],[13.7876542,57.8118025],[13.787937,57.8112607],[13.7880129,57.8111826],[13.7883239,57.8110106],[13.7884587,57.8109643],[13.7895681,57.8107766],[13.7897541,57.8107083],[13.790168,57.8104778],[13.7904623,57.8101703],[13.7906572,57.8098042],[13.7906927,57.8095358],[13.7906254,57.8088597],[13.7907757,57.8084424],[13.7908721,57.8079836],[13.7908122,57.8078322],[13.790539,57.8075832],[13.7904117,57.8073782],[13.7902614,57.8070194],[13.7902665,57.8066899],[13.790325,57.8065801],[13.7903201,57.8064361],[13.7904633,57.8061042],[13.7905072,57.805555],[13.7905931,57.8052939],[13.7908325,57.8049767],[13.7908772,57.8048644],[13.7908794,57.804635],[13.7908071,57.8044348],[13.790582,57.8041151],[13.7903945,57.8040015],[13.7900655,57.8039282],[13.7898356,57.8039258],[13.7894526,57.8039672],[13.7886842,57.804133],[13.787988,57.8043427],[13.7880171,57.8043708],[13.7879181,57.8043744],[13.7876303,57.8045415],[13.7874488,57.804766],[13.7874267,57.8048905],[13.7874422,57.8049906],[13.7875557,57.8051932],[13.7876166,57.805469],[13.7876002,57.8058668],[13.7873948,57.8062768],[13.7870084,57.8067453],[13.7865826,57.807143],[13.7857524,57.8076847],[13.7856002,57.8078555],[13.7854214,57.8079921],[13.7846562,57.808358],[13.7840484,57.8087667],[13.7835765,57.8089387],[13.7833762,57.8091778],[13.7834094,57.8092974],[13.78364,57.8095879],[13.784012,57.8099175],[13.7843326,57.8101201],[13.7846134,57.8104204],[13.7849267,57.8108695],[13.785057,57.8111283],[13.7855234,57.8115335],[13.7857408,57.811802],[13.7860478,57.8123073],[13.7861759,57.8124086],[13.7863669,57.8124795],[13.7865361,57.8125137],[13.7868138,57.812532]]}}]}
