{"type":"FeatureCollection","pike":{"schemaVersion":1,"lakeId":"gravsjon","purpose":"non-interactive outside-lake focus mask","source":"https://www.openstreetmap.org/way/43674265","osmObjectType":"way","osmObjectId":43674265,"sourceVersion":7,"sourceTimestamp":"2021-06-19T20:43:51Z","outerRingCount":1,"innerRingCount":0,"vertexCount":21},"features":[{"type":"Feature","properties":{"kind":"outside-lake-focus-mask"},"geometry":{"type":"Polygon","coordinates":[[[5,54],[30,54],[30,71],[5,71],[5,54]],[[13.8835,57.969],[13.883937,57.9701377],[13.8852144,57.9708951],[13.8857437,57.9719013],[13.8872334,57.9724183],[13.8883912,57.9732826],[13.8891764,57.9734393],[13.8904835,57.9731346],[13.8904091,57.9730555],[13.8904668,57.9730378],[13.8906625,57.9731503],[13.8909773,57.9730442],[13.8915523,57.9713824],[13.8914114,57.9712379],[13.8909086,57.9707221],[13.8905348,57.9699995],[13.889244,57.9694028],[13.8873322,57.967881],[13.8852112,57.967972],[13.8844355,57.9687482],[13.8835,57.969]]]}}]}
