{"type":"FeatureCollection","pike":{"schemaVersion":1,"lakeId":"hokesjon","purpose":"non-interactive outside-lake focus mask","source":"https://www.openstreetmap.org/relation/8150509","osmObjectType":"relation","osmObjectId":8150509,"sourceVersion":3,"sourceTimestamp":"2024-08-30T17:49:04Z","outerRingCount":1,"innerRingCount":1,"vertexCount":99},"features":[{"type":"Feature","properties":{"kind":"outside-lake-focus-mask"},"geometry":{"type":"Polygon","coordinates":[[[5,54],[30,54],[30,71],[5,71],[5,54]],[[13.9694593,57.9017495],[13.9705655,57.9027127],[13.9706207,57.9032497],[13.9710923,57.9033523],[13.9714882,57.9038383],[13.9716893,57.9039514],[13.9718626,57.9040489],[13.9723502,57.9043895],[13.9719972,57.9045662],[13.9722419,57.9047792],[13.9724774,57.9047991],[13.9727086,57.9044539],[13.9734077,57.9046595],[13.9740336,57.9047729],[13.9745396,57.9048875],[13.9751435,57.9049663],[13.9758033,57.9051018],[13.9770167,57.9052361],[13.97744,57.9052403],[13.9783471,57.9051474],[13.9791537,57.9049066],[13.98025,57.90475],[13.98225,57.9035],[13.9826703,57.9031345],[13.9834428,57.9030342],[13.9839401,57.9027571],[13.9844765,57.9019732],[13.9855011,57.9015941],[13.9858133,57.9010314],[13.985839,57.9006781],[13.98575,57.9005],[13.9857134,57.9003833],[13.9856697,57.9002657],[13.9855939,57.9002079],[13.9854011,57.9001643],[13.9847066,57.9000072],[13.9845795,57.8997202],[13.9845999,57.8991435],[13.9841654,57.8989148],[13.983064,57.8981143],[13.9832395,57.8975353],[13.9817353,57.8972052],[13.9811607,57.8976229],[13.980472,57.8974712],[13.9801324,57.8968545],[13.9793149,57.8966744],[13.979,57.89625],[13.9787789,57.8956446],[13.9783965,57.8948495],[13.9776186,57.8945196],[13.977,57.89425],[13.9764197,57.894176],[13.9756687,57.894103],[13.9748935,57.8940874],[13.974312,57.8946328],[13.97425,57.89575],[13.9743251,57.8958425],[13.9744753,57.8959337],[13.9746737,57.8961362],[13.974604,57.8965296],[13.9744431,57.8966408],[13.973853,57.8966921],[13.9736652,57.896675],[13.9736362,57.8967809],[13.9740622,57.8967776],[13.9747113,57.896846],[13.9750536,57.8973204],[13.975178,57.8976129],[13.9751052,57.8979145],[13.9751941,57.8982429],[13.9752424,57.8983513],[13.9748336,57.8989136],[13.9743519,57.899292],[13.9739431,57.8997329],[13.97375,57.90075],[13.9727743,57.9015305],[13.9725,57.90175],[13.9716681,57.9020322],[13.970956,57.9022737],[13.9702173,57.9016281],[13.9694593,57.9017495]]]}},{"type":"Feature","properties":{"kind":"lake-islands-focus-mask"},"geometry":{"type":"MultiPolygon","coordinates":[[[[13.9783859,57.8999477],[13.9785039,57.8998194],[13.9785522,57.8997111],[13.9785415,57.8995514],[13.9785737,57.8993775],[13.978681,57.8992607],[13.9788151,57.899235],[13.9789814,57.8992863],[13.979094,57.8994574],[13.9792281,57.8996883],[13.9792657,57.8998137],[13.979153,57.8999505],[13.9791208,57.9001301],[13.9790779,57.9002441],[13.9788741,57.9002983],[13.9786863,57.9002869],[13.9784986,57.9001672],[13.9783859,57.8999477]]]]}}]}
