{"type":"FeatureCollection","pike":{"schemaVersion":1,"lakeId":"klappasjon","purpose":"non-interactive outside-lake focus mask","source":"https://www.openstreetmap.org/relation/1428762","osmObjectType":"relation","osmObjectId":1428762,"sourceVersion":3,"sourceTimestamp":"2019-11-13T12:13:54Z","outerRingCount":1,"innerRingCount":10,"vertexCount":238},"features":[{"type":"Feature","properties":{"kind":"outside-lake-focus-mask"},"geometry":{"type":"Polygon","coordinates":[[[5,54],[30,54],[30,71],[5,71],[5,54]],[[14.5116542,57.5578658],[14.5122035,57.5586393],[14.5135757,57.5592935],[14.5137278,57.5593753],[14.5139461,57.5593993],[14.514135,57.5594014],[14.5144043,57.5591709],[14.5145993,57.5590485],[14.5150225,57.5590694],[14.51539,57.5590048],[14.5154568,57.558899],[14.5156829,57.5589918],[14.5159117,57.5590173],[14.5161439,57.559141],[14.5163974,57.5592783],[14.5168614,57.5591645],[14.5175787,57.5587571],[14.51825,57.5585],[14.5191507,57.5581987],[14.5195085,57.5579488],[14.5195031,57.5577471],[14.5193741,57.557696],[14.519509,57.5574914],[14.5196499,57.5571151],[14.5201361,57.5570314],[14.5207093,57.5569991],[14.5213284,57.5571833],[14.5218895,57.5573338],[14.5220942,57.5572898],[14.5223007,57.5571525],[14.5224394,57.5569721],[14.5225445,57.5567504],[14.5227148,57.5566893],[14.5226102,57.5563574],[14.5223294,57.556044],[14.5218369,57.5557474],[14.5212857,57.555586],[14.5212688,57.555373],[14.5212632,57.5549558],[14.521691,57.554438],[14.5217473,57.5540406],[14.5220722,57.5537644],[14.5224428,57.5534273],[14.5224901,57.5529766],[14.5227199,57.5528188],[14.5232108,57.5528838],[14.5234039,57.5528684],[14.5236472,57.5527786],[14.5239191,57.5527901],[14.5240581,57.5526248],[14.5241688,57.5523918],[14.524127,57.5521841],[14.5241176,57.5520664],[14.523855,57.551968],[14.5236496,57.5519487],[14.5234248,57.5518133],[14.5232639,57.5516148],[14.5232649,57.5513581],[14.5233095,57.5512124],[14.5230673,57.5511534],[14.5228554,57.5511798],[14.522706,57.5511116],[14.5224042,57.5510848],[14.5223401,57.5510189],[14.5223833,57.5509498],[14.5222924,57.550789],[14.522139,57.5507852],[14.5219147,57.550846],[14.5216548,57.5508314],[14.521371,57.5508839],[14.5213576,57.5509722],[14.5211996,57.5510527],[14.5208829,57.5510186],[14.5205752,57.550809],[14.520384,57.5505524],[14.5201619,57.5506014],[14.5199143,57.5505794],[14.5196381,57.5507008],[14.5196458,57.5507761],[14.5193368,57.5509227],[14.519015,57.5512137],[14.5189332,57.5514202],[14.5189629,57.5516158],[14.5190222,57.5517636],[14.5191365,57.5518235],[14.5190726,57.5519403],[14.5189581,57.5519776],[14.5188699,57.5519342],[14.5189227,57.5518482],[14.5188532,57.5517327],[14.5186287,57.5516489],[14.5187181,57.5513882],[14.5187709,57.5510808],[14.518463,57.5507916],[14.5181143,57.5505322],[14.5180553,57.5502011],[14.5180561,57.5498527],[14.5179306,57.5496289],[14.5174215,57.5494447],[14.5167415,57.5494123],[14.5162558,57.5494533],[14.516138,57.5494885],[14.5160646,57.5494525],[14.5160122,57.5493863],[14.5158618,57.5493735],[14.5157588,57.5492583],[14.5157312,57.5490737],[14.5153626,57.548887],[14.514937,57.5487991],[14.5146325,57.5485812],[14.5141401,57.5484698],[14.5136929,57.5485261],[14.5133333,57.5484151],[14.5130261,57.5481329],[14.5126305,57.5480669],[14.5123781,57.5481235],[14.5121528,57.5481943],[14.5120243,57.5483221],[14.5121523,57.5486491],[14.5126042,57.5492431],[14.5125895,57.5496131],[14.512873,57.5500997],[14.5128891,57.5503826],[14.5130795,57.5506256],[14.5134988,57.5507375],[14.5136597,57.5506635],[14.5138729,57.5506009],[14.514065,57.5506615],[14.5141934,57.5508237],[14.5142267,57.5510292],[14.5142629,57.5512432],[14.5139864,57.5512847],[14.5137769,57.551269],[14.513694,57.5511411],[14.5135197,57.5510161],[14.5133882,57.551019],[14.5133091,57.5510743],[14.5133027,57.5511911],[14.5132681,57.5512749],[14.5133188,57.5514404],[14.5132941,57.5517458],[14.5133751,57.5518667],[14.5135811,57.5523323],[14.5135409,57.5525776],[14.5135961,57.5529572],[14.5137104,57.5530763],[14.5139614,57.5538149],[14.5138997,57.554045],[14.5138111,57.5543755],[14.5135607,57.5553091],[14.5127228,57.5559423],[14.5118559,57.5570122],[14.5116542,57.5578658]]]}},{"type":"Feature","properties":{"kind":"lake-islands-focus-mask"},"geometry":{"type":"MultiPolygon","coordinates":[[[[14.5146773,57.554282],[14.5147041,57.5542589],[14.5147578,57.5542503],[14.5148061,57.5542791],[14.5147631,57.5542906],[14.5147041,57.5542992],[14.5146773,57.554282]]],[[[14.5153479,57.5545669],[14.5153747,57.5545467],[14.5154337,57.5545554],[14.5154337,57.5545813],[14.5153747,57.5545813],[14.5153479,57.5545669]]],[[[14.5159001,57.554541],[14.515986,57.5545064],[14.5160503,57.5545583],[14.5159323,57.5545928],[14.5159001,57.554541]]],[[[14.5191617,57.5560778],[14.519269,57.5560087],[14.5193548,57.5559166],[14.5193977,57.5558418],[14.5195265,57.5558188],[14.5196981,57.5558706],[14.5197732,57.5560145],[14.5198054,57.5563886],[14.5197089,57.5565728],[14.519623,57.5566419],[14.5194728,57.5566706],[14.5193226,57.5566303],[14.5191724,57.5564001],[14.5192153,57.5562735],[14.5191617,57.5560778]]],[[[14.5198805,57.5566937],[14.5199342,57.5566188],[14.5200629,57.5566131],[14.5201595,57.5566764],[14.5200951,57.5567685],[14.5199664,57.5567742],[14.5198805,57.5566937]]],[[[14.5204333,57.5548489],[14.5204709,57.5548086],[14.5205245,57.5548403],[14.5204762,57.5548691],[14.5204333,57.5548489]]],[[[14.5205782,57.5539769],[14.520605,57.5538877],[14.5208947,57.5538071],[14.5209537,57.5537639],[14.5210717,57.5537438],[14.5211307,57.5537639],[14.5211253,57.5538503],[14.5212595,57.5539107],[14.5213185,57.5540316],[14.521356,57.5541179],[14.5212487,57.5541668],[14.521002,57.5542273],[14.5207123,57.5542618],[14.5206372,57.554164],[14.5205782,57.5539769]]],[[[14.5207337,57.5532919],[14.5208303,57.553243],[14.5209537,57.553243],[14.5209966,57.5533034],[14.5209805,57.553338],[14.5209215,57.5533811],[14.5208464,57.553361],[14.5207337,57.5532919]]],[[[14.5209029,57.552922],[14.520978,57.5529134],[14.5210262,57.5529537],[14.5209833,57.5529666],[14.5209029,57.552922]]],[[[14.5216296,57.5515996],[14.5216832,57.5515535],[14.5216564,57.55147],[14.5217154,57.5513952],[14.5218013,57.5513635],[14.5219407,57.5513405],[14.52193,57.5514125],[14.5217959,57.5515075],[14.5218281,57.5515967],[14.5217798,57.5516514],[14.521635,57.5516542],[14.5216296,57.5515996]]]]}}]}
