{"type":"FeatureCollection","pike":{"schemaVersion":1,"lakeId":"knipesjon","purpose":"non-interactive outside-lake focus mask","source":"https://www.openstreetmap.org/relation/8150669","osmObjectType":"relation","osmObjectId":8150669,"sourceVersion":3,"sourceTimestamp":"2024-08-30T17:49:05Z","outerRingCount":1,"innerRingCount":0,"vertexCount":85},"features":[{"type":"Feature","properties":{"kind":"outside-lake-focus-mask"},"geometry":{"type":"Polygon","coordinates":[[[5,54],[30,54],[30,71],[5,71],[5,54]],[[13.88825,57.93825],[13.8884566,57.93895],[13.889213,57.9395687],[13.8895179,57.9408046],[13.889019,57.9409951],[13.8890657,57.9413921],[13.8897141,57.9418087],[13.8899483,57.942145],[13.8902783,57.9422451],[13.8903957,57.9425126],[13.8905,57.94275],[13.8902033,57.9428824],[13.8897402,57.9429068],[13.889306,57.9433597],[13.8895092,57.9441569],[13.8903836,57.9447443],[13.8914588,57.9451649],[13.8918516,57.9454314],[13.8926837,57.9456324],[13.8933614,57.9455539],[13.8944095,57.9455971],[13.8953252,57.9447544],[13.8959821,57.9443824],[13.8961587,57.9440932],[13.8959083,57.9437637],[13.8955744,57.9437991],[13.8955665,57.9434575],[13.8964692,57.9427131],[13.897116,57.9421657],[13.8972875,57.9417156],[13.8973937,57.9410462],[13.8969907,57.9405309],[13.8973918,57.9399268],[13.898,57.9395],[13.9,57.93825],[13.9008685,57.9381414],[13.906,57.9375],[13.9065,57.93725],[13.90825,57.93775],[13.909,57.93725],[13.9095,57.93725],[13.91075,57.938],[13.9110462,57.9383038],[13.9119248,57.9383475],[13.9127079,57.9383041],[13.9132005,57.9378612],[13.91325,57.9375],[13.913365,57.9371764],[13.91325,57.937],[13.9135,57.93675],[13.91325,57.9365],[13.9126859,57.9365198],[13.9106098,57.9361274],[13.9098778,57.9363386],[13.9092151,57.9361132],[13.908306,57.935804],[13.9076299,57.9349217],[13.906,57.9345],[13.90525,57.93375],[13.9053307,57.9335049],[13.9051985,57.9332244],[13.9047631,57.9330086],[13.9043342,57.9328676],[13.9032331,57.9327358],[13.9026511,57.9329544],[13.9024043,57.9331936],[13.9023507,57.9334784],[13.901943,57.9336949],[13.9017737,57.9339664],[13.90075,57.93425],[13.9001051,57.93468],[13.89925,57.93525],[13.89875,57.93575],[13.897,57.93625],[13.8958737,57.9363051],[13.8954407,57.9362458],[13.8948319,57.9364258],[13.8941571,57.9364805],[13.8932875,57.9364511],[13.89225,57.93725],[13.8914873,57.937579],[13.890684,57.9373405],[13.8894435,57.937397],[13.8884864,57.9378453],[13.88825,57.93825]]]}}]}
