{"type":"FeatureCollection","pike":{"schemaVersion":1,"lakeId":"landsjon","purpose":"non-interactive outside-lake focus mask","source":"https://www.openstreetmap.org/relation/15776409","osmObjectType":"relation","osmObjectId":15776409,"sourceVersion":2,"sourceTimestamp":"2024-06-09T09:20:28Z","outerRingCount":1,"innerRingCount":0,"vertexCount":386},"features":[{"type":"Feature","properties":{"kind":"outside-lake-focus-mask"},"geometry":{"type":"Polygon","coordinates":[[[5,54],[30,54],[30,71],[5,71],[5,54]],[[14.2846377,57.8644518],[14.2847425,57.8647378],[14.2849414,57.8649092],[14.2854613,57.8650217],[14.2859602,57.8650416],[14.2864698,57.8650688],[14.2867702,57.8652414],[14.2869955,57.8655082],[14.2872074,57.8658891],[14.2866924,57.86627],[14.2866987,57.8665241],[14.2867929,57.8666032],[14.2868352,57.8666739],[14.2867973,57.8667126],[14.2867155,57.8667549],[14.2867664,57.8668431],[14.2870051,57.86699],[14.287349,57.8671491],[14.2874763,57.867177],[14.2875662,57.8672009],[14.2876112,57.8672687],[14.2876112,57.8673523],[14.2875138,57.8673842],[14.287289,57.8673802],[14.2871712,57.8673857],[14.2871417,57.8674484],[14.2873875,57.8675508],[14.2871727,57.8676505],[14.2870718,57.8676974],[14.2871125,57.8677162],[14.2871545,57.8678164],[14.2873776,57.8679148],[14.2877119,57.8680137],[14.2880447,57.8680818],[14.2884588,57.8680531],[14.2887448,57.8680012],[14.289329,57.8682575],[14.2902644,57.8682699],[14.2919469,57.8684059],[14.2934988,57.8683855],[14.2939219,57.8683497],[14.2946928,57.8681638],[14.2954204,57.8679376],[14.2956892,57.8679293],[14.2959602,57.8680068],[14.2961804,57.8682075],[14.2965114,57.868409],[14.2965749,57.8684805],[14.2969787,57.8693645],[14.2975044,57.8700322],[14.2980131,57.8717681],[14.2983108,57.8719761],[14.2983277,57.8721852],[14.2981758,57.8724907],[14.2981201,57.8726026],[14.2983178,57.8733349],[14.2982357,57.8735298],[14.2983119,57.873733],[14.298512,57.8739494],[14.2989988,57.8743689],[14.2992693,57.8744601],[14.299576,57.8745634],[14.3005349,57.8748677],[14.3010188,57.8749324],[14.3019211,57.8750798],[14.3028862,57.8753496],[14.3037271,57.8753986],[14.3038406,57.8753982],[14.3044502,57.8754265],[14.30497,57.8753938],[14.3053366,57.8755459],[14.3056561,57.8756148],[14.3060661,57.875717],[14.3066403,57.8757783],[14.3067128,57.8757676],[14.306798,57.8757296],[14.3068702,57.8757614],[14.3069669,57.8758394],[14.3073261,57.8758935],[14.3074213,57.8759956],[14.3073938,57.8760524],[14.3074389,57.876153],[14.3075367,57.8762431],[14.3076844,57.8763799],[14.3078323,57.8764834],[14.308771,57.8769216],[14.3098252,57.8770801],[14.3106782,57.8772024],[14.3111529,57.877291],[14.3122803,57.8774437],[14.3127338,57.8775243],[14.3129248,57.8775289],[14.3130125,57.8774772],[14.313088,57.8774747],[14.3131362,57.8775142],[14.3132528,57.8775274],[14.3133053,57.8774847],[14.3133441,57.8774717],[14.3134015,57.8775049],[14.3133847,57.8775696],[14.3134831,57.8776049],[14.3140446,57.8776403],[14.3142208,57.8776467],[14.3143515,57.877593],[14.3145036,57.8774948],[14.3146374,57.8775169],[14.3146086,57.8775909],[14.3145969,57.8777522],[14.3146765,57.8779151],[14.3153018,57.8780416],[14.3154079,57.8781831],[14.3178333,57.8790676],[14.318579,57.8796369],[14.3194041,57.8798491],[14.3204601,57.8800411],[14.3216692,57.8801875],[14.3226022,57.8803796],[14.3233033,57.8804056],[14.3238719,57.8804267],[14.3240449,57.8802716],[14.3243046,57.8803561],[14.3245387,57.8804323],[14.3248304,57.8806065],[14.3250383,57.8805648],[14.3253457,57.8804725],[14.3262709,57.8806537],[14.3290573,57.8813029],[14.329294,57.8816732],[14.3297181,57.8817918],[14.3302442,57.8818649],[14.3313946,57.8816416],[14.331889,57.8814663],[14.3319122,57.8811959],[14.3318796,57.8809859],[14.3322558,57.8808699],[14.3332855,57.8803553],[14.3344677,57.8794689],[14.335141,57.8789143],[14.3359931,57.8786534],[14.3362092,57.8781952],[14.3368685,57.8779197],[14.3375877,57.8779646],[14.3377942,57.8780728],[14.3380482,57.8780165],[14.3382797,57.8778695],[14.3380491,57.877714],[14.3378401,57.8775761],[14.3378483,57.8774187],[14.3375808,57.8772624],[14.33772,57.8770603],[14.3382256,57.877054],[14.3381881,57.876957],[14.3385091,57.8768448],[14.3386519,57.8767563],[14.3387975,57.8768452],[14.3390098,57.8766462],[14.3392343,57.876719],[14.339555,57.8766402],[14.33992,57.8765682],[14.3401704,57.8762836],[14.3397938,57.8761374],[14.3391584,57.8758721],[14.3390599,57.8758502],[14.3390578,57.8756913],[14.339245,57.8755093],[14.3395936,57.8754423],[14.3397919,57.8755197],[14.3399158,57.875406],[14.3397698,57.8753838],[14.3396943,57.8754006],[14.3394354,57.8754323],[14.3392445,57.8753718],[14.3390283,57.8752487],[14.3390974,57.8751984],[14.3390143,57.8751385],[14.3390116,57.8750586],[14.3391752,57.8749673],[14.3393442,57.8750329],[14.3394649,57.8749402],[14.3395132,57.8748133],[14.3394669,57.8746833],[14.3398877,57.8744041],[14.3402125,57.8742026],[14.3405727,57.8741985],[14.3407849,57.8741566],[14.3408846,57.874022],[14.3410696,57.8739354],[14.3411641,57.873761],[14.3415905,57.8734648],[14.3413478,57.8733655],[14.3413184,57.8733082],[14.3413585,57.8730246],[14.3417071,57.8726026],[14.3418601,57.8725425],[14.342072,57.8722715],[14.3423027,57.8718293],[14.3423901,57.8713127],[14.3422556,57.8710862],[14.3422048,57.8708353],[14.3412675,57.8698846],[14.3398354,57.8690537],[14.3386103,57.8688081],[14.3376918,57.8686578],[14.3369381,57.8687049],[14.3367158,57.8688061],[14.3362162,57.8689328],[14.3359424,57.8687177],[14.3353987,57.8686666],[14.3352057,57.8686484],[14.335141,57.8685193],[14.3347221,57.8682036],[14.3341703,57.867914],[14.3336849,57.8678509],[14.3334452,57.8677451],[14.3336957,57.867676],[14.3333829,57.8671883],[14.3332241,57.8671503],[14.3324232,57.8669588],[14.33222,57.8667063],[14.3321386,57.8666052],[14.3319699,57.8661385],[14.3313618,57.8656744],[14.329245,57.8650701],[14.327699,57.8650866],[14.3248187,57.8655762],[14.3232798,57.8656823],[14.3224858,57.8654342],[14.3211029,57.8632444],[14.3203138,57.8629181],[14.3188103,57.8628121],[14.3186624,57.8627563],[14.318552,57.8626694],[14.3185081,57.8626348],[14.3182701,57.8625226],[14.3179365,57.8624521],[14.3176888,57.862319],[14.3170637,57.8620656],[14.3163247,57.8616259],[14.3157115,57.861063],[14.315477,57.8609288],[14.3152897,57.8607727],[14.3148849,57.8606343],[14.3146622,57.860594],[14.3147876,57.8604238],[14.3139409,57.8602087],[14.3129822,57.8601265],[14.3126412,57.8601685],[14.3122975,57.8601368],[14.3122386,57.8601339],[14.3121926,57.86028],[14.3109026,57.8602866],[14.3101403,57.860299],[14.3098694,57.8602262],[14.3096584,57.86019],[14.30951,57.8602262],[14.3092015,57.8601962],[14.3089333,57.8601434],[14.3088394,57.8600892],[14.3088689,57.860045],[14.3089257,57.8600212],[14.3089668,57.8599715],[14.3087129,57.8598994],[14.3086943,57.8598941],[14.3086124,57.8598708],[14.3082494,57.8598551],[14.3081973,57.8598529],[14.308114,57.8598653],[14.3080173,57.8600221],[14.3079664,57.8600557],[14.3078443,57.86005],[14.3078041,57.8600057],[14.3077411,57.8600264],[14.3077035,57.8600093],[14.3076593,57.8599116],[14.3075842,57.8600072],[14.3075809,57.8599446],[14.3075598,57.8599147],[14.3075359,57.8598809],[14.3073536,57.8598456],[14.3069947,57.8598873],[14.3067196,57.8597898],[14.3060396,57.8597407],[14.30501,57.8595143],[14.3045516,57.8595689],[14.3044384,57.8594656],[14.3037696,57.859216],[14.3034454,57.8592601],[14.3027491,57.8587692],[14.3024052,57.8581486],[14.3022164,57.8576982],[14.3017567,57.8573035],[14.3016825,57.8571846],[14.3012403,57.8570095],[14.3011055,57.8570698],[14.3010461,57.8569263],[14.3007591,57.8567111],[14.2993689,57.8561832],[14.2989235,57.8561299],[14.2988708,57.8562402],[14.2987855,57.8562629],[14.298536,57.8562105],[14.2980404,57.8561285],[14.2977165,57.85606],[14.2977286,57.856008],[14.2977942,57.8559451],[14.2977712,57.8559119],[14.2977122,57.8558997],[14.2976498,57.8559084],[14.297617,57.8560062],[14.2975316,57.8560551],[14.296656,57.8559774],[14.2966421,57.8559206],[14.296652,57.8558857],[14.2967045,57.8558176],[14.2967012,57.8557827],[14.2966716,57.8557512],[14.2966093,57.8557443],[14.2965469,57.8557504],[14.2964878,57.8557617],[14.2964255,57.8558228],[14.2964583,57.8560062],[14.2959354,57.8559692],[14.296002,57.8558054],[14.2959725,57.8557739],[14.2958478,57.8557582],[14.2958182,57.8557897],[14.2957985,57.8559521],[14.2951574,57.8559041],[14.2943248,57.8558141],[14.2938685,57.8558054],[14.2938685,57.8557128],[14.2937175,57.8557268],[14.2936158,57.8557809],[14.2934779,57.8557547],[14.2934287,57.8557268],[14.293255,57.855738],[14.2931989,57.8557128],[14.2932744,57.8554998],[14.2932022,57.8554823],[14.2930676,57.8556761],[14.2930085,57.8557093],[14.2929888,57.8556185],[14.2926081,57.8555487],[14.2924866,57.8554788],[14.2923883,57.8554603],[14.2915353,57.855667],[14.2911013,57.8558768],[14.29073,57.8561435],[14.2907533,57.8562749],[14.2906272,57.8564818],[14.2908011,57.8566002],[14.2907663,57.8568103],[14.2908339,57.8570277],[14.2911351,57.857321],[14.2914551,57.8576201],[14.291193,57.8579076],[14.2910463,57.8580143],[14.2910631,57.858204],[14.2910706,57.8582883],[14.2913836,57.8585546],[14.2919295,57.8588075],[14.2925951,57.8588743],[14.2931453,57.8590582],[14.2935106,57.8593253],[14.293113,57.8596119],[14.2929109,57.8600461],[14.292081,57.8610697],[14.2917405,57.86125],[14.2914952,57.8613965],[14.2912164,57.8613779],[14.290175,57.8616042],[14.289329,57.8619572],[14.2885832,57.8625563],[14.2883994,57.862828],[14.28812,57.8629422],[14.2874221,57.8629636],[14.2868803,57.8628683],[14.2865086,57.8628161],[14.2862207,57.8629026],[14.2860201,57.8631545],[14.2856944,57.8633611],[14.2854867,57.8634928],[14.2848106,57.8635504],[14.284889,57.8637355],[14.2848408,57.8640892],[14.2846377,57.8644518]]]}}]}
