{"type":"FeatureCollection","pike":{"schemaVersion":1,"lakeId":"mogolen-hedenstorp","purpose":"non-interactive outside-lake focus mask","source":"https://www.openstreetmap.org/way/23543551","osmObjectType":"way","osmObjectId":23543551,"sourceVersion":9,"sourceTimestamp":"2022-01-06T13:48:04Z","outerRingCount":1,"innerRingCount":0,"vertexCount":20},"features":[{"type":"Feature","properties":{"kind":"outside-lake-focus-mask"},"geometry":{"type":"Polygon","coordinates":[[[5,54],[30,54],[30,71],[5,71],[5,54]],[[14.0915097,57.7638228],[14.091544,57.7640517],[14.0917329,57.764189],[14.0919732,57.7642342],[14.0922307,57.7642119],[14.0923618,57.7641852],[14.0924739,57.7641182],[14.0926994,57.7639505],[14.092696,57.763806],[14.0926617,57.7636729],[14.0926384,57.7635716],[14.0925674,57.7634982],[14.092474,57.7634261],[14.0922424,57.763374],[14.0920161,57.7633466],[14.0917889,57.7634208],[14.0916271,57.763503],[14.0915456,57.7635793],[14.0915485,57.7636861],[14.0915097,57.7638228]]]}}]}
