{"type":"FeatureCollection","pike":{"schemaVersion":1,"lakeId":"mullsjon","purpose":"non-interactive outside-lake focus mask","source":"https://www.openstreetmap.org/relation/8027934","osmObjectType":"relation","osmObjectId":8027934,"sourceVersion":4,"sourceTimestamp":"2019-11-13T12:13:54Z","outerRingCount":1,"innerRingCount":3,"vertexCount":201},"features":[{"type":"Feature","properties":{"kind":"outside-lake-focus-mask"},"geometry":{"type":"Polygon","coordinates":[[[5,54],[30,54],[30,71],[5,71],[5,54]],[[13.8694902,57.9063351],[13.8701404,57.9067928],[13.870775,57.9071454],[13.872571,57.9071528],[13.872917,57.9073891],[13.8736036,57.9074769],[13.8742152,57.9077678],[13.875192,57.9077784],[13.8758615,57.9075244],[13.8765498,57.9075415],[13.8765846,57.9077293],[13.876884,57.9080138],[13.8771828,57.9083541],[13.8776838,57.9087596],[13.8780711,57.9092458],[13.8776248,57.909903],[13.8765267,57.9108674],[13.8760037,57.9113282],[13.8751169,57.9115978],[13.874007,57.9121518],[13.8738441,57.9125197],[13.8738012,57.9126636],[13.8737851,57.9128189],[13.8739058,57.9130625],[13.874048,57.9132563],[13.8741392,57.9133831],[13.874504,57.9136211],[13.874968,57.9138405],[13.8753059,57.9139901],[13.8758478,57.9141596],[13.8763283,57.9142968],[13.8769957,57.9144517],[13.877838,57.9146155],[13.8780633,57.9146355],[13.8782456,57.9146398],[13.8786077,57.9145999],[13.8788331,57.9145956],[13.8790879,57.9145685],[13.8791898,57.9145756],[13.8793507,57.9145187],[13.8795049,57.914478],[13.8796659,57.9144481],[13.8797383,57.9144403],[13.879804,57.9144638],[13.8798657,57.9144588],[13.8800494,57.9144531],[13.8801245,57.9144203],[13.8802761,57.9144296],[13.8804048,57.9144474],[13.8806704,57.9145016],[13.8808058,57.914508],[13.8811371,57.9145315],[13.8814992,57.9145571],[13.8818559,57.9145457],[13.8821134,57.9145457],[13.8826337,57.9145172],[13.88291,57.9145301],[13.8833472,57.9145144],[13.8836423,57.914513],[13.8839239,57.914503],[13.8841036,57.9144887],[13.8841519,57.9144218],[13.884235,57.9143947],[13.8843369,57.9143819],[13.884404,57.9143819],[13.8844603,57.9144079],[13.8845488,57.9144139],[13.8846374,57.9144118],[13.8847205,57.9143894],[13.8848063,57.9143651],[13.8848335,57.9143573],[13.88487,57.9143395],[13.8849787,57.9143238],[13.8850457,57.9143256],[13.885102,57.9143356],[13.8851792,57.9143626],[13.8852382,57.9144157],[13.8853113,57.9144716],[13.8853495,57.9145008],[13.8854393,57.9145222],[13.8855225,57.9145325],[13.8856512,57.9145322],[13.8856821,57.9145108],[13.8857558,57.9144994],[13.8857907,57.9145165],[13.8858336,57.9145258],[13.885894,57.9145229],[13.8859919,57.9145044],[13.8860361,57.9144681],[13.8861421,57.9144253],[13.8862775,57.9143947],[13.8864049,57.9143021],[13.8864197,57.9141297],[13.8864934,57.9140378],[13.8865726,57.9139758],[13.886641,57.9139865],[13.8867496,57.9139231],[13.8867027,57.9138782],[13.8867255,57.9138383],[13.8868086,57.9137799],[13.8868448,57.9137799],[13.8869052,57.91373],[13.8867724,57.913688],[13.8868099,57.9136481],[13.886869,57.9136253],[13.8869119,57.9136011],[13.8870031,57.9135833],[13.8871385,57.9135619],[13.8873611,57.9135071],[13.8874322,57.9134551],[13.8874537,57.9134023],[13.887518,57.913361],[13.88762,57.9133603],[13.887742,57.9133283],[13.8878091,57.9132941],[13.8879244,57.9131886],[13.8879284,57.9131039],[13.8878842,57.9130469],[13.8879512,57.9130006],[13.888072,57.912935],[13.8881427,57.9128645],[13.8881966,57.9127798],[13.8882114,57.9126679],[13.8882704,57.912623],[13.8884515,57.9125838],[13.8886177,57.9125254],[13.8887116,57.9124064],[13.8887857,57.9121589],[13.8886349,57.9116563],[13.8882893,57.9114331],[13.8880813,57.9112601],[13.8877755,57.9112402],[13.8875795,57.9112966],[13.88727,57.9114396],[13.8871234,57.9113917],[13.8870031,57.9112459],[13.8867983,57.9110362],[13.88659,57.9107443],[13.8865104,57.9104365],[13.8863862,57.910371],[13.8859892,57.9103111],[13.885812,57.9102641],[13.8861156,57.9100848],[13.8853913,57.909855],[13.8851409,57.9097856],[13.8852734,57.9091427],[13.8852289,57.9087502],[13.8854542,57.9083379],[13.8852755,57.9078536],[13.8854494,57.9075024],[13.8851746,57.9071497],[13.8844285,57.9066497],[13.883442,57.9063667],[13.8821867,57.9062861],[13.8815613,57.9060067],[13.8808215,57.9053863],[13.8801493,57.9048992],[13.8797486,57.9049513],[13.8795023,57.9047603],[13.8785255,57.9047866],[13.8778389,57.9048756],[13.8772235,57.9049553],[13.8760809,57.9052993],[13.875169,57.9055043],[13.874043,57.9053635],[13.8739366,57.9053],[13.8738989,57.9052772],[13.873603,57.905258],[13.8733432,57.9053325],[13.8729896,57.9052392],[13.8728537,57.9052036],[13.8723714,57.9048054],[13.8715995,57.9045523],[13.87082,57.9046743],[13.8705971,57.9048451],[13.8702069,57.905144],[13.8700596,57.9053071],[13.8696855,57.9057212],[13.8694902,57.9063351]]]}},{"type":"Feature","properties":{"kind":"lake-islands-focus-mask"},"geometry":{"type":"MultiPolygon","coordinates":[[[[13.8847017,57.9115565],[13.8847876,57.9114995],[13.884982,57.911546],[13.8849177,57.9116078],[13.8848036,57.9116049],[13.8847017,57.9115565]]],[[[13.8848787,57.9109523],[13.8849324,57.9108811],[13.8850665,57.910864],[13.8851523,57.9109067],[13.885147,57.9109666],[13.885029,57.911015],[13.8849163,57.9109922],[13.8848787,57.9109523]]],[[[13.8858243,57.9131751],[13.8858853,57.913084],[13.8860099,57.9130687],[13.8861269,57.9131167],[13.8861108,57.9132275],[13.8860257,57.913265],[13.8859162,57.9132649],[13.8858243,57.9131751]]]]}}]}
