{"type":"FeatureCollection","pike":{"schemaVersion":1,"lakeId":"munksjon","purpose":"non-interactive outside-lake focus mask","source":"https://www.openstreetmap.org/way/15749182","osmObjectType":"way","osmObjectId":15749182,"sourceVersion":54,"sourceTimestamp":"2026-04-21T18:55:35Z","outerRingCount":1,"innerRingCount":0,"vertexCount":397},"features":[{"type":"Feature","properties":{"kind":"outside-lake-focus-mask"},"geometry":{"type":"Polygon","coordinates":[[[5,54],[30,54],[30,71],[5,71],[5,54]],[[14.153787,57.7663289],[14.1538082,57.7663809],[14.1538265,57.7664187],[14.1538332,57.7664897],[14.1538594,57.7665727],[14.1541216,57.766786],[14.1542557,57.7669519],[14.1543469,57.7670335],[14.1544273,57.7670707],[14.1544876,57.7670681],[14.154548,57.7670535],[14.1545722,57.7669791],[14.1545695,57.7668804],[14.1545856,57.7668017],[14.154603,57.7667762],[14.1546284,57.7667553],[14.1546481,57.7667455],[14.1546929,57.7667373],[14.1547529,57.7667413],[14.1547927,57.766747],[14.1548297,57.7667602],[14.1548797,57.7668013],[14.1549159,57.7668322],[14.1549772,57.7668632],[14.1551033,57.7669004],[14.1553178,57.7669233],[14.155869,57.766935],[14.1561466,57.766939],[14.1563183,57.7669262],[14.1566187,57.7668804],[14.1566777,57.7668832],[14.1566858,57.7669376],[14.156734,57.7669891],[14.1567796,57.767042],[14.1568467,57.7670993],[14.1567662,57.7671393],[14.1566616,57.7671508],[14.1564792,57.7671937],[14.1563371,57.7672066],[14.1562539,57.767238],[14.1562217,57.7673096],[14.1561744,57.7673545],[14.1557389,57.7675327],[14.1553983,57.7676114],[14.155177,57.7676935],[14.1550255,57.7678703],[14.1549531,57.7680535],[14.1550389,57.7681636],[14.1551962,57.7682491],[14.1554975,57.768434],[14.1556638,57.768517],[14.1557819,57.7686142],[14.1558677,57.7687401],[14.1559401,57.7688503],[14.1560554,57.768969],[14.1560957,57.769072],[14.1560662,57.7692379],[14.1561171,57.7693338],[14.1562512,57.769494],[14.1566447,57.7695922],[14.156734,57.769652],[14.1568415,57.769702],[14.156997,57.7697264],[14.1570436,57.7697523],[14.1571892,57.7698253],[14.1573996,57.7698887],[14.1575987,57.7699302],[14.1578469,57.7699906],[14.1581744,57.7700004],[14.1586062,57.7699804],[14.1590783,57.7699875],[14.1593841,57.7698416],[14.1599017,57.7697186],[14.1602343,57.7696685],[14.1606528,57.7696986],[14.1608405,57.76974],[14.1609317,57.7698116],[14.1609639,57.7698845],[14.1609988,57.7701506],[14.1611007,57.7705226],[14.1611695,57.7705189],[14.1613666,57.7711711],[14.1614214,57.771362],[14.1614634,57.7713584],[14.1616657,57.7720411],[14.1616239,57.7720465],[14.1617196,57.7723677],[14.1621841,57.7739466],[14.1622274,57.7739436],[14.1623476,57.774365],[14.1626025,57.7752337],[14.1625697,57.7752359],[14.1624967,57.7752394],[14.1625227,57.7753585],[14.1625183,57.7754431],[14.1625173,57.7754612],[14.1624996,57.7756102],[14.1625819,57.7756229],[14.1626306,57.7756497],[14.1625574,57.775816],[14.1625009,57.7759455],[14.1624311,57.7761409],[14.1624927,57.776231],[14.1625397,57.7763521],[14.1626458,57.7762707],[14.1628334,57.7762796],[14.1629058,57.7763168],[14.1629192,57.7765242],[14.1629264,57.7766194],[14.1629305,57.7766742],[14.162991,57.7767748],[14.1630702,57.7769209],[14.1631774,57.7770392],[14.1632231,57.77715],[14.1632638,57.7772061],[14.1633753,57.7772703],[14.1634486,57.7773182],[14.1635307,57.7773509],[14.163678,57.7774173],[14.1637975,57.7774557],[14.1640561,57.7775598],[14.1641392,57.7776025],[14.1642861,57.7776701],[14.1645593,57.7777757],[14.1648556,57.7778918],[14.1652527,57.7780409],[14.1657131,57.778218],[14.166216,57.7783956],[14.1665885,57.7785407],[14.1666527,57.7785761],[14.1668854,57.7787182],[14.1669547,57.7787679],[14.1671275,57.7789031],[14.1671678,57.7789305],[14.1672135,57.7789569],[14.1672938,57.7790551],[14.1673458,57.7790891],[14.1674286,57.7791344],[14.1677138,57.7793724],[14.1677234,57.7793691],[14.1678559,57.7795121],[14.167876,57.7795082],[14.1683373,57.7802969],[14.1684253,57.7805018],[14.168528,57.7811001],[14.1686244,57.7816392],[14.1688634,57.7816438],[14.1689801,57.7816456],[14.1690724,57.7816459],[14.1691667,57.7816288],[14.1691695,57.7816057],[14.169439,57.7815293],[14.1694174,57.7815078],[14.1697916,57.7814027],[14.1703651,57.7812417],[14.1703901,57.7812339],[14.1709055,57.7810906],[14.1711334,57.781029],[14.1712782,57.7809626],[14.1713025,57.7808989],[14.1713712,57.7808469],[14.1713481,57.7807087],[14.1712756,57.7804864],[14.1712421,57.7803698],[14.1712287,57.7802411],[14.1712739,57.7800843],[14.1712193,57.7800791],[14.1711946,57.7800049],[14.1713553,57.779912],[14.1713524,57.7798391],[14.1714749,57.7797833],[14.1715126,57.7796886],[14.1716414,57.7796763],[14.171733,57.7795376],[14.1717142,57.7794853],[14.171686,57.7794188],[14.171619,57.7793523],[14.1714399,57.7792425],[14.1711378,57.7790791],[14.1710047,57.7790091],[14.1709135,57.7789505],[14.1708116,57.7788368],[14.1707357,57.7786885],[14.1706542,57.778365],[14.1705582,57.7780688],[14.1705046,57.7779764],[14.1704891,57.7779184],[14.1704916,57.7778183],[14.1705433,57.7776932],[14.170557,57.7776088],[14.170582,57.7775805],[14.1706356,57.7775255],[14.1706753,57.7774933],[14.1707546,57.7774273],[14.1708902,57.7773372],[14.171029,57.7772554],[14.1711358,57.7772094],[14.1712426,57.7771767],[14.1714513,57.7771384],[14.1716302,57.7771313],[14.1718621,57.777138],[14.1721349,57.7771648],[14.1723005,57.7771946],[14.1724569,57.777213],[14.1727031,57.7772503],[14.1728254,57.7772837],[14.1731748,57.777366],[14.1734018,57.7774194],[14.1736455,57.7774844],[14.1739254,57.777539],[14.1740817,57.7775623],[14.1742397,57.7776035],[14.1743604,57.7776125],[14.1744695,57.7776521],[14.1747555,57.7774342],[14.1751704,57.7771235],[14.1751742,57.7769831],[14.1751763,57.7768749],[14.1751962,57.7767268],[14.1751791,57.7765918],[14.1752366,57.7763811],[14.17529,57.7762375],[14.1753089,57.7761867],[14.1752483,57.7761133],[14.1752225,57.7760393],[14.1752471,57.7759525],[14.1751934,57.7758286],[14.1751796,57.7753814],[14.1752518,57.7748371],[14.1752552,57.7747931],[14.175257,57.7747511],[14.174378,57.7747002],[14.174012,57.7746801],[14.1739866,57.7747011],[14.1739611,57.7747196],[14.173938,57.7747295],[14.1739117,57.7747311],[14.1738901,57.7747262],[14.1738678,57.7747147],[14.1738439,57.7746863],[14.1738238,57.7746649],[14.1736199,57.7746465],[14.1727629,57.7744746],[14.1725858,57.774431],[14.1725262,57.7744034],[14.1725111,57.7743971],[14.1724005,57.7743517],[14.1720387,57.7740985],[14.1719438,57.7740577],[14.171808,57.7740174],[14.1717216,57.7740042],[14.1715493,57.7739492],[14.1715241,57.7739203],[14.1714999,57.7739052],[14.1714414,57.7738872],[14.1714208,57.7738808],[14.171376,57.7738792],[14.171214,57.7738347],[14.1712094,57.7737854],[14.1710536,57.7737031],[14.1710073,57.7736949],[14.170944,57.7736998],[14.1708684,57.7736653],[14.1707006,57.7735309],[14.1706262,57.7734933],[14.1706306,57.7734466],[14.1703919,57.7732775],[14.1701505,57.7729599],[14.1699439,57.7728097],[14.1696864,57.7727482],[14.1694021,57.772681],[14.1685598,57.7724665],[14.1684984,57.7723599],[14.1687159,57.7722172],[14.1689129,57.7720799],[14.1690513,57.7718536],[14.1688787,57.7717609],[14.1690971,57.7715059],[14.1692215,57.7712983],[14.1691046,57.7710414],[14.1682789,57.7704003],[14.1680074,57.770115],[14.1676692,57.7697978],[14.1673177,57.7694681],[14.1672431,57.7692811],[14.1673433,57.7691065],[14.1671385,57.7690186],[14.1670941,57.7689073],[14.1671506,57.7686669],[14.1678342,57.7683882],[14.1680566,57.7681406],[14.1678993,57.7676801],[14.1677652,57.7675436],[14.1676098,57.7673767],[14.1673457,57.767229],[14.1669085,57.7670261],[14.16668,57.7669635],[14.1666278,57.7669444],[14.1663226,57.7668209],[14.1662776,57.7666325],[14.1664247,57.7664634],[14.1665857,57.7663255],[14.1666314,57.7662495],[14.1665183,57.766214],[14.1664812,57.7662023],[14.166441,57.7662252],[14.1663659,57.7662109],[14.1662071,57.7661648],[14.16613,57.7661487],[14.1660474,57.7661416],[14.1659183,57.7661371],[14.1658399,57.7661348],[14.1657755,57.7661362],[14.1656578,57.7661451],[14.1654466,57.7661591],[14.1652688,57.766188],[14.1650102,57.7662223],[14.164859,57.7662424],[14.1647693,57.7662507],[14.1646683,57.7662539],[14.1645614,57.766246],[14.1640744,57.7661668],[14.1638031,57.7661094],[14.1636043,57.7660772],[14.1630974,57.7659962],[14.1629281,57.7659866],[14.1628826,57.7659808],[14.1628278,57.7659677],[14.1626651,57.7659371],[14.1622301,57.7658748],[14.1618635,57.7658422],[14.1615728,57.7658304],[14.1613866,57.7658246],[14.1612823,57.7658174],[14.1612358,57.7658016],[14.1612032,57.7657827],[14.1611492,57.7657511],[14.1610355,57.7656997],[14.1607189,57.7655634],[14.1605687,57.7654932],[14.1605412,57.7654803],[14.1603537,57.7653801],[14.1601769,57.7652572],[14.1598762,57.7650738],[14.1597182,57.7650275],[14.1596216,57.7650021],[14.1595316,57.7649662],[14.1594497,57.7649391],[14.1593263,57.7648982],[14.1592902,57.7648862],[14.1591384,57.7648573],[14.158921,57.7648247],[14.1585728,57.764804],[14.1581763,57.7648049],[14.1580794,57.764804],[14.1580069,57.7648032],[14.1578286,57.7648014],[14.1573434,57.7647853],[14.1569921,57.7647737],[14.1565658,57.7647535],[14.1564805,57.7647593],[14.1564637,57.76476],[14.1563129,57.7647668],[14.1562904,57.7647678],[14.1562784,57.7647697],[14.1562486,57.7647746],[14.1562124,57.7647844],[14.1560758,57.7648322],[14.1560091,57.7648491],[14.1557385,57.7648864],[14.1556101,57.7649041],[14.1552831,57.7649842],[14.1550946,57.7650333],[14.1550744,57.7650383],[14.1548974,57.7650977],[14.1547064,57.7651779],[14.1546956,57.7651984],[14.1546907,57.76522],[14.1546559,57.7652469],[14.154614,57.7652619],[14.1545501,57.7652643],[14.1545055,57.765289],[14.1544305,57.7653766],[14.1544088,57.7654195],[14.1544073,57.7654561],[14.1544071,57.7654847],[14.1543676,57.7655314],[14.1543234,57.765553],[14.1543123,57.7655598],[14.1542848,57.7655768],[14.1542438,57.7656007],[14.1542232,57.7656276],[14.1541066,57.7657261],[14.1539275,57.7659428],[14.1538405,57.7660658],[14.1538059,57.7661644],[14.153787,57.7663289]]]}}]}
