{"type":"FeatureCollection","pike":{"schemaVersion":1,"lakeId":"nommen","purpose":"non-interactive outside-lake focus mask","source":"https://www.openstreetmap.org/relation/9452","osmObjectType":"relation","osmObjectId":9452,"sourceVersion":12,"sourceTimestamp":"2025-10-18T09:53:54Z","outerRingCount":1,"innerRingCount":120,"vertexCount":3901},"features":[{"type":"Feature","properties":{"kind":"outside-lake-focus-mask"},"geometry":{"type":"Polygon","coordinates":[[[5,54],[30,54],[30,71],[5,71],[5,54]],[[14.8186634,57.5698871],[14.8189091,57.5699772],[14.8190405,57.5702217],[14.8189434,57.5704904],[14.8191762,57.5705534],[14.8194216,57.5706869],[14.8193945,57.5708541],[14.819281,57.5709],[14.8190512,57.5709147],[14.8187664,57.5709849],[14.8188677,57.5712518],[14.8187696,57.5715032],[14.8186811,57.5717529],[14.8190276,57.5718723],[14.8192539,57.5718753],[14.8194148,57.5719225],[14.8196193,57.5721168],[14.8198355,57.5725115],[14.8201944,57.5725923],[14.8206289,57.5726568],[14.8211578,57.5727554],[14.821411,57.5729249],[14.8218809,57.5733788],[14.8222586,57.5743516],[14.822345,57.5747255],[14.8226738,57.5750457],[14.8233481,57.5755364],[14.8234377,57.5758424],[14.8234098,57.5763032],[14.8233395,57.5765025],[14.8231657,57.576577],[14.8228374,57.5764996],[14.8226362,57.5765385],[14.8224415,57.5766535],[14.8223648,57.5768137],[14.8221529,57.5769814],[14.8220419,57.5769173],[14.8218718,57.5766124],[14.8215736,57.57655],[14.8213268,57.576642],[14.8211879,57.5768609],[14.8210554,57.5772457],[14.8206911,57.5776194],[14.8203499,57.5778912],[14.8200812,57.5782984],[14.8201083,57.5786582],[14.820115,57.5787477],[14.8202072,57.579079],[14.820261,57.5791141],[14.8203551,57.5791522],[14.8203486,57.5791938],[14.8204918,57.5792936],[14.8206037,57.5793715],[14.8208789,57.579517],[14.8217168,57.5797612],[14.822427,57.5798112],[14.8234366,57.5800867],[14.8237613,57.5802147],[14.8243352,57.5803473],[14.8246093,57.5803358],[14.8247632,57.5804321],[14.8251264,57.5804736],[14.8251876,57.5806018],[14.8254853,57.5806612],[14.8255769,57.5806121],[14.8255193,57.5805595],[14.825741,57.5804682],[14.8262385,57.5804379],[14.8265807,57.5803277],[14.8270136,57.5800022],[14.8268968,57.5798327],[14.8269236,57.5795814],[14.8271784,57.5795932],[14.8275652,57.5794304],[14.8276312,57.5792705],[14.826855,57.5780982],[14.8269875,57.5777113],[14.8267235,57.5775255],[14.8264162,57.577661],[14.8260305,57.5776553],[14.8253975,57.5774709],[14.8250316,57.5773501],[14.8249388,57.5771588],[14.8247736,57.5769247],[14.8242409,57.5766704],[14.8243149,57.5758657],[14.8246566,57.575331],[14.8255606,57.574877],[14.825641,57.5747473],[14.8259833,57.5746963],[14.8260447,57.574769],[14.8263642,57.5747248],[14.826472,57.5746558],[14.826811,57.5746325],[14.8276296,57.5744678],[14.8280689,57.5745598],[14.8284986,57.5743987],[14.8288629,57.573996],[14.8291466,57.5734132],[14.8294106,57.5731961],[14.8300103,57.5730586],[14.8301519,57.5729139],[14.8306433,57.573001],[14.8308917,57.5729317],[14.8309244,57.5728328],[14.8315,57.572],[14.8308788,57.5711258],[14.8300811,57.570358],[14.8283801,57.5697501],[14.8275754,57.5697556],[14.8270121,57.5699501],[14.8266098,57.5700033],[14.8263749,57.5698652],[14.8260793,57.5694834],[14.8259473,57.5689998],[14.8262649,57.5686575],[14.82662,57.5685824],[14.8271532,57.5687127],[14.8277433,57.5689711],[14.8280636,57.5692248],[14.8283286,57.5692826],[14.8286022,57.5692012],[14.8295125,57.5691612],[14.8298381,57.5690545],[14.8296353,57.5688465],[14.8288838,57.5685534],[14.8275057,57.5679222],[14.8267391,57.5675004],[14.8263067,57.5674912],[14.8257853,57.5673163],[14.825774,57.5671549],[14.8259994,57.5670096],[14.8259988,57.5668045],[14.8263952,57.5665913],[14.8268255,57.5666313],[14.8271151,57.5667751],[14.8280813,57.5663545],[14.8287953,57.5658749],[14.8291375,57.5653435],[14.8294862,57.5650802],[14.8295383,57.5648135],[14.8293548,57.5643437],[14.8298081,57.5641799],[14.8300001,57.5638758],[14.8303118,57.5633337],[14.8308085,57.563023],[14.8330031,57.5624829],[14.8332928,57.5623333],[14.8334419,57.5621621],[14.8336662,57.562055],[14.8339478,57.562028],[14.8341763,57.5621307],[14.834475,57.562192],[14.8347133,57.5621537],[14.8349794,57.5619241],[14.8353023,57.561607],[14.8359525,57.5613282],[14.836284,57.5613648],[14.8365984,57.5615455],[14.8369004,57.561544],[14.8372523,57.5614468],[14.8373875,57.5612718],[14.8374368,57.5609631],[14.837167,57.5607619],[14.836819,57.5604024],[14.8361703,57.5600713],[14.8360217,57.5598805],[14.8363006,57.5596155],[14.8367051,57.5595827],[14.8374121,57.5596075],[14.8380527,57.5595384],[14.8386787,57.5595539],[14.8396529,57.5596446],[14.840457,57.5595752],[14.8408792,57.5595079],[14.8414794,57.5593065],[14.8417348,57.5593263],[14.8421881,57.5591565],[14.8421527,57.5590529],[14.8423506,57.5589836],[14.8427256,57.5590129],[14.8430818,57.5592486],[14.8434659,57.5594843],[14.8437963,57.5595168],[14.8438403,57.5595936],[14.8430791,57.5596221],[14.8422745,57.5595908],[14.8421242,57.5598736],[14.8423077,57.5602365],[14.8421993,57.5604103],[14.841664,57.5606296],[14.8416554,57.5608002],[14.8418335,57.5609461],[14.8424365,57.5609941],[14.8426387,57.5612171],[14.8425534,57.5615932],[14.8427749,57.5617555],[14.8428758,57.5620329],[14.8425867,57.562148],[14.8412252,57.5622801],[14.840605,57.5623198],[14.8404184,57.5624821],[14.84075,57.563],[14.8407016,57.5635458],[14.8405155,57.5636796],[14.8400112,57.5637135],[14.839581,57.5636623],[14.8391513,57.5638583],[14.839155,57.5641797],[14.839552,57.5643546],[14.8400133,57.5646067],[14.840474,57.5653757],[14.8408341,57.5659767],[14.8409709,57.5664756],[14.8409119,57.5666123],[14.841061,57.5667124],[14.842179,57.5672133],[14.8427685,57.5676264],[14.8428742,57.5684098],[14.8432851,57.5686679],[14.8440361,57.5687194],[14.8457061,57.5684158],[14.8462114,57.5680988],[14.8465638,57.5677426],[14.8468079,57.5674506],[14.8469833,57.567213],[14.8472516,57.5671673],[14.8477735,57.5671227],[14.8480348,57.5669359],[14.8486812,57.5667636],[14.8503436,57.566971],[14.8512379,57.5672412],[14.8524014,57.5667699],[14.851446,57.5663789],[14.8505298,57.5657949],[14.8500609,57.5657932],[14.8490867,57.5656997],[14.8483352,57.5658004],[14.847972,57.5656936],[14.8480852,57.5654732],[14.8477403,57.5654097],[14.8473937,57.5650886],[14.8473277,57.5649212],[14.847427,57.5647666],[14.847531,57.5645574],[14.8474254,57.5644162],[14.8471663,57.5643871],[14.8468455,57.564474],[14.846147,57.5645603],[14.8450527,57.5646809],[14.8445801,57.5646412],[14.84385,57.564434],[14.8431419,57.5644973],[14.8427782,57.5644682],[14.8428747,57.5642548],[14.8430507,57.5640482],[14.8433579,57.5639545],[14.8435512,57.563795],[14.8438339,57.563736],[14.8446691,57.5636948],[14.8450189,57.5635478],[14.8449239,57.5633867],[14.8447067,57.563181],[14.844829,57.5629485],[14.8451916,57.5627724],[14.845734,57.5626361],[14.8459856,57.5625114],[14.8463942,57.5625302],[14.8468015,57.5627246],[14.8473696,57.5627991],[14.8477628,57.5627453],[14.8482595,57.5629378],[14.8482947,57.5632581],[14.8482432,57.5633653],[14.8484451,57.5635469],[14.8487118,57.563553],[14.849128,57.5634719],[14.8504123,57.563944],[14.8508564,57.563881],[14.8524336,57.5631329],[14.8535092,57.5628331],[14.8547955,57.5621837],[14.8548588,57.5620286],[14.8552225,57.5617751],[14.85584,57.5616752],[14.8570743,57.5617613],[14.8576966,57.5623831],[14.8582604,57.5624075],[14.8587207,57.5622527],[14.8589798,57.5618723],[14.8595,57.5615],[14.8610617,57.5598518],[14.8617044,57.559438],[14.8624881,57.5583329],[14.8622392,57.5581609],[14.8615794,57.5580944],[14.8610344,57.5579442],[14.8608697,57.5577916],[14.8610832,57.5570319],[14.8615531,57.5562388],[14.861497,57.5559078],[14.8613374,57.555692],[14.8608831,57.5556203],[14.8606535,57.5554782],[14.860631,57.5551386],[14.8608112,57.5550255],[14.8606605,57.5548476],[14.8604046,57.5547995],[14.8597626,57.5548483],[14.8594275,57.555263],[14.8596734,57.5555452],[14.859535,57.5558934],[14.8587566,57.5561205],[14.8583334,57.5560316],[14.858313,57.5558929],[14.8584133,57.5555354],[14.8582885,57.5553044],[14.8579906,57.5551219],[14.857746,57.5552309],[14.8577444,57.5554209],[14.8576693,57.5557323],[14.8572514,57.5558983],[14.8566613,57.5559271],[14.8563072,57.5561401],[14.855663,57.5562961],[14.8553084,57.556492],[14.8551183,57.5564876],[14.8550257,57.5564204],[14.8549356,57.5560819],[14.855,57.55575],[14.8552451,57.55549],[14.8552365,57.555098],[14.8548422,57.5550681],[14.8547151,57.5550975],[14.8545529,57.5550378],[14.8546162,57.5549704],[14.8547532,57.5549629],[14.8547685,57.5549182],[14.8545258,57.5548245],[14.8543669,57.5547236],[14.8543192,57.5542383],[14.8546137,57.5537171],[14.8547811,57.5534331],[14.8546673,57.553233],[14.8544082,57.5531881],[14.8540848,57.5530696],[14.8539523,57.5528802],[14.854022,57.5527101],[14.8543487,57.5527141],[14.8554275,57.5522093],[14.856414,57.5519845],[14.856907,57.5515876],[14.8574332,57.5515183],[14.8578216,57.551368],[14.8580721,57.5514022],[14.8582486,57.5515758],[14.8581746,57.5517885],[14.8583393,57.5519767],[14.8586322,57.5520654],[14.858828,57.552312],[14.8589385,57.5527052],[14.859152,57.5527731],[14.8593966,57.5527386],[14.8595414,57.5526102],[14.860246,57.551686],[14.8611706,57.5509302],[14.8618052,57.5507451],[14.8626769,57.550746],[14.8636227,57.5507877],[14.8641602,57.5504881],[14.8644043,57.5502688],[14.8647358,57.5502515],[14.8649515,57.5504072],[14.8651589,57.5504615],[14.8654428,57.5504121],[14.8656309,57.5499759],[14.8659385,57.5496243],[14.86575,57.5495],[14.866,57.54925],[14.8681132,57.5492138],[14.86975,57.54875],[14.8690724,57.5481108],[14.8671037,57.5477395],[14.8666027,57.5472805],[14.8659804,57.5473961],[14.8650791,57.5472812],[14.8646704,57.5472812],[14.8645674,57.5471563],[14.8641774,57.5470794],[14.8636581,57.5471773],[14.8631619,57.5474254],[14.8630578,57.5476954],[14.8630541,57.5478987],[14.8628652,57.5480112],[14.8624162,57.5479122],[14.8622279,57.5480302],[14.8613321,57.5479246],[14.8606149,57.5480694],[14.860418,57.5480521],[14.8603751,57.547943],[14.8604968,57.5477628],[14.8601895,57.5477308],[14.8601814,57.5476612],[14.86075,57.5474349],[14.86075,57.54725],[14.862,57.5465],[14.86225,57.54625],[14.8618557,57.5460316],[14.861169,57.5459856],[14.8606943,57.5460322],[14.8606739,57.5459516],[14.8609753,57.5458537],[14.8611057,57.5456937],[14.8610703,57.5456064],[14.8619383,57.5451919],[14.8624157,57.5447206],[14.8629259,57.5443571],[14.8628325,57.5441898],[14.8628518,57.5440856],[14.8633783,57.5440443],[14.8635487,57.5439074],[14.8637525,57.5439192],[14.8637091,57.5440919],[14.8640985,57.5443121],[14.8644794,57.5443619],[14.86475,57.54425],[14.8651392,57.543968],[14.8655123,57.5438521],[14.8662271,57.5436716],[14.8665061,57.5434807],[14.8666139,57.5432979],[14.8668387,57.5432392],[14.8672689,57.5432913],[14.867484,57.5436889],[14.8682645,57.5439238],[14.8689716,57.5438826],[14.869618,57.5437577],[14.8698545,57.5435619],[14.8703025,57.5435441],[14.8703239,57.5436532],[14.8701146,57.5437031],[14.86975,57.54425],[14.8700632,57.5449699],[14.8698706,57.5453439],[14.8698658,57.5457846],[14.870325,57.5461577],[14.8709355,57.5462029],[14.8718292,57.5459286],[14.872548,57.5459691],[14.8729321,57.5455071],[14.872933,57.545504],[14.873159,57.5446849],[14.8732093,57.5441297],[14.8741997,57.5433319],[14.874694,57.5432336],[14.8754308,57.5429277],[14.876,57.5422943],[14.8774963,57.5404786],[14.8774598,57.5401242],[14.8782123,57.5391864],[14.8791028,57.5383857],[14.8796822,57.5375158],[14.8797154,57.5369175],[14.8803173,57.536056],[14.8803236,57.5358752],[14.8803286,57.5357329],[14.8800147,57.5350689],[14.8798007,57.5349476],[14.8795834,57.5349646],[14.8794241,57.5350395],[14.8790357,57.5350329],[14.8789799,57.5345537],[14.8787176,57.5345249],[14.8782407,57.5343703],[14.8780991,57.5340577],[14.8771931,57.5336777],[14.877185,57.5334995],[14.8776453,57.5332438],[14.8781485,57.5330128],[14.8787498,57.5320971],[14.8786844,57.5318183],[14.8791554,57.5311283],[14.879363,57.5303366],[14.8793179,57.5299833],[14.8787337,57.5294182],[14.8783346,57.5292898],[14.8781903,57.5291904],[14.8782616,57.5288725],[14.8780498,57.5286746],[14.8776303,57.528617],[14.8775214,57.5284796],[14.8776529,57.5283103],[14.8775262,57.5281167],[14.877008,57.5279534],[14.8770078,57.5276484],[14.8769756,57.5275274],[14.8769313,57.527364],[14.8770185,57.5272754],[14.8769892,57.5271891],[14.8770775,57.5270018],[14.877398,57.52687],[14.8774557,57.5267959],[14.8775342,57.5267565],[14.8775965,57.5267339],[14.8775737,57.5266677],[14.8774919,57.5265806],[14.8773712,57.526541],[14.8773068,57.526469],[14.8772572,57.5264682],[14.8771593,57.5264949],[14.8771191,57.5264582],[14.8772384,57.5263991],[14.8772049,57.5263141],[14.8771164,57.5261694],[14.8769943,57.5261068],[14.8770091,57.5260218],[14.8769407,57.5259282],[14.8768415,57.5258958],[14.8768683,57.5258324],[14.8768428,57.5257986],[14.8768575,57.5257691],[14.876934,57.5257611],[14.8769903,57.5257986],[14.8770547,57.5258159],[14.877174,57.5258108],[14.877276,57.5257503],[14.8773658,57.5257064],[14.8773578,57.5256114],[14.8770074,57.5256507],[14.8766993,57.5256128],[14.8763949,57.5255581],[14.8762634,57.5254933],[14.8764391,57.5254177],[14.8761937,57.5253262],[14.8760338,57.5252538],[14.8759201,57.5252384],[14.8757337,57.5252736],[14.8756452,57.5252362],[14.875609,57.5251779],[14.8755245,57.5249179],[14.8754279,57.5247847],[14.8751356,57.5244996],[14.8750015,57.5244304],[14.8749371,57.5243519],[14.8750363,57.5241503],[14.8750739,57.5240956],[14.8750766,57.5240502],[14.8749854,57.5240545],[14.8748083,57.5240553],[14.8747399,57.5239962],[14.8747453,57.5239739],[14.8747976,57.5239789],[14.8748124,57.5240013],[14.8750524,57.5240049],[14.8750913,57.5239854],[14.8751141,57.5239501],[14.8750859,57.5238824],[14.8749505,57.5238918],[14.874921,57.5238904],[14.87487,57.5238796],[14.874862,57.5238659],[14.8748928,57.5238623],[14.8749746,57.5238659],[14.8750041,57.5238644],[14.8750122,57.5238551],[14.8750149,57.5238263],[14.8749854,57.5237665],[14.8749679,57.5237226],[14.8749867,57.5235843],[14.8749733,57.523531],[14.874988,57.5234929],[14.87498,57.5234403],[14.8749854,57.5234093],[14.8750591,57.5234028],[14.8750591,57.5233748],[14.8750564,57.523346],[14.8750095,57.5232876],[14.8749626,57.5232444],[14.8748781,57.5231846],[14.8748955,57.5231321],[14.8748606,57.5230853],[14.8748499,57.5230111],[14.8748848,57.5228484],[14.8749344,57.5227814],[14.8750269,57.5226352],[14.8749934,57.5225941],[14.8750618,57.5225445],[14.8750672,57.5223054],[14.8751785,57.5222636],[14.8752817,57.5222154],[14.8752885,57.5221433],[14.8753488,57.5221225],[14.8754159,57.5220411],[14.8754708,57.5220015],[14.8755862,57.522],[14.8756613,57.5220274],[14.8757337,57.5220058],[14.8757793,57.5219611],[14.8757833,57.5219143],[14.8758517,57.5219158],[14.8759469,57.5219439],[14.8760743,57.5219194],[14.8763868,57.521784],[14.8764217,57.5217458],[14.8764351,57.5217026],[14.8764887,57.5216753],[14.8766094,57.5216846],[14.8766966,57.5216695],[14.877107,57.5215355],[14.8771311,57.521506],[14.8770761,57.5214729],[14.8770936,57.5214513],[14.8771968,57.5214686],[14.8772955,57.5214606],[14.8774503,57.5213785],[14.8775308,57.5212712],[14.8775522,57.521223],[14.8773122,57.5211308],[14.8773028,57.5210998],[14.8773631,57.5210617],[14.8774557,57.521079],[14.8775831,57.5211222],[14.8776609,57.5211294],[14.877744,57.5210912],[14.8778822,57.5209933],[14.8779425,57.5208996],[14.8779398,57.520855],[14.8778768,57.5208204],[14.8778003,57.5208024],[14.8777333,57.5207592],[14.8777574,57.5207362],[14.8778339,57.5207282],[14.8778848,57.520729],[14.8779573,57.5207239],[14.8778982,57.520528],[14.8778084,57.5202465],[14.8776783,57.5200851],[14.8776636,57.5200232],[14.877512,57.519926],[14.8771875,57.5197121],[14.8770429,57.5195844],[14.8767516,57.5193827],[14.8763133,57.5193767],[14.8759233,57.5192378],[14.8760494,57.5189178],[14.8762811,57.5188071],[14.8769951,57.5189192],[14.8774457,57.5189083],[14.8782112,57.5185303],[14.8783072,57.5182413],[14.8781549,57.5178838],[14.8771984,57.5172033],[14.877362,57.5164961],[14.8777933,57.5159317],[14.8776512,57.5156015],[14.8775,57.51525],[14.8777182,57.5149403],[14.877354,57.5144168],[14.8768052,57.5144566],[14.8763567,57.5143128],[14.8758729,57.5140304],[14.8754974,57.5128428],[14.8759807,57.5123083],[14.8758949,57.512002],[14.8759067,57.5117202],[14.8764351,57.5112506],[14.8763326,57.5108561],[14.8764522,57.5100498],[14.8768953,57.5096937],[14.8766024,57.5091162],[14.8763385,57.5089572],[14.8754834,57.5089318],[14.8750157,57.5085043],[14.8748958,57.5083563],[14.8750833,57.5082354],[14.8752099,57.5079942],[14.875134,57.5078647],[14.8749336,57.5078451],[14.8747453,57.507823],[14.8746626,57.5077336],[14.8748143,57.5076129],[14.8746593,57.5072233],[14.8748937,57.5068833],[14.8757889,57.5065667],[14.8759735,57.5065499],[14.87625,57.50675],[14.87675,57.50675],[14.8769851,57.5066908],[14.8771882,57.5066169],[14.8772152,57.5065505],[14.8769982,57.5064625],[14.8768109,57.5063553],[14.8767959,57.5062947],[14.8769954,57.5062741],[14.8771188,57.5061872],[14.8773688,57.5061395],[14.877549,57.5060683],[14.8776365,57.5059517],[14.8776757,57.505766],[14.8775126,57.5056902],[14.8779155,57.5054758],[14.8781574,57.5052066],[14.8782562,57.5051436],[14.8786177,57.504913],[14.8785238,57.5046539],[14.8782443,57.504481],[14.8776655,57.5044694],[14.8772741,57.5043585],[14.8765808,57.5045776],[14.8756647,57.5048169],[14.8752182,57.5048686],[14.8748293,57.5047855],[14.8745166,57.504571],[14.8741346,57.5045178],[14.8738128,57.504406],[14.8734903,57.5041491],[14.8738105,57.5037323],[14.874375,57.5035677],[14.8749242,57.5035934],[14.8752437,57.5035018],[14.8759162,57.5029359],[14.8757547,57.5025385],[14.8760104,57.5024693],[14.875928,57.502314],[14.8755198,57.5023483],[14.8753143,57.502486],[14.8748868,57.502452],[14.8748326,57.5023021],[14.8751856,57.5021748],[14.8755251,57.5022445],[14.875923,57.502242],[14.8764634,57.5022385],[14.8767509,57.5023238],[14.8770794,57.5023023],[14.877312,57.5020315],[14.8773324,57.5016953],[14.877258,57.5012765],[14.8768179,57.5007054],[14.8759355,57.5004627],[14.8758411,57.5000826],[14.8754516,57.4998802],[14.8738664,57.4995404],[14.873073,57.499541],[14.8726085,57.4997067],[14.8724374,57.5000021],[14.8725758,57.5001391],[14.8723843,57.500261],[14.8720934,57.5002771],[14.87202,57.5002321],[14.8721064,57.5000883],[14.8720737,57.4999258],[14.871453,57.499905],[14.8709493,57.5000483],[14.8707449,57.5004284],[14.8705303,57.5018067],[14.8696704,57.5028316],[14.8689172,57.5033671],[14.8681678,57.5035752],[14.8677403,57.5037426],[14.8669426,57.5042256],[14.8667602,57.5044348],[14.8667645,57.5047692],[14.8666561,57.5053167],[14.8662173,57.5056334],[14.8658075,57.5056784],[14.8655452,57.5055522],[14.8651332,57.5054893],[14.8646879,57.5056317],[14.8643076,57.5059219],[14.8643188,57.5061467],[14.8649663,57.5062821],[14.8655,57.5065],[14.8656937,57.506813],[14.865624,57.5069813],[14.8651831,57.5070968],[14.8648977,57.507317],[14.8640072,57.5075758],[14.8633264,57.5076446],[14.8627943,57.507519],[14.8626842,57.5073661],[14.8623324,57.5073219],[14.8619108,57.5073769],[14.8616082,57.507136],[14.8612236,57.5071072],[14.8609103,57.5071585],[14.8606464,57.5073498],[14.8602945,57.5077518],[14.8603025,57.5079665],[14.8597215,57.5084103],[14.8592999,57.5086376],[14.8590381,57.508584],[14.8580108,57.5081057],[14.8574835,57.5077371],[14.8574266,57.5073611],[14.8577914,57.5068314],[14.8583601,57.5066452],[14.8587254,57.5064104],[14.8589748,57.5058415],[14.8589963,57.505328],[14.858234,57.5045905],[14.8574175,57.5040887],[14.8567808,57.5039322],[14.8564632,57.5038576],[14.8563232,57.50354],[14.8564809,57.5029057],[14.8567953,57.5027045],[14.8567513,57.5024111],[14.8568822,57.5021978],[14.8568693,57.5019378],[14.8565292,57.5017952],[14.85625,57.50175],[14.8560045,57.5020439],[14.8557127,57.5020537],[14.8551435,57.501869],[14.85479,57.5015926],[14.8541377,57.5014205],[14.8534307,57.5015044],[14.8522473,57.5013358],[14.8515832,57.5011432],[14.8511932,57.5013839],[14.8512763,57.5016378],[14.8517023,57.5020257],[14.8515075,57.5023768],[14.8510999,57.5024633],[14.850726,57.5023128],[14.8504647,57.5023016],[14.85025,57.5025],[14.8503467,57.5027719],[14.8507683,57.5030111],[14.8511369,57.503059],[14.8513037,57.5031322],[14.8510441,57.5032968],[14.8512281,57.5033679],[14.8513579,57.503668],[14.8511937,57.5037308],[14.8513005,57.5038743],[14.8512275,57.5040311],[14.8507753,57.5041138],[14.8507517,57.5042008],[14.8509604,57.5043423],[14.8512301,57.5044344],[14.8512259,57.5045775],[14.8510028,57.5048207],[14.8506964,57.5048415],[14.8503628,57.504915],[14.8502753,57.5051499],[14.8500608,57.5052421],[14.849726,57.5053242],[14.8496842,57.5054778],[14.8494256,57.5055196],[14.8492126,57.5056164],[14.8489648,57.5056107],[14.8485791,57.5055144],[14.8481441,57.5055242],[14.8478597,57.5054775],[14.8478479,57.5053277],[14.8480191,57.505166],[14.8480062,57.5050677],[14.8481478,57.5049421],[14.8483415,57.5047052],[14.8483211,57.5043305],[14.848563,57.5042207],[14.8491268,57.5042101],[14.8495,57.504],[14.8496305,57.5037487],[14.8495436,57.5035066],[14.8494363,57.5032129],[14.8496836,57.5030682],[14.8496611,57.5028374],[14.8494685,57.5025955],[14.8492025,57.5022621],[14.848541,57.5021724],[14.8478394,57.502239],[14.8473533,57.5023877],[14.8470862,57.5027045],[14.847061,57.5032576],[14.847282,57.5036051],[14.847054,57.504059],[14.8470181,57.5043236],[14.8469355,57.5044225],[14.8467633,57.5043588],[14.8468384,57.5042896],[14.8467193,57.5042204],[14.8468185,57.5040709],[14.8466367,57.5040083],[14.8464773,57.503876],[14.8463067,57.5035752],[14.8461415,57.5035867],[14.846105,57.5037691],[14.8458084,57.5039034],[14.845508,57.5038394],[14.8452054,57.5036783],[14.8452848,57.5034089],[14.8451432,57.5032094],[14.8447366,57.5031893],[14.844272,57.5032512],[14.8430623,57.5037538],[14.842549,57.5039273],[14.8418752,57.5040028],[14.8411097,57.5042893],[14.840629,57.5045844],[14.8404123,57.5048844],[14.8406226,57.5051827],[14.8409514,57.5053974],[14.8408082,57.5055406],[14.8404359,57.5053337],[14.8404123,57.5052179],[14.8402723,57.505045],[14.8399633,57.505],[14.8396506,57.5051032],[14.8391278,57.5055069],[14.8387166,57.5060072],[14.8385058,57.5064383],[14.8386109,57.5067403],[14.8389317,57.5069415],[14.83875,57.50725],[14.8381357,57.5075634],[14.8379865,57.5077414],[14.8382467,57.5079216],[14.8386324,57.5080074],[14.839046,57.5080613],[14.8396468,57.5083921],[14.8397203,57.5087434],[14.8398405,57.5088402],[14.8398196,57.5089463],[14.8394387,57.5091151],[14.8390197,57.5093105],[14.8379983,57.509494],[14.8376064,57.50948],[14.8368171,57.5096387],[14.8362265,57.5099836],[14.8354126,57.510241],[14.8350217,57.5103384],[14.8347304,57.5104618],[14.8348773,57.5107746],[14.8352055,57.5108917],[14.8355302,57.5109527],[14.8357855,57.5111342],[14.835984,57.5113512],[14.8356079,57.5118349],[14.8356496,57.5122019],[14.8360151,57.5124167],[14.8364866,57.5123706],[14.8368509,57.5121404],[14.8376888,57.5119672],[14.8379549,57.5118162],[14.8384817,57.5119035],[14.8387064,57.5120358],[14.8385337,57.5121738],[14.8386968,57.5126161],[14.8388261,57.5127161],[14.8390921,57.5126351],[14.8394392,57.5126195],[14.8393507,57.5128719],[14.8391796,57.5129696],[14.8389688,57.5128731],[14.838756,57.5129198],[14.838538,57.513105],[14.8385466,57.5136208],[14.8379517,57.5138959],[14.8371202,57.514053],[14.836698,57.5140757],[14.8364877,57.5141858],[14.8364469,57.514471],[14.8364131,57.5145664],[14.8360596,57.5145848],[14.8357759,57.5147205],[14.8357421,57.5149985],[14.8360049,57.5153673],[14.8365612,57.5155915],[14.8370435,57.5155961],[14.8372285,57.5155364],[14.8373852,57.5155756],[14.8377854,57.5155572],[14.8380949,57.5154293],[14.8384602,57.5151014],[14.8387601,57.5148594],[14.8392091,57.5148726],[14.8397364,57.5147853],[14.8399006,57.5149718],[14.840238,57.5149562],[14.8404783,57.5150155],[14.8404976,57.5152227],[14.8404853,57.5154526],[14.8400652,57.5154342],[14.8394355,57.5154587],[14.8389307,57.5155676],[14.8388867,57.515754],[14.8391597,57.5161567],[14.8394119,57.5163475],[14.8397171,57.5165488],[14.8402208,57.5167151],[14.8405148,57.5166292],[14.8409563,57.5166243],[14.8413017,57.5167044],[14.8415721,57.5169919],[14.8419471,57.5172106],[14.8423998,57.5172864],[14.8429341,57.5172279],[14.8432297,57.5174154],[14.8432549,57.5175102],[14.8428751,57.5174791],[14.8427297,57.5176139],[14.8428279,57.5177637],[14.8431063,57.5178211],[14.8434379,57.5177689],[14.8433526,57.5180852],[14.8434915,57.5184871],[14.8437039,57.5186159],[14.8433381,57.5187133],[14.8433,57.5188472],[14.8435682,57.5189339],[14.8434384,57.5190428],[14.843028,57.5190408],[14.8426761,57.5191641],[14.8418022,57.5194217],[14.8414868,57.5193606],[14.8412417,57.5194228],[14.8411188,57.5195254],[14.8405861,57.5196196],[14.8401999,57.5194124],[14.8399928,57.5191785],[14.8396404,57.5192157],[14.8391705,57.519343],[14.8390943,57.5194868],[14.8391469,57.5196939],[14.8390728,57.5199189],[14.8390819,57.5203804],[14.8387747,57.5206565],[14.8385557,57.5210812],[14.8381142,57.5213056],[14.837301,57.5214108],[14.8363252,57.5213169],[14.8357002,57.521127],[14.8356766,57.520983],[14.8358848,57.5208407],[14.8360553,57.5206379],[14.8361015,57.520115],[14.8359572,57.5196579],[14.8355527,57.5194121],[14.8345946,57.5192373],[14.833011,57.5189218],[14.8313347,57.518437],[14.8307274,57.5181564],[14.8298551,57.5180633],[14.8296732,57.5182075],[14.8292221,57.5181434],[14.8286524,57.5182302],[14.8281696,57.5185064],[14.828226,57.5186971],[14.8284883,57.5189884],[14.82858,57.5193367],[14.8283402,57.5199405],[14.8278247,57.5203167],[14.8273824,57.5204233],[14.8271096,57.5206212],[14.8269643,57.5208686],[14.8260834,57.5213353],[14.8258157,57.5215803],[14.825459,57.5219068],[14.8253775,57.5226304],[14.8254016,57.5234902],[14.8256215,57.5236381],[14.8262162,57.5237141],[14.8268445,57.5241113],[14.8276524,57.5244836],[14.8282879,57.5246257],[14.8289371,57.5247722],[14.8289633,57.5250515],[14.8287862,57.5252135],[14.828683,57.5256007],[14.8289545,57.5256911],[14.8292812,57.5256666],[14.8294893,57.5258579],[14.8296593,57.5262032],[14.8300805,57.5263763],[14.8304635,57.5265143],[14.8312724,57.5267738],[14.831863,57.5277133],[14.8318019,57.5282547],[14.8314559,57.5288714],[14.8310053,57.5293492],[14.8309924,57.5296305],[14.8312923,57.5300049],[14.831818,57.5313357],[14.831851,57.5320045],[14.8321956,57.5328165],[14.8327112,57.5336807],[14.8336537,57.5345673],[14.8349116,57.5351726],[14.8358,57.535322],[14.8366792,57.535316],[14.8378674,57.5351939],[14.8383009,57.5349307],[14.8386179,57.5345031],[14.8385847,57.5341051],[14.8385031,57.5337267],[14.8386979,57.5335652],[14.8389768,57.5335393],[14.8395175,57.5336032],[14.8398877,57.5335597],[14.8401866,57.533459],[14.8404563,57.5334497],[14.8406355,57.5334892],[14.8411118,57.5334045],[14.8412175,57.5334785],[14.8412889,57.533607],[14.8414723,57.5336147],[14.8417228,57.5335194],[14.8424744,57.5334273],[14.8427753,57.5336548],[14.8428596,57.5337435],[14.8425152,57.5337783],[14.8422266,57.5338817],[14.8420731,57.5340179],[14.8422233,57.5341057],[14.8421391,57.5342382],[14.8416519,57.534201],[14.8414659,57.5343084],[14.8412717,57.5342557],[14.8412368,57.5340622],[14.8410764,57.5340337],[14.8408184,57.5341408],[14.8407573,57.5344115],[14.8403581,57.5347052],[14.839973,57.534838],[14.8401318,57.5351254],[14.840039,57.5354027],[14.8400996,57.5355907],[14.8405212,57.5358092],[14.8407632,57.5360877],[14.8407122,57.5362311],[14.8405218,57.5364154],[14.8406934,57.5366256],[14.8405915,57.5369118],[14.8403522,57.537111],[14.8403796,57.5372354],[14.8406049,57.5372443],[14.8406811,57.5373831],[14.8405539,57.5375219],[14.8403056,57.5375389],[14.8402981,57.5373428],[14.8401259,57.5373506],[14.8397166,57.5380914],[14.83925,57.5385],[14.8388153,57.5387194],[14.8388588,57.5388634],[14.83859,57.5390246],[14.8383025,57.5390379],[14.838097,57.5389843],[14.8380327,57.5388003],[14.8375499,57.5386042],[14.8370864,57.5382233],[14.8371933,57.5380697],[14.8369855,57.537936],[14.836595,57.5379711],[14.8364545,57.5381093],[14.8365966,57.5382605],[14.8362946,57.538386],[14.8358429,57.538299],[14.8354932,57.5381363],[14.8350388,57.538276],[14.8346595,57.5385893],[14.8342765,57.5387419],[14.8339744,57.5387384],[14.8337197,57.5388291],[14.83325,57.53925],[14.8325298,57.5394398],[14.83225,57.53975],[14.8322171,57.5401115],[14.8324617,57.5402681],[14.8328185,57.5403375],[14.8330518,57.5406816],[14.8332766,57.542145],[14.8343623,57.5434647],[14.834696,57.5436719],[14.8347153,57.5440338],[14.8342674,57.544305],[14.8340201,57.5446156],[14.8329488,57.5451182],[14.831649,57.5459571],[14.8314446,57.5462694],[14.8311313,57.5463829],[14.8308177,57.5463692],[14.8306925,57.5464401],[14.830309,57.5465507],[14.8301035,57.5469186],[14.8304656,57.5472695],[14.8310949,57.5473947],[14.8317552,57.5474019],[14.8319988,57.547268],[14.8324719,57.5472188],[14.8326259,57.5473219],[14.8325143,57.5479079],[14.8325272,57.5481733],[14.8329113,57.5483803],[14.8330084,57.548513],[14.833224,57.548709],[14.833503,57.548787],[14.8335142,57.5489096],[14.833386,57.5489563],[14.8331838,57.5488593],[14.8329833,57.5488826],[14.8328276,57.5490944],[14.8329574,57.5493365],[14.8331409,57.5495904],[14.8330641,57.5498316],[14.8326972,57.5497668],[14.8323855,57.5499461],[14.8318534,57.5501255],[14.8311448,57.5500967],[14.8305402,57.5499841],[14.8298686,57.5500624],[14.829198,57.5497985],[14.8288059,57.5498146],[14.8284089,57.5499525],[14.8280527,57.5499746],[14.8276997,57.5498952],[14.8277437,57.5497398],[14.8274074,57.5496111],[14.8271,57.5497222],[14.8271086,57.5499343],[14.8273999,57.5501312],[14.8273333,57.5505569],[14.8270549,57.5507005],[14.8268039,57.5511884],[14.826894,57.551368],[14.8271075,57.5516734],[14.8271434,57.5519676],[14.8271601,57.5522885],[14.8272604,57.5524741],[14.8275576,57.5525936],[14.8274084,57.5526434],[14.8274862,57.5527959],[14.8276434,57.5528065],[14.8279036,57.5526523],[14.828248,57.5525029],[14.8285784,57.5524212],[14.8290312,57.5524738],[14.8293096,57.5526523],[14.8296867,57.5527677],[14.8300874,57.5527608],[14.8302441,57.5528828],[14.8301352,57.5530895],[14.8301255,57.5534639],[14.8300381,57.5539183],[14.8297162,57.5542634],[14.8288477,57.5544479],[14.8281895,57.5542295],[14.8277453,57.5540044],[14.8273017,57.5540332],[14.8270034,57.5541549],[14.8269718,57.5544542],[14.8265625,57.5550796],[14.8263474,57.555305],[14.8267025,57.5556336],[14.8266263,57.5558351],[14.8269353,57.5561338],[14.8274122,57.5561122],[14.8277365,57.5562365],[14.828,57.5565],[14.8277673,57.5567056],[14.8272319,57.5567324],[14.826909,57.5566681],[14.8263795,57.5567497],[14.8260668,57.5568933],[14.8257771,57.5572559],[14.8258721,57.5574487],[14.8261151,57.5574938],[14.8262996,57.5576539],[14.826144,57.5578326],[14.8258753,57.5580049],[14.8259279,57.558177],[14.8261387,57.5584234],[14.8261805,57.5586403],[14.8264954,57.5587641],[14.8265544,57.5591102],[14.8270023,57.5591908],[14.8271869,57.5590674],[14.8274385,57.5590216],[14.827637,57.5591163],[14.8273682,57.5593528],[14.8269546,57.5595056],[14.826658,57.5595358],[14.8261977,57.5595586],[14.8260319,57.5597646],[14.8258667,57.5603939],[14.8259574,57.560663],[14.8259397,57.5610376],[14.8256484,57.5612557],[14.8254005,57.5615446],[14.8255073,57.5617918],[14.8258066,57.5619814],[14.8258286,57.5622102],[14.8249741,57.5631448],[14.8243309,57.5634607],[14.8240396,57.5638411],[14.8230847,57.5643751],[14.8225198,57.5644743],[14.8219121,57.5643638],[14.8214974,57.5645598],[14.82025,57.56575],[14.8198156,57.5662579],[14.819762,57.5664325],[14.8202528,57.5671201],[14.8204803,57.5675062],[14.8200608,57.568001],[14.8192636,57.5683912],[14.819,57.56875],[14.8188672,57.5691184],[14.8188806,57.5693874],[14.8187953,57.5696178],[14.8186634,57.5698871]]]}},{"type":"Feature","properties":{"kind":"lake-islands-focus-mask"},"geometry":{"type":"MultiPolygon","coordinates":[[[[14.8193655,57.5691094],[14.8194674,57.5690691],[14.8196391,57.5690892],[14.8196981,57.5691496],[14.8196284,57.5691899],[14.8195747,57.5692014],[14.819403,57.5691612],[14.8193655,57.5691094]]],[[[14.819387,57.5709649],[14.8194191,57.5709304],[14.8195103,57.5709102],[14.8196015,57.5709189],[14.8195586,57.5709764],[14.8194245,57.5709879],[14.819387,57.5709649]]],[[[14.8196766,57.570985],[14.8198912,57.5709793],[14.8199717,57.5710339],[14.8201702,57.5710138],[14.8201809,57.5710397],[14.8198698,57.5711116],[14.8196981,57.5711087],[14.8196766,57.5710656],[14.8196766,57.570985]]],[[[14.822552,57.5707952],[14.8225788,57.5706916],[14.8226646,57.5706024],[14.8227236,57.5705909],[14.8227397,57.5705506],[14.8228255,57.570542],[14.822906,57.5705046],[14.8228953,57.5704528],[14.8229382,57.5703521],[14.8230884,57.5702831],[14.8234585,57.5701853],[14.8237536,57.5701479],[14.8239521,57.5701652],[14.8241076,57.5703176],[14.8241988,57.5703263],[14.8242203,57.5703982],[14.8241935,57.57045],[14.8241023,57.5704874],[14.8240433,57.5704672],[14.8240325,57.5704212],[14.8239682,57.5703924],[14.8238341,57.5704183],[14.8237321,57.5705247],[14.823598,57.5707031],[14.8235927,57.5708297],[14.8234532,57.5710282],[14.823303,57.5711145],[14.8232601,57.5711663],[14.8232976,57.5711835],[14.8232976,57.5712439],[14.8232118,57.5712957],[14.8230777,57.5713187],[14.8229328,57.5713043],[14.8228953,57.5711663],[14.8229436,57.5710972],[14.8229114,57.5709821],[14.8228792,57.5709246],[14.8227773,57.570893],[14.8226163,57.5708786],[14.822552,57.5707952]]],[[[14.8241345,57.5761426],[14.8241935,57.5761454],[14.8242418,57.576203],[14.8242042,57.5761972],[14.8241398,57.5761742],[14.8241345,57.5761426]]],[[[14.8243598,57.5681945],[14.8243705,57.5680536],[14.8245207,57.5679931],[14.8248748,57.5678809],[14.8250625,57.5678924],[14.8253629,57.5680651],[14.8255775,57.5682377],[14.8258672,57.5683326],[14.8259369,57.5684218],[14.8259584,57.5685426],[14.8258618,57.5685772],[14.8255399,57.5686347],[14.8251913,57.5686232],[14.8248587,57.5685484],[14.8246334,57.5684506],[14.8244671,57.5683355],[14.8243598,57.5681945]]],[[[14.8247675,57.5731655],[14.8248157,57.5731338],[14.8248908,57.5731454],[14.8248855,57.5732],[14.8247943,57.5731885],[14.8247675,57.5731655]]],[[[14.8248561,57.5733064],[14.8248642,57.5732704],[14.824899,57.5732575],[14.8249044,57.5732891],[14.8248803,57.5733193],[14.8248561,57.5733064]]],[[[14.8251162,57.5664281],[14.8252932,57.5662036],[14.8253468,57.5661893],[14.8254112,57.5662152],[14.825438,57.5662669],[14.8254809,57.5663302],[14.8254541,57.5663849],[14.8253514,57.5664053],[14.8252985,57.5664655],[14.825202,57.5664827],[14.8251269,57.5664798],[14.8251162,57.5664281]]],[[[14.8251215,57.565142],[14.8252556,57.5650499],[14.8253629,57.5649895],[14.8254273,57.5650154],[14.8255024,57.5650068],[14.8256043,57.5649953],[14.8257384,57.5650355],[14.825776,57.5651046],[14.8257867,57.5651506],[14.8256633,57.5652197],[14.8255936,57.5652772],[14.8254327,57.5652772],[14.8253575,57.5653117],[14.825202,57.5653204],[14.8251966,57.5652686],[14.8251376,57.5652312],[14.8251215,57.565142]]],[[[14.8255346,57.5646442],[14.8255775,57.5645263],[14.8264465,57.5639997],[14.8265753,57.563971],[14.8266933,57.5639652],[14.8268703,57.5639019],[14.8269401,57.5638041],[14.8270688,57.5637149],[14.8271707,57.5636976],[14.827337,57.5637379],[14.8275355,57.5638386],[14.8275838,57.5639221],[14.8275516,57.5640314],[14.8274711,57.5641925],[14.8274443,57.5643134],[14.8275301,57.5644802],[14.8275731,57.5646385],[14.827514,57.5647248],[14.8273477,57.5649147],[14.8271278,57.5649809],[14.8269132,57.5650327],[14.8267094,57.5650096],[14.8263231,57.5649809],[14.8259101,57.5648715],[14.8256419,57.5647823],[14.8255829,57.5647334],[14.8255346,57.5646442]]],[[[14.8275516,57.5573585],[14.8277179,57.5571311],[14.8278413,57.5570246],[14.8280183,57.5569843],[14.8281524,57.5569325],[14.8282543,57.5568807],[14.8284957,57.5568664],[14.8288498,57.5569642],[14.8290858,57.5570736],[14.8293326,57.557275],[14.8294452,57.5574448],[14.8293648,57.5576232],[14.829118,57.5577441],[14.828764,57.5579052],[14.8284904,57.5579426],[14.828029,57.5579542],[14.8277447,57.5578765],[14.8276267,57.5577124],[14.8275784,57.5575541],[14.8275516,57.5573585]]],[[[14.8279056,57.5620432],[14.8280076,57.5620058],[14.828088,57.5619367],[14.82819,57.5618964],[14.828426,57.5618705],[14.8286942,57.5619022],[14.8288122,57.561977],[14.8287908,57.5620576],[14.8286567,57.5621266],[14.828485,57.5621554],[14.8283187,57.5621669],[14.8282275,57.5621928],[14.8281256,57.5621324],[14.8280344,57.5620921],[14.8279164,57.5620834],[14.8279056,57.5620432]]],[[[14.8282302,57.5594258],[14.8283115,57.5593301],[14.8285167,57.559278],[14.8287095,57.5592435],[14.8288605,57.5592779],[14.8290665,57.5592646],[14.8292038,57.5591714],[14.8293519,57.5590916],[14.8294643,57.5590956],[14.8296697,57.5592501],[14.8297899,57.5593904],[14.8297438,57.55946],[14.8298366,57.55956],[14.8300233,57.5595629],[14.8301796,57.5596543],[14.8301649,57.5598312],[14.8302343,57.5598958],[14.8304242,57.559954],[14.8305573,57.5599443],[14.8312252,57.5599456],[14.8314649,57.5600042],[14.8316251,57.5600763],[14.8316701,57.5601846],[14.8317629,57.5602653],[14.8317729,57.5603427],[14.8316328,57.5604322],[14.8313847,57.5604974],[14.8309942,57.5606311],[14.8308432,57.5606627],[14.8307212,57.5607428],[14.8305447,57.5609412],[14.8304205,57.5610361],[14.830259,57.5610774],[14.8299959,57.5610673],[14.8297341,57.5613326],[14.8295708,57.5614121],[14.8293237,57.5613773],[14.8291242,57.5613527],[14.8289504,57.5613986],[14.8286652,57.5613191],[14.8285011,57.5612254],[14.828441,57.5611228],[14.8287787,57.5609532],[14.8289986,57.5609213],[14.8293591,57.5605931],[14.829659,57.5605701],[14.8300369,57.5603214],[14.8300839,57.560241],[14.8299042,57.5601042],[14.8297057,57.5600986],[14.8291735,57.5602049],[14.8288911,57.5601991],[14.8286438,57.5602247],[14.8285094,57.5602108],[14.8283962,57.560136],[14.8283568,57.559734],[14.828452,57.5595572],[14.8283745,57.5594659],[14.8282302,57.5594258]]],[[[14.8296142,57.5572212],[14.8298175,57.5568618],[14.82999,57.5567531],[14.8299862,57.5565846],[14.8301397,57.5564869],[14.830115,57.5564168],[14.8302268,57.5562301],[14.8306673,57.5561314],[14.830763,57.5560817],[14.8310084,57.5561095],[14.8312718,57.5561155],[14.8317471,57.5561365],[14.8319496,57.5562247],[14.8323278,57.5562645],[14.8327918,57.5562335],[14.8330922,57.5562912],[14.8331832,57.5563776],[14.8329906,57.5565594],[14.832765,57.5566075],[14.8327755,57.5567087],[14.8324426,57.5569875],[14.8320577,57.557157],[14.8316224,57.5572667],[14.831134,57.5573097],[14.8309773,57.557341],[14.8309137,57.5574222],[14.8305838,57.5574691],[14.8303824,57.5574373],[14.8302381,57.5574796],[14.8301654,57.5575754],[14.8300047,57.5576162],[14.8298629,57.5575802],[14.8297306,57.5574303],[14.8296142,57.5572212]]],[[[14.8311779,57.526032],[14.8312316,57.5259744],[14.8312906,57.5258621],[14.8313603,57.5258477],[14.8313657,57.5257872],[14.8314462,57.5257468],[14.8315588,57.5257209],[14.8316661,57.525718],[14.8317734,57.5257238],[14.83187,57.5257728],[14.8318646,57.5258275],[14.8319343,57.5259629],[14.831988,57.5260118],[14.8319665,57.5260522],[14.831827,57.5260954],[14.8315588,57.5261328],[14.8313442,57.5261242],[14.8311994,57.5260954],[14.8311779,57.526032]]],[[[14.8316983,57.5191937],[14.8317519,57.5191648],[14.8318217,57.5191677],[14.8318914,57.5191994],[14.8318753,57.5192455],[14.8317949,57.5192541],[14.8317197,57.5192369],[14.8316983,57.5191937]]],[[[14.833195,57.5480247],[14.8332915,57.5479325],[14.8335168,57.5478404],[14.8336778,57.547731],[14.8338387,57.5476562],[14.8339245,57.5476102],[14.8340855,57.5476044],[14.8340962,57.547662],[14.8340533,57.5477598],[14.8340533,57.5478289],[14.8338065,57.5480592],[14.833667,57.5481686],[14.8335276,57.5482031],[14.8333774,57.5481916],[14.833195,57.5481398],[14.833195,57.5480247]]],[[[14.8339728,57.5458945],[14.8339835,57.545811],[14.8341069,57.5457506],[14.8343912,57.5457016],[14.8344932,57.5456325],[14.8347185,57.5456038],[14.8349062,57.5455865],[14.8352174,57.5456095],[14.8353193,57.5456642],[14.8353568,57.5458139],[14.8352227,57.5459003],[14.8350725,57.545955],[14.8348472,57.5459953],[14.8346863,57.5460269],[14.8345468,57.5459866],[14.8343805,57.5459809],[14.8341981,57.546001],[14.8340533,57.5459866],[14.8339728,57.5458945]]],[[[14.8358074,57.5447718],[14.8358182,57.5447315],[14.8358825,57.5447056],[14.8359308,57.5446682],[14.836022,57.5446394],[14.8361132,57.5446653],[14.8361132,57.5447113],[14.8360542,57.5447545],[14.8360488,57.544792],[14.8359845,57.5448323],[14.8359147,57.5448438],[14.8358396,57.5448179],[14.8358074,57.5447718]]],[[[14.8358128,57.5519507],[14.8358557,57.5518529],[14.8360059,57.5517896],[14.8362205,57.5515363],[14.8364351,57.551306],[14.8365314,57.5512405],[14.8366405,57.5512234],[14.83675,57.5512663],[14.8369501,57.5514384],[14.8369501,57.5515075],[14.8370788,57.551519],[14.837229,57.5515996],[14.8373685,57.551755],[14.8373899,57.5519277],[14.8373352,57.55204],[14.8372397,57.5520889],[14.8370788,57.5521234],[14.8371539,57.5521925],[14.8370252,57.552227],[14.8368857,57.5522155],[14.8367331,57.5522881],[14.8364565,57.5523019],[14.8360381,57.5523019],[14.8359737,57.5522558],[14.8359737,57.5521867],[14.8360488,57.5521407],[14.8360381,57.5520831],[14.8359308,57.5520256],[14.8358128,57.5519968],[14.8358128,57.5519507]]],[[[14.8369608,57.5535913],[14.8370466,57.5535107],[14.8372505,57.5535164],[14.8375401,57.553597],[14.8376903,57.5536603],[14.8379693,57.5538963],[14.8379693,57.5539827],[14.8379157,57.554092],[14.8377547,57.5541899],[14.8376903,57.5542417],[14.8375401,57.5542187],[14.837508,57.5541093],[14.8374758,57.5539884],[14.8373792,57.5538791],[14.8372075,57.5538042],[14.8370681,57.5537179],[14.8369608,57.5536546],[14.8369608,57.5535913]]],[[[14.8369662,57.5464443],[14.836993,57.5463752],[14.8370413,57.5463292],[14.8372236,57.5462716],[14.8372344,57.5462255],[14.8373417,57.5461939],[14.837465,57.5461565],[14.837626,57.5461075],[14.8376313,57.5460615],[14.8376635,57.5459809],[14.8377547,57.5459118],[14.8378352,57.5458398],[14.8379425,57.5457851],[14.8380176,57.5457506],[14.838039,57.5457218],[14.8381062,57.5456958],[14.8381625,57.5457102],[14.8381624,57.5459089],[14.8381785,57.5460154],[14.8380659,57.5460845],[14.8379854,57.5461593],[14.8378781,57.5461651],[14.8377386,57.5461363],[14.8376367,57.5461449],[14.837508,57.5461766],[14.8374758,57.5462745],[14.8373417,57.5464299],[14.8372022,57.5465134],[14.8371003,57.5465134],[14.8370091,57.5464961],[14.8369662,57.5464443]]],[[[14.8370466,57.5453303],[14.8371324,57.5452122],[14.8371164,57.5451518],[14.8370788,57.545028],[14.8371485,57.5449157],[14.8372397,57.5448812],[14.8373738,57.5448754],[14.837567,57.5448063],[14.8376796,57.5448035],[14.8378137,57.5448265],[14.8381034,57.5450971],[14.8382,57.5453735],[14.838259,57.5454195],[14.838259,57.5455577],[14.8381517,57.5456498],[14.8380578,57.5456642],[14.8379371,57.5456383],[14.8378191,57.5456268],[14.8377279,57.5456613],[14.8375401,57.5456959],[14.8373685,57.5456671],[14.8371915,57.5455922],[14.8371003,57.5454685],[14.8370466,57.5453303]]],[[[14.8371539,57.5419678],[14.8371593,57.54189],[14.8372344,57.5418411],[14.8372558,57.5417922],[14.8372719,57.5417288],[14.8373578,57.5416741],[14.837567,57.5415705],[14.8376367,57.5414668],[14.837862,57.5413344],[14.8380659,57.5412855],[14.8382375,57.5412826],[14.838377,57.5413459],[14.8384306,57.5414352],[14.8383126,57.5415302],[14.838259,57.5416252],[14.838141,57.5417634],[14.837921,57.5418497],[14.8377601,57.5419419],[14.8377494,57.5419994],[14.8376045,57.5420484],[14.837347,57.5420801],[14.8372022,57.5420311],[14.8371539,57.5419678]]],[[[14.8373524,57.5526329],[14.8373738,57.5526041],[14.8374436,57.5525983],[14.8374704,57.5526242],[14.8374168,57.5526501],[14.8373524,57.5526329]]],[[[14.8375812,57.5437789],[14.8376976,57.54355],[14.8379733,57.5434047],[14.8381391,57.5433099],[14.8381833,57.5431857],[14.8383357,57.5429486],[14.8384652,57.5427008],[14.8385771,57.5425516],[14.8387359,57.542443],[14.8390583,57.5424396],[14.8392492,57.5425551],[14.8392165,57.5426272],[14.8393466,57.5427146],[14.8396044,57.5427454],[14.8400158,57.5426998],[14.8401397,57.5425986],[14.8401405,57.5424719],[14.8403514,57.5423959],[14.8407784,57.5423291],[14.8409664,57.5423543],[14.8411287,57.5425696],[14.8413006,57.5428849],[14.8414114,57.5431474],[14.8412668,57.543264],[14.8408382,57.5435168],[14.8406016,57.5435575],[14.8404023,57.5435925],[14.8403304,57.5436548],[14.8404654,57.5437798],[14.8403661,57.5438042],[14.8402497,57.544022],[14.8400172,57.544153],[14.8397312,57.5442425],[14.8392417,57.5442771],[14.8387823,57.5443182],[14.8382085,57.5442199],[14.838038,57.5441216],[14.8377834,57.5441343],[14.8376756,57.5440979],[14.8375812,57.5437789]]],[[[14.8376367,57.5501777],[14.8377225,57.5500626],[14.8377225,57.5499532],[14.8377011,57.5498266],[14.8378191,57.5496769],[14.8380444,57.5495733],[14.8383448,57.5495215],[14.8385487,57.5495387],[14.838731,57.5495905],[14.8388276,57.549556],[14.8390422,57.5495445],[14.8391602,57.5495733],[14.8392675,57.5495042],[14.839407,57.5494178],[14.8392782,57.5493775],[14.8394284,57.5492509],[14.8394606,57.5491818],[14.8395786,57.54913],[14.8396645,57.5491703],[14.8397288,57.5492854],[14.8398361,57.5494869],[14.8399541,57.5495502],[14.8402331,57.549602],[14.8403726,57.5496078],[14.8405013,57.5497057],[14.8406837,57.549815],[14.8407159,57.5500223],[14.8407695,57.5502007],[14.8406944,57.5503734],[14.8404906,57.5505404],[14.8401794,57.5506382],[14.839643,57.5507476],[14.8391817,57.5508397],[14.8388383,57.5508628],[14.8386452,57.550834],[14.8385487,57.5507419],[14.8385165,57.5506267],[14.8385594,57.5504656],[14.8387418,57.5503504],[14.8390422,57.5502007],[14.8390529,57.5501029],[14.8390207,57.5499532],[14.8389242,57.5498611],[14.8387954,57.5498208],[14.838613,57.5498093],[14.8384628,57.5498899],[14.8380551,57.5501432],[14.8378513,57.5501892],[14.8376367,57.5501777]]],[[[14.8377362,57.5295894],[14.837795,57.5294991],[14.8380007,57.5293617],[14.8380084,57.5293084],[14.8379323,57.5292085],[14.8379089,57.5291052],[14.8380506,57.5289663],[14.838182,57.5289268],[14.8382694,57.5287451],[14.8382732,57.5284098],[14.838333,57.5281551],[14.838314,57.5279811],[14.8384827,57.5277746],[14.838602,57.5276564],[14.8388472,57.5276116],[14.839095,57.5276452],[14.8392104,57.5275765],[14.8392095,57.5274944],[14.839069,57.527431],[14.8389529,57.5273068],[14.8389794,57.5271882],[14.8392238,57.527141],[14.8393525,57.5272047],[14.8394131,57.5273494],[14.8395239,57.5275242],[14.8396814,57.5276391],[14.8399531,57.5277026],[14.8401135,57.5277898],[14.84011,57.5279186],[14.839967,57.5280121],[14.8398278,57.5280523],[14.8397725,57.5281459],[14.8397685,57.5282153],[14.8397224,57.5282951],[14.8397447,57.5285975],[14.8398613,57.5287215],[14.8399112,57.5288401],[14.8398895,57.5289537],[14.8398184,57.529024],[14.8398345,57.5291261],[14.8398973,57.529188],[14.8399254,57.5293325],[14.8398629,57.5295709],[14.8397275,57.5296553],[14.8397087,57.5297868],[14.8397422,57.5298722],[14.8397001,57.5299462],[14.839353,57.5300441],[14.8390939,57.530033],[14.8389491,57.5300847],[14.838731,57.5301063],[14.8385382,57.5301096],[14.8383711,57.5301364],[14.8382134,57.5300474],[14.8377362,57.5295894]]],[[[14.8380712,57.558006],[14.8382161,57.5578592],[14.8383877,57.5577268],[14.8385326,57.5576693],[14.8386291,57.5576462],[14.8386667,57.5575973],[14.8386881,57.5574995],[14.8387096,57.55737],[14.8387418,57.5573268],[14.8388061,57.5573009],[14.8388812,57.5572779],[14.8389456,57.5572894],[14.838951,57.5573297],[14.8389081,57.5573441],[14.8389188,57.5574563],[14.838892,57.55758],[14.8389456,57.5576175],[14.8390529,57.5576462],[14.839069,57.5576808],[14.8391709,57.5576894],[14.8392729,57.5577268],[14.8393211,57.557793],[14.8392621,57.5578707],[14.8390261,57.5580002],[14.838892,57.5580175],[14.8387418,57.5580347],[14.8386023,57.5580117],[14.8384628,57.5579887],[14.8383126,57.5579916],[14.8381356,57.5580232],[14.8380712,57.558006]]],[[[14.8384603,57.5461521],[14.838471,57.5461204],[14.8385568,57.546119],[14.838581,57.5460974],[14.838648,57.5460931],[14.8387017,57.5461046],[14.8386534,57.5461247],[14.8386024,57.5461449],[14.8385837,57.5461693],[14.8385059,57.5461765],[14.8384603,57.5461521]]],[[[14.8391387,57.5065794],[14.8392246,57.5064814],[14.839364,57.506418],[14.8395357,57.5063892],[14.8396323,57.5064411],[14.8396108,57.5065275],[14.8394499,57.5065563],[14.8392997,57.5066255],[14.8391924,57.5066313],[14.8391387,57.5065794]]],[[[14.8391764,57.5458081],[14.8392032,57.5457908],[14.8392435,57.5457937],[14.8392649,57.5458081],[14.8392274,57.5458167],[14.8391764,57.5458081]]],[[[14.8393962,57.558406],[14.8394284,57.5583801],[14.839643,57.5583743],[14.8398468,57.5583973],[14.8399756,57.5584232],[14.8401043,57.5585067],[14.840099,57.5585556],[14.8400239,57.5585671],[14.8398307,57.5585585],[14.8397227,57.558599],[14.8396269,57.5585959],[14.8394874,57.5585297],[14.8393962,57.558406]]],[[[14.8400185,57.5095533],[14.8400668,57.5095245],[14.8401312,57.5095216],[14.8401312,57.5095706],[14.8400775,57.5095936],[14.8400292,57.5096051],[14.8400185,57.5095533]]],[[[14.8401089,57.5251338],[14.8401625,57.5250963],[14.8402331,57.5250613],[14.8402886,57.5250544],[14.8403082,57.525093],[14.8402545,57.5251391],[14.840181,57.5251724],[14.8401089,57.5251338]]],[[[14.840335,57.5290014],[14.8403726,57.5289265],[14.8404369,57.5289035],[14.8404906,57.5289092],[14.840453,57.5290273],[14.8404477,57.5291252],[14.8403886,57.5291281],[14.8403457,57.529059],[14.840335,57.5290014]]],[[[14.8407105,57.5310433],[14.8407427,57.5309943],[14.8407963,57.5309943],[14.8408017,57.5310404],[14.8407266,57.5310721],[14.8407105,57.5310433]]],[[[14.8407481,57.5455778],[14.8407534,57.5455289],[14.840791,57.5454857],[14.8408607,57.5454656],[14.8408822,57.5454253],[14.8409519,57.5453994],[14.8409841,57.5453677],[14.8410914,57.5453447],[14.8411289,57.5453763],[14.8410592,57.5454397],[14.8410324,57.5455203],[14.8409787,57.5455865],[14.8408393,57.5456095],[14.8407481,57.5455778]]],[[[14.840767,57.5457447],[14.8407858,57.5457332],[14.8408126,57.5457332],[14.8408099,57.5457534],[14.8407831,57.5457548],[14.840767,57.5457447]]],[[[14.8412309,57.5272762],[14.8413113,57.5272273],[14.841424,57.5272014],[14.8414669,57.5271553],[14.8415366,57.5270833],[14.8416547,57.5270113],[14.8416654,57.5269565],[14.8417834,57.5268615],[14.8420409,57.5267088],[14.8422018,57.526657],[14.8423842,57.526657],[14.8425022,57.5265792],[14.842631,57.5266196],[14.8427812,57.5266368],[14.8429582,57.5266224],[14.843146,57.5267117],[14.8430387,57.5267348],[14.8429475,57.5267808],[14.8429421,57.5268356],[14.8428456,57.5269335],[14.8428456,57.5270055],[14.8429046,57.527089],[14.8428456,57.5271322],[14.8427007,57.5271697],[14.8425881,57.5271524],[14.8424969,57.5271121],[14.842352,57.5270861],[14.8422286,57.5270977],[14.8420731,57.5271553],[14.8417512,57.5272878],[14.8415688,57.5273569],[14.8415152,57.5274058],[14.8414079,57.5274145],[14.841306,57.5273742],[14.8412416,57.5273166],[14.8412309,57.5272762]]],[[[14.8412712,57.5245644],[14.8413007,57.5244794],[14.8414134,57.524393],[14.8414939,57.5243541],[14.8415609,57.5243383],[14.8416977,57.5243239],[14.8417701,57.5243325],[14.841813,57.5243628],[14.841872,57.524455],[14.8419471,57.5244766],[14.8420196,57.5244866],[14.8420544,57.5245241],[14.8420518,57.524573],[14.8419954,57.5246551],[14.8419954,57.5247271],[14.8419364,57.5247862],[14.8417755,57.5248164],[14.8416494,57.5248092],[14.8415287,57.5247704],[14.8414724,57.5247271],[14.8413276,57.524635],[14.8412712,57.5245644]]],[[[14.8416278,57.5289956],[14.8416976,57.5289496],[14.8418156,57.5289467],[14.8419551,57.5289784],[14.8420087,57.52901],[14.8419336,57.5290561],[14.841837,57.5290849],[14.8417137,57.5291137],[14.84166,57.5290936],[14.8416278,57.5290388],[14.8416278,57.5289956]]],[[[14.8419604,57.506931],[14.8420677,57.5067696],[14.842057,57.506637],[14.842057,57.5064757],[14.8421535,57.5063661],[14.8423252,57.50632],[14.8427114,57.5064353],[14.8429046,57.5065621],[14.8429153,57.5066774],[14.8428402,57.5067235],[14.8426793,57.5067004],[14.8424861,57.5068157],[14.8424325,57.506931],[14.842454,57.507052],[14.8425827,57.5071673],[14.8425505,57.5073229],[14.8424647,57.5074266],[14.8424432,57.5075246],[14.8423037,57.5075592],[14.842175,57.5075246],[14.842057,57.5073459],[14.8419604,57.5071788],[14.8419604,57.506931]]],[[[14.8424003,57.5275326],[14.842411,57.5274778],[14.8424808,57.5274375],[14.842572,57.5274318],[14.8426793,57.5274894],[14.8426793,57.5275931],[14.8426042,57.5276823],[14.8424808,57.5276852],[14.8424379,57.5276391],[14.842411,57.5275873],[14.8424003,57.5275326]]],[[[14.8427651,57.551755],[14.8427973,57.5516802],[14.8429797,57.5516053],[14.8430494,57.5515017],[14.843441,57.5513262],[14.8438809,57.5512484],[14.8441652,57.5512283],[14.8445193,57.5512024],[14.8448518,57.5511506],[14.8450718,57.5510585],[14.8453346,57.5509923],[14.8456941,57.5509549],[14.8458979,57.5509865],[14.8460267,57.550975],[14.8461393,57.5509405],[14.846209,57.5510038],[14.8462198,57.5510412],[14.8462788,57.5510642],[14.8463592,57.5510642],[14.8463807,57.551116],[14.8464826,57.5511535],[14.8464558,57.5511794],[14.8463539,57.5511938],[14.8462359,57.551188],[14.8460857,57.551211],[14.8459569,57.5513722],[14.8459516,57.5515363],[14.8458443,57.5516802],[14.8453722,57.55185],[14.8451415,57.5518644],[14.8448787,57.5519191],[14.8444495,57.5518932],[14.8442296,57.5518356],[14.8440794,57.5517435],[14.8439667,57.5517234],[14.8438702,57.5517636],[14.843736,57.5519018],[14.8435322,57.5520687],[14.8433874,57.5520918],[14.8432103,57.5520802],[14.843044,57.5520169],[14.8429797,57.5519594],[14.8429958,57.551896],[14.8429207,57.5518039],[14.8428241,57.5517924],[14.8427651,57.551755]]],[[[14.8429852,57.5652987],[14.8430254,57.5652484],[14.8430871,57.5652369],[14.8430898,57.5652182],[14.8431407,57.5651851],[14.8431917,57.5651764],[14.8432587,57.5652153],[14.8432668,57.565257],[14.843358,57.5652887],[14.8434304,57.5652714],[14.8434009,57.5652326],[14.8434358,57.565188],[14.8435055,57.5651995],[14.8436664,57.5653088],[14.8437362,57.5654239],[14.8437255,57.5654742],[14.8436316,57.5654498],[14.8435538,57.5654469],[14.8435377,57.5654915],[14.8435645,57.5655131],[14.8435296,57.5655591],[14.8435887,57.5655994],[14.8435779,57.5656353],[14.8434787,57.5656224],[14.8433553,57.5655505],[14.8432936,57.5655217],[14.8431836,57.5655275],[14.8431032,57.5655016],[14.8430308,57.5654598],[14.8429878,57.5653793],[14.8430227,57.5653505],[14.8429852,57.5652987]]],[[[14.8430629,57.5649866],[14.8430898,57.5649909],[14.8430924,57.5650024],[14.843071,57.5649981],[14.8430629,57.5649866]]],[[[14.8435511,57.5622618],[14.8436477,57.5621942],[14.8439347,57.5620647],[14.8441975,57.5619769],[14.8444336,57.5619366],[14.8445328,57.5619395],[14.8448064,57.5620532],[14.8448654,57.5621596],[14.8448252,57.5622402],[14.8447152,57.5623136],[14.8445596,57.5623553],[14.8443558,57.5623711],[14.8441814,57.5623308],[14.8439883,57.5623107],[14.8438864,57.5623193],[14.8438327,57.5623495],[14.8437174,57.5623495],[14.8435833,57.5623021],[14.8435511,57.5622618]]],[[[14.8439614,57.5674868],[14.8439828,57.5674408],[14.8440311,57.5674005],[14.8440955,57.567412],[14.8441759,57.5674724],[14.8441974,57.567553],[14.844133,57.5676191],[14.8440472,57.5676019],[14.8439828,57.56753],[14.8439614,57.5674868]]],[[[14.8442914,57.545359],[14.8443102,57.5453158],[14.844396,57.5452597],[14.8444201,57.5451863],[14.8444121,57.5451215],[14.8444818,57.5449704],[14.8445569,57.5449373],[14.8446803,57.5449301],[14.8447259,57.5449113],[14.8447366,57.5448739],[14.8447742,57.5448581],[14.8448198,57.5448768],[14.8448386,57.5449445],[14.8447447,57.5450812],[14.8445891,57.5452496],[14.844455,57.5453504],[14.8443397,57.5453777],[14.8442914,57.545359]]],[[[14.8443798,57.5356392],[14.8443959,57.5355931],[14.8444817,57.5355903],[14.8445407,57.5356133],[14.8445032,57.5356479],[14.8444173,57.5356651],[14.8443798,57.5356392]]],[[[14.8444041,57.5673975],[14.8444116,57.5673647],[14.8444855,57.5673355],[14.8445461,57.5672883],[14.8446695,57.5672653],[14.8448358,57.5671905],[14.844943,57.5671358],[14.8450664,57.5670984],[14.8451362,57.5670927],[14.8452113,57.5671301],[14.8452434,57.567202],[14.8451683,57.567248],[14.8451737,57.5673401],[14.8451683,57.5674206],[14.8451147,57.5675069],[14.8450289,57.5675817],[14.8449269,57.5675846],[14.8447285,57.5675041],[14.8446449,57.5674683],[14.8446036,57.5674195],[14.8444962,57.5674255],[14.8444041,57.5673975]]],[[[14.8444871,57.535167],[14.8446373,57.5350316],[14.8448089,57.5349395],[14.8451523,57.5347955],[14.8454473,57.534735],[14.8458818,57.5346688],[14.8459569,57.534689],[14.8459462,57.5347754],[14.8458282,57.5349798],[14.8457048,57.535095],[14.845517,57.5351727],[14.8452756,57.5352159],[14.8450664,57.5352131],[14.8448894,57.5351958],[14.8447499,57.5351641],[14.8445997,57.5351843],[14.8444871,57.535167]]],[[[14.8448089,57.5380953],[14.8448518,57.5380406],[14.8449269,57.5379629],[14.8450825,57.5379514],[14.8452864,57.5379543],[14.845399,57.5380003],[14.8454848,57.5380781],[14.8454634,57.5381788],[14.8453829,57.5382595],[14.8452864,57.538271],[14.8452488,57.5383055],[14.8452703,57.5383545],[14.8452365,57.5383979],[14.8451415,57.5383948],[14.8449377,57.5383372],[14.8448465,57.538271],[14.8448089,57.5380953]]],[[[14.8451415,57.5192686],[14.845222,57.5192397],[14.8453293,57.5191677],[14.8453722,57.5190727],[14.8454151,57.5189747],[14.8453078,57.5189056],[14.8454097,57.5188998],[14.8455278,57.5188681],[14.8455707,57.518822],[14.8456243,57.5187414],[14.8457477,57.5187385],[14.8458979,57.5187039],[14.8459945,57.5186722],[14.8460535,57.5186377],[14.8461393,57.5186348],[14.8462412,57.5186751],[14.846429,57.518799],[14.8464397,57.5189488],[14.8464343,57.5190611],[14.8465255,57.5191418],[14.8465041,57.5192225],[14.8465416,57.5192887],[14.8466597,57.5193031],[14.846804,57.5193579],[14.8468249,57.5194071],[14.8467938,57.5195134],[14.8467187,57.5197266],[14.8466597,57.5197784],[14.8466637,57.5198654],[14.8464343,57.5199196],[14.8463271,57.5199023],[14.8463378,57.5198332],[14.8462412,57.519741],[14.8459945,57.5196315],[14.8457477,57.5195739],[14.8455975,57.519597],[14.8454902,57.5195624],[14.8453937,57.5195221],[14.8452434,57.5195048],[14.8452381,57.5194241],[14.8452756,57.5193924],[14.8452703,57.5193175],[14.8452113,57.5192743],[14.8451415,57.5192686]]],[[[14.8452917,57.5302887],[14.8453025,57.5302455],[14.8453615,57.5302139],[14.845458,57.5302052],[14.8455546,57.5301908],[14.8457262,57.5301822],[14.8458174,57.5301591],[14.8458872,57.5301534],[14.845973,57.5301707],[14.8460267,57.5302254],[14.8460213,57.5302686],[14.8458872,57.5303147],[14.8457531,57.5303406],[14.8456565,57.5304011],[14.8455814,57.5304471],[14.8454956,57.5304558],[14.8454419,57.5304385],[14.8453776,57.5303838],[14.8453346,57.5303233],[14.8452917,57.5302887]]],[[[14.8453883,57.5422182],[14.845399,57.5421923],[14.845458,57.5421693],[14.8455117,57.5422067],[14.8455975,57.5422614],[14.845678,57.5422902],[14.845678,57.5423276],[14.8456136,57.5423766],[14.8455063,57.5423823],[14.8454473,57.5423507],[14.8454097,57.5423075],[14.8454044,57.5422672],[14.8453883,57.5422182]]],[[[14.8454044,57.5559109],[14.8454366,57.5558879],[14.845517,57.5558936],[14.8455385,57.5559282],[14.8454795,57.5559598],[14.8454366,57.5559454],[14.8454044,57.5559109]]],[[[14.8455547,57.5670437],[14.8455628,57.567025],[14.845603,57.5670163],[14.8456084,57.5670394],[14.8455789,57.5670624],[14.8455547,57.5670437]]],[[[14.845619,57.5416597],[14.8457209,57.5416137],[14.8457906,57.5415446],[14.8458228,57.5414783],[14.8458764,57.5414323],[14.8459998,57.5414064],[14.8461178,57.5414121],[14.8462359,57.5413977],[14.8463271,57.5413949],[14.8464236,57.541438],[14.8464665,57.5415273],[14.8463646,57.5416252],[14.8461769,57.5417144],[14.8459837,57.5417547],[14.8457638,57.5417547],[14.8456565,57.5417317],[14.8456243,57.5417058],[14.845619,57.5416597]]],[[[14.8456243,57.5330764],[14.8456511,57.5330562],[14.8457262,57.5330418],[14.845796,57.5330447],[14.8458443,57.5330821],[14.8458389,57.5331225],[14.8458711,57.5331599],[14.845914,57.5331714],[14.8459676,57.5331599],[14.8460052,57.5331628],[14.8460374,57.5331916],[14.8459998,57.5332319],[14.845914,57.5332578],[14.8458389,57.5332607],[14.8457853,57.5332204],[14.845635,57.5331081],[14.8456243,57.5330764]]],[[[14.8457477,57.5381932],[14.8457906,57.5381644],[14.8459569,57.5381328],[14.8461125,57.5380579],[14.8462949,57.5379859],[14.8466167,57.5379629],[14.8468313,57.5379456],[14.8468689,57.5379168],[14.8468957,57.5378736],[14.8470191,57.5378362],[14.8472551,57.5378074],[14.8474482,57.5378103],[14.8475448,57.5378276],[14.8476145,57.5378794],[14.8475984,57.5379226],[14.8474107,57.5379946],[14.8472283,57.5380291],[14.8470244,57.5380205],[14.8468742,57.5380752],[14.8467133,57.5381155],[14.8465846,57.5381875],[14.8465255,57.5382566],[14.8464343,57.538271],[14.8463914,57.5383401],[14.846311,57.5383746],[14.8460857,57.5384063],[14.8459033,57.5383314],[14.845796,57.5382479],[14.8457477,57.5381932]]],[[[14.8458013,57.5621813],[14.8458764,57.562164],[14.8459784,57.5621813],[14.8460588,57.5622417],[14.846032,57.5622762],[14.8458764,57.5622417],[14.8458013,57.5622072],[14.8458013,57.5621813]]],[[[14.8459247,57.5174133],[14.8459945,57.5174018],[14.8460642,57.5174104],[14.8460857,57.5174565],[14.8460159,57.5174853],[14.8459623,57.5174853],[14.8459247,57.5174536],[14.8459247,57.5174133]]],[[[14.8459588,57.555847],[14.8460422,57.5557613],[14.8461785,57.5556543],[14.8462077,57.5554939],[14.8462375,57.5553345],[14.8462879,57.5552496],[14.8466175,57.5550773],[14.8467109,57.5549704],[14.8471486,57.5547761],[14.8476159,57.5546465],[14.8480898,57.554631],[14.8484087,57.5547435],[14.8486582,57.5549534],[14.8486963,57.5550547],[14.8489119,57.5552307],[14.8489036,57.5553184],[14.8490511,57.5553876],[14.84902,57.5554358],[14.8491082,57.5555025],[14.8493453,57.555526],[14.84941,57.5555735],[14.8493443,57.5556254],[14.849215,57.5556505],[14.8491654,57.5557053],[14.8492394,57.5558075],[14.849535,57.5559224],[14.8497544,57.5561011],[14.8499083,57.5561817],[14.8499117,57.5562711],[14.8499358,57.5563128],[14.8498618,57.5563025],[14.8497308,57.5563267],[14.8495554,57.5562624],[14.8493,57.5562921],[14.8492032,57.5563423],[14.8483618,57.5563591],[14.8481241,57.5562928],[14.8478178,57.5562436],[14.8474584,57.5563053],[14.8469424,57.556324],[14.846734,57.556294],[14.8464649,57.5561961],[14.8463885,57.5560452],[14.8462753,57.5559525],[14.8460355,57.555906],[14.8459588,57.555847]]],[[[14.8459945,57.5618302],[14.8460106,57.5618043],[14.8461018,57.56179],[14.8462144,57.5617928],[14.8462251,57.5618216],[14.8461983,57.5618676],[14.8461339,57.5619108],[14.846032,57.5618878],[14.8459945,57.5618302]]],[[[14.8460804,57.5622905],[14.8460965,57.5622762],[14.8461314,57.5622934],[14.846118,57.5623121],[14.8460804,57.5622905]]],[[[14.846118,57.5677169],[14.8461636,57.5677039],[14.8462226,57.5677672],[14.8462575,57.5678305],[14.8462505,57.5678771],[14.8461663,57.5678564],[14.8461314,57.5678276],[14.8461314,57.5677917],[14.846118,57.5677169]]],[[[14.8464238,57.565303],[14.8464264,57.5652584],[14.8464694,57.5652153],[14.8464989,57.5652009],[14.8465337,57.5651951],[14.8465981,57.5652354],[14.8466517,57.5653045],[14.8466598,57.5653635],[14.8466115,57.5653793],[14.8465418,57.5653793],[14.8464694,57.5653505],[14.8464345,57.5653289],[14.8464238,57.565303]]],[[[14.8464987,57.5512427],[14.8465202,57.551211],[14.8466114,57.5511822],[14.846724,57.5512081],[14.8467348,57.5512484],[14.8466382,57.5512772],[14.8465792,57.5513089],[14.8465202,57.5512916],[14.8464987,57.5512427]]],[[[14.8467079,57.5046975],[14.846826,57.5046486],[14.8469922,57.5046111],[14.847062,57.5046313],[14.8470727,57.5047235],[14.8470083,57.5047782],[14.8469171,57.5047869],[14.8468206,57.504712],[14.8467079,57.5047321],[14.8467079,57.5046975]]],[[[14.8467079,57.5410897],[14.846724,57.5410638],[14.8467884,57.5410522],[14.8469386,57.5410666],[14.8469922,57.5410494],[14.8470781,57.5410091],[14.8471532,57.5410062],[14.8472283,57.5410379],[14.8472336,57.5410897],[14.8472336,57.5411588],[14.8471532,57.5412077],[14.8469976,57.5412192],[14.8468206,57.5412048],[14.8467401,57.541153],[14.8467401,57.5411242],[14.8467079,57.5410897]]],[[[14.8468313,57.5617669],[14.8469279,57.5615741],[14.8469922,57.5615367],[14.8470995,57.5615166],[14.8472444,57.5615166],[14.8474321,57.561554],[14.8477111,57.5616979],[14.8478398,57.5617267],[14.8479686,57.5618101],[14.84799,57.5619367],[14.8478827,57.5620144],[14.8478613,57.5620834],[14.8477647,57.5621036],[14.8476038,57.5620834],[14.8474911,57.5621036],[14.8472766,57.5620489],[14.8470834,57.561954],[14.8469654,57.5619079],[14.8468635,57.561836],[14.8468313,57.5617669]]],[[[14.8468796,57.5167161],[14.8469815,57.5166959],[14.847003,57.5167276],[14.846944,57.5168054],[14.8469118,57.5167968],[14.8468796,57.5167161]]],[[[14.8469118,57.5366413],[14.8469279,57.5365866],[14.8470298,57.5365376],[14.8471156,57.5364483],[14.8471961,57.5363965],[14.8474429,57.5363303],[14.847695,57.5362698],[14.8478023,57.5362324],[14.8481563,57.5361719],[14.8482583,57.5361921],[14.8483119,57.5362554],[14.8482583,57.5363418],[14.8481885,57.5363677],[14.8481241,57.5363908],[14.848108,57.536457],[14.8480008,57.5365376],[14.8479096,57.5365722],[14.8477486,57.5366067],[14.8476735,57.5366585],[14.8477164,57.536719],[14.8476789,57.5367536],[14.8475662,57.5367593],[14.8474536,57.5367449],[14.8472122,57.536791],[14.8470834,57.5367795],[14.8469547,57.5367248],[14.8469118,57.5366413]]],[[[14.8475555,57.5374475],[14.8477379,57.53722],[14.8477808,57.5370905],[14.8477808,57.5369666],[14.8477862,57.5369148],[14.8478291,57.5368198],[14.8478988,57.5367507],[14.8481027,57.5366816],[14.8483226,57.5366355],[14.8484406,57.5366269],[14.848725,57.5367017],[14.8489234,57.536742],[14.8490844,57.5367852],[14.8491327,57.5368399],[14.8490897,57.5368803],[14.8491166,57.5369321],[14.849079,57.5370012],[14.8487464,57.537174],[14.8486499,57.5371711],[14.8485426,57.5371567],[14.8484031,57.5371883],[14.8482636,57.5372603],[14.848269,57.5373122],[14.8481617,57.5373755],[14.8479364,57.5374964],[14.8477647,57.5375742],[14.8476843,57.5376318],[14.8475984,57.5376203],[14.8475609,57.5375598],[14.8475555,57.5374475]]],[[[14.8477808,57.5184734],[14.8479847,57.5184101],[14.8480812,57.518364],[14.8481456,57.5183294],[14.8482797,57.5183035],[14.8483816,57.5183352],[14.8484085,57.5184245],[14.8483655,57.5185311],[14.8482743,57.5185944],[14.8481671,57.5186348],[14.8480383,57.5186204],[14.8479096,57.518606],[14.8478184,57.5185628],[14.8477915,57.5185253],[14.8477808,57.5184734]]],[[[14.8478935,57.5379053],[14.8479417,57.5378851],[14.84799,57.5378967],[14.8479417,57.5379226],[14.8478935,57.5379255],[14.8478935,57.5379053]]],[[[14.8484675,57.5377412],[14.8484836,57.5377038],[14.8485265,57.5376894],[14.8485801,57.5377239],[14.8485533,57.5377556],[14.8484996,57.53777],[14.8484675,57.5377412]]],[[[14.8494851,57.5483932],[14.8496849,57.5480306],[14.8498933,57.5479213],[14.8500363,57.5476126],[14.8500596,57.5472824],[14.8499041,57.5471037],[14.8500111,57.5469887],[14.8501337,57.5465488],[14.8503423,57.5464397],[14.85097,57.5463338],[14.8512216,57.5462325],[14.8514439,57.5459871],[14.8515389,57.5459786],[14.8516325,57.5460039],[14.8516563,57.5460946],[14.8518009,57.5462126],[14.8519712,57.5462768],[14.8519978,57.5463633],[14.8522523,57.546531],[14.8524666,57.5466102],[14.8526675,57.5466345],[14.8529834,57.5467634],[14.8531573,57.546861],[14.8534094,57.5470008],[14.8537973,57.5470873],[14.8540204,57.5473557],[14.8542205,57.5475039],[14.8542653,57.5476247],[14.8541594,57.5478389],[14.8539848,57.5480242],[14.8536589,57.5483073],[14.8526764,57.5486527],[14.8522936,57.5488099],[14.8521147,57.5489315],[14.8518723,57.5489986],[14.8516381,57.5489976],[14.8513728,57.5488172],[14.8511062,57.5485773],[14.8508578,57.548572],[14.8505877,57.5486539],[14.8506004,57.5487971],[14.8502943,57.548918],[14.8500553,57.5489284],[14.84994,57.5489838],[14.8497364,57.5489784],[14.8495535,57.5489078],[14.8494923,57.5486841],[14.8494851,57.5483932]]],[[[14.8500274,57.5177939],[14.8500859,57.5176942],[14.8502793,57.51767],[14.8507409,57.5175462],[14.8511215,57.517356],[14.8511601,57.5172059],[14.8510354,57.5171196],[14.8509182,57.5169438],[14.851106,57.5167885],[14.851371,57.5166665],[14.8515456,57.5165179],[14.8514356,57.5162981],[14.85135,57.5159431],[14.8514294,57.515655],[14.8516421,57.515486],[14.8517199,57.5152581],[14.8516585,57.5150339],[14.8518004,57.5145217],[14.8519637,57.5143342],[14.8523478,57.5141188],[14.8528172,57.5141205],[14.8530409,57.5142503],[14.8532729,57.5142994],[14.8536908,57.5141551],[14.8538238,57.5140401],[14.8536522,57.5137484],[14.8532485,57.5135476],[14.8530921,57.51341],[14.8531152,57.513257],[14.8534046,57.5131347],[14.8535932,57.5130774],[14.8537546,57.5131127],[14.854076,57.5131099],[14.8543777,57.5130029],[14.8546044,57.5128175],[14.8545864,57.5126227],[14.8544461,57.5124759],[14.8543672,57.5123229],[14.8546196,57.5123254],[14.8549839,57.5122883],[14.8553055,57.512245],[14.8556204,57.5123094],[14.8558309,57.5122594],[14.8561257,57.5120839],[14.8562496,57.5118994],[14.8563631,57.5118358],[14.8566667,57.511802],[14.856814,57.5116655],[14.8569465,57.511461],[14.8568773,57.511314],[14.8567056,57.5111585],[14.8566721,57.5110557],[14.8569314,57.5110519],[14.8572705,57.5110862],[14.8574652,57.511165],[14.8576344,57.5111211],[14.8577198,57.511051],[14.8576186,57.5109367],[14.8573703,57.5107759],[14.8571825,57.510709],[14.8574421,57.5106235],[14.8575534,57.5105017],[14.8575167,57.5104552],[14.8576508,57.5103919],[14.8577412,57.510179],[14.857745,57.5100205],[14.857886,57.5099861],[14.8581001,57.5100081],[14.8582307,57.5100786],[14.8587272,57.5100093],[14.8590987,57.5100405],[14.8594331,57.5100163],[14.8594439,57.5100652],[14.8592459,57.5102273],[14.8590751,57.5102937],[14.8589873,57.5103784],[14.8586419,57.5103807],[14.8585102,57.5104298],[14.8584445,57.5106943],[14.8584552,57.5108445],[14.8582886,57.5110038],[14.8579016,57.5110434],[14.8578013,57.5112189],[14.8576387,57.5112451],[14.857426,57.5113192],[14.8573869,57.511565],[14.8575454,57.5118057],[14.8577192,57.5119133],[14.857889,57.5122006],[14.8578335,57.5124117],[14.8580899,57.5129049],[14.8584335,57.5132995],[14.8586966,57.5133946],[14.8588626,57.5135936],[14.8590971,57.5137651],[14.8595235,57.5137918],[14.8596692,57.5140179],[14.8598355,57.5141648],[14.8599615,57.5142591],[14.8600323,57.5144115],[14.8601758,57.5145475],[14.8603612,57.5145664],[14.8605025,57.5145301],[14.8605929,57.5146044],[14.8604988,57.5147169],[14.8605854,57.5149327],[14.8608169,57.51503],[14.8610492,57.515098],[14.8611087,57.5152459],[14.8610446,57.5154797],[14.8610687,57.5160591],[14.8612503,57.5165522],[14.8612299,57.5167875],[14.8609843,57.5170465],[14.8609658,57.5172293],[14.8610889,57.5174686],[14.8610191,57.517791],[14.8606675,57.5182738],[14.8605935,57.5185203],[14.8598489,57.5187939],[14.8591719,57.5189793],[14.8591102,57.5192399],[14.8588768,57.5193731],[14.8586532,57.519272],[14.8585732,57.5191045],[14.8583731,57.51908],[14.8575435,57.5193436],[14.8568453,57.5195029],[14.8566713,57.5196361],[14.8563046,57.5197152],[14.8560774,57.5196814],[14.8556392,57.5196837],[14.8554914,57.5195025],[14.8554924,57.5193581],[14.8555217,57.5192426],[14.8554302,57.5191507],[14.8552003,57.5191415],[14.8549632,57.5191162],[14.8547379,57.5190267],[14.85464,57.5187566],[14.8548004,57.5186387],[14.8549286,57.5187081],[14.8551714,57.5187154],[14.8553382,57.5185832],[14.8553358,57.5184694],[14.8552878,57.5183791],[14.8554611,57.5182518],[14.8553256,57.5181154],[14.8550751,57.517952],[14.8548763,57.5177884],[14.8547755,57.5176754],[14.8549109,57.5176363],[14.8548822,57.5175118],[14.8548382,57.5173741],[14.8549501,57.517308],[14.8551446,57.5173103],[14.8553532,57.5171289],[14.8555254,57.5169009],[14.8554662,57.5167082],[14.8555458,57.5166019],[14.855493,57.5165295],[14.8553522,57.5164806],[14.8550268,57.5165522],[14.8546611,57.5166922],[14.8544378,57.5168717],[14.8541939,57.5169454],[14.853793,57.5169268],[14.8534438,57.5169954],[14.8532756,57.5172228],[14.8531321,57.5172929],[14.8531206,57.51745],[14.853145,57.5176204],[14.853216,57.5177869],[14.8534435,57.5179582],[14.8533587,57.518073],[14.8534263,57.5181988],[14.8535626,57.5182503],[14.8536103,57.5183555],[14.8535197,57.5184335],[14.8533746,57.5184827],[14.8532407,57.5183961],[14.8530264,57.5183297],[14.852899,57.518387],[14.852737,57.5185859],[14.8526716,57.518854],[14.8524916,57.5191081],[14.8522649,57.5192069],[14.8520238,57.5192284],[14.8517719,57.5191502],[14.8515949,57.5190532],[14.8513913,57.5189972],[14.8512503,57.5190443],[14.8510826,57.5190758],[14.8509895,57.518978],[14.8510845,57.5189319],[14.8511926,57.5187817],[14.8509788,57.5186633],[14.8506838,57.5183447],[14.8503909,57.5179625],[14.8503026,57.5178611],[14.8500274,57.5177939]]],[[[14.8501573,57.5564318],[14.8502377,57.5563685],[14.850286,57.5563512],[14.8503826,57.5563541],[14.8504952,57.5563973],[14.8504952,57.5564491],[14.8504362,57.5564922],[14.8503343,57.5565095],[14.8502002,57.5564922],[14.8501573,57.5564318]]],[[[14.851493,57.551542],[14.8514984,57.5515046],[14.8516217,57.5514873],[14.8516754,57.5515276],[14.8517666,57.5515276],[14.8518095,57.5515679],[14.8517398,57.551614],[14.8515788,57.5516025],[14.8515574,57.5515737],[14.851493,57.551542]]],[[[14.8523648,57.5514139],[14.8523783,57.5514038],[14.8524158,57.5513923],[14.8524158,57.5514153],[14.852389,57.5514297],[14.8523648,57.5514139]]],[[[14.8525337,57.5514125],[14.8525553,57.551352],[14.852625,57.5512613],[14.8526277,57.5511836],[14.8526089,57.5511045],[14.8526518,57.5510383],[14.8528155,57.5509562],[14.8528716,57.5508599],[14.8529253,57.550762],[14.8530487,57.5506901],[14.853156,57.5506498],[14.8532203,57.5505778],[14.8533223,57.5504368],[14.853392,57.550385],[14.8534886,57.5503677],[14.8535422,57.5503101],[14.85373,57.5502785],[14.8537407,57.5502526],[14.8536656,57.5502439],[14.8535207,57.5502554],[14.853451,57.5502727],[14.853451,57.5502382],[14.8534993,57.5501892],[14.8535583,57.5501576],[14.8535744,57.5500827],[14.8535368,57.5500655],[14.853569,57.5500223],[14.8536495,57.5500194],[14.8536763,57.5500511],[14.8537675,57.5500827],[14.8538694,57.5500741],[14.8539928,57.5500799],[14.854084,57.5501],[14.8541162,57.5501317],[14.8541216,57.5502266],[14.8540947,57.5503101],[14.8540679,57.550385],[14.8541913,57.5504828],[14.8542557,57.5504915],[14.8543737,57.5504886],[14.8544756,57.5505634],[14.8545293,57.5506152],[14.8546097,57.5506354],[14.8546634,57.5506958],[14.8546258,57.5507419],[14.8546473,57.5507937],[14.8545561,57.5508167],[14.8545132,57.5507966],[14.8545293,57.5507707],[14.8544971,57.5507304],[14.8544273,57.5506987],[14.8542718,57.5507131],[14.8541216,57.5506987],[14.8541001,57.5507649],[14.8540572,57.5508196],[14.8539392,57.550834],[14.8538319,57.5508455],[14.853789,57.5508858],[14.8537246,57.5510009],[14.8537568,57.5510441],[14.8538319,57.5510585],[14.8539284,57.5510498],[14.8539499,57.551093],[14.8539177,57.5511736],[14.8538319,57.5512254],[14.8537621,57.5512715],[14.8536817,57.55126],[14.8536709,57.5512197],[14.8536549,57.5511765],[14.8536227,57.5511563],[14.8535207,57.5511707],[14.8534725,57.5512197],[14.8534295,57.5512053],[14.8534886,57.5511017],[14.8535851,57.5509721],[14.8535851,57.5509088],[14.8535637,57.5508599],[14.8534778,57.5508369],[14.8533652,57.5508656],[14.8532311,57.5509894],[14.8531238,57.5510498],[14.8530809,57.5511448],[14.8529843,57.5512341],[14.8528609,57.5512974],[14.8528609,57.5513434],[14.8529199,57.5513751],[14.8529575,57.5514211],[14.8529307,57.5514701],[14.8527644,57.5514989],[14.8526893,57.5514643],[14.8525659,57.5514327],[14.8525337,57.5514125]]],[[[14.8526016,57.5458946],[14.8526984,57.5458225],[14.8527756,57.5458446],[14.8529564,57.5458584],[14.8530602,57.545828],[14.8534542,57.5457779],[14.853587,57.5458591],[14.8536903,57.5458673],[14.8537514,57.5459352],[14.8537002,57.5459781],[14.8537439,57.5460949],[14.8537595,57.546203],[14.8538375,57.5462486],[14.8539283,57.5462467],[14.8540905,57.546161],[14.8541368,57.5462387],[14.854073,57.5462929],[14.8538245,57.5463382],[14.8535899,57.5463282],[14.8533805,57.5463253],[14.8532232,57.5461545],[14.8530956,57.5461391],[14.8531562,57.5460911],[14.8530511,57.5460618],[14.852903,57.5460321],[14.8529428,57.5460883],[14.8529106,57.5461164],[14.8528153,57.5460473],[14.852648,57.5460033],[14.8526016,57.5458946]]],[[[14.8529307,57.5017089],[14.8529897,57.5016628],[14.8531023,57.501657],[14.8531238,57.5017146],[14.8530058,57.5017492],[14.8529307,57.5017435],[14.8529307,57.5017089]]],[[[14.8533626,57.5513333],[14.853368,57.5513031],[14.8533895,57.5512656],[14.8534216,57.5512455],[14.8534511,57.5512671],[14.8534324,57.5513103],[14.8534109,57.5513347],[14.8533626,57.5513333]]],[[[14.8536227,57.5615281],[14.8536334,57.5614936],[14.8536763,57.5614734],[14.8538319,57.5614504],[14.8537943,57.5614216],[14.8538051,57.5613957],[14.8539874,57.5614073],[14.8540143,57.5614332],[14.8540786,57.5614562],[14.8540947,57.5615598],[14.8540733,57.5616605],[14.8540035,57.561718],[14.8538694,57.561741],[14.8537568,57.561695],[14.8536495,57.5615799],[14.8536227,57.5615281]]],[[[14.8541323,57.5552116],[14.8541806,57.5552001],[14.8543039,57.5552231],[14.8543737,57.5552576],[14.8544059,57.555344],[14.8543522,57.5553641],[14.8542557,57.5553584],[14.8541806,57.5553296],[14.8541752,57.5552778],[14.8541377,57.5552461],[14.8541323,57.5552116]]],[[[14.8542396,57.5582131],[14.8544112,57.5581872],[14.8544327,57.5580865],[14.8545722,57.5579657],[14.8546044,57.5578995],[14.8547063,57.5578534],[14.8549209,57.5578304],[14.8551193,57.5578765],[14.8553446,57.5579829],[14.8553607,57.5580462],[14.8554841,57.5581124],[14.855527,57.5581729],[14.8555807,57.5582131],[14.8555914,57.558288],[14.8555378,57.5584376],[14.8553715,57.5585901],[14.8552105,57.5586218],[14.8550013,57.5585872],[14.8547224,57.5585412],[14.8544434,57.5584146],[14.854363,57.5583283],[14.8542718,57.5582765],[14.8542396,57.5582131]]],[[[14.8542857,57.5464107],[14.854342,57.5463489],[14.8544241,57.5463923],[14.8544145,57.5464376],[14.8544446,57.546484],[14.8543795,57.5465014],[14.8543152,57.5464726],[14.8542857,57.5464107]]],[[[14.8543313,57.5467432],[14.8543581,57.5467231],[14.8543876,57.546713],[14.8543983,57.5467504],[14.8543339,57.5467677],[14.8543313,57.5467432]]],[[[14.8549106,57.5467029],[14.8549374,57.5466813],[14.8549804,57.5467015],[14.8549482,57.5467144],[14.8549106,57.5467029]]],[[[14.8549198,57.5499475],[14.8549313,57.5498752],[14.8550646,57.5497408],[14.8551108,57.5494226],[14.8550488,57.5490785],[14.8551387,57.5487807],[14.8554476,57.548168],[14.8555917,57.5480349],[14.8557808,57.5480189],[14.8561858,57.548074],[14.856542,57.5480891],[14.8568813,57.5481329],[14.8569403,57.5480113],[14.8570644,57.5480218],[14.8570181,57.5481787],[14.8571613,57.5482843],[14.8572643,57.5483992],[14.8572112,57.5484875],[14.8572227,57.5485852],[14.8573394,57.5487359],[14.8574413,57.5488272],[14.8574078,57.5489684],[14.8572796,57.5490372],[14.8571248,57.549228],[14.8570503,57.5495438],[14.8570701,57.5497234],[14.8571219,57.5499841],[14.8571744,57.5501662],[14.8572842,57.5502387],[14.8572825,57.5502674],[14.8572147,57.5503625],[14.8571382,57.5503977],[14.8571299,57.5505381],[14.8571736,57.5506326],[14.8570503,57.5506725],[14.8568005,57.5506629],[14.8566761,57.5507037],[14.8564859,57.5505844],[14.8562451,57.5505867],[14.8559876,57.5504283],[14.8555839,57.5502022],[14.8550678,57.5500292],[14.8549198,57.5499475]]],[[[14.8550281,57.5031067],[14.8550711,57.5030375],[14.8551569,57.5029251],[14.8552588,57.5028646],[14.8552856,57.5028098],[14.8553554,57.5027435],[14.8555109,57.5026311],[14.8555431,57.5026744],[14.8554466,57.5027695],[14.8554627,57.5028041],[14.8553607,57.5028588],[14.8552588,57.5029482],[14.8552266,57.5030577],[14.8552266,57.5031701],[14.8552749,57.50332],[14.8552374,57.5034122],[14.8551569,57.5034007],[14.8551193,57.5033632],[14.8551408,57.5032767],[14.8551086,57.5032047],[14.8550657,57.5031499],[14.8550281,57.5031067]]],[[[14.8554197,57.5234714],[14.8554822,57.5232561],[14.8557301,57.5230914],[14.855965,57.5230484],[14.8562805,57.5230983],[14.8564615,57.5230008],[14.8564908,57.522824],[14.8564583,57.5226886],[14.8566259,57.5225498],[14.8569945,57.5225417],[14.8574251,57.522289],[14.857643,57.5221612],[14.8576178,57.5219857],[14.857664,57.5218337],[14.8578909,57.521787],[14.8588074,57.5217563],[14.8595278,57.5216486],[14.85999,57.5214348],[14.860016,57.5211304],[14.8597993,57.5209672],[14.8593822,57.5208452],[14.8591646,57.5207115],[14.8587661,57.520669],[14.8586159,57.5206344],[14.8586647,57.5205276],[14.8590354,57.5204785],[14.8591577,57.5203869],[14.8591638,57.5203014],[14.8589259,57.5202659],[14.8588414,57.5201302],[14.8590716,57.520018],[14.8596603,57.5199535],[14.8598172,57.5199906],[14.8602252,57.5198423],[14.8606721,57.5197403],[14.8610299,57.5196752],[14.8612549,57.5194735],[14.8614746,57.5193119],[14.8616414,57.5192737],[14.8618943,57.5192652],[14.8620706,57.5191826],[14.8621328,57.5190722],[14.862478,57.5189955],[14.8627553,57.5187648],[14.8630716,57.5187293],[14.863229,57.5188311],[14.8634497,57.5188856],[14.8636909,57.5188134],[14.8643598,57.518894],[14.8645631,57.5189579],[14.8646994,57.5190454],[14.8649465,57.5189952],[14.8651202,57.5190947],[14.8651543,57.5192807],[14.8654281,57.5194014],[14.865514,57.5195198],[14.8654984,57.5198307],[14.8650593,57.5203719],[14.8647163,57.5205706],[14.8644293,57.5208053],[14.8643799,57.5210164],[14.8644203,57.5212041],[14.8645599,57.5213487],[14.86479,57.5213981],[14.865235,57.5213373],[14.8653418,57.5212224],[14.8654225,57.5210409],[14.8653152,57.5209316],[14.8653957,57.5208733],[14.8656588,57.5208733],[14.8660732,57.5209971],[14.8660944,57.5210622],[14.8659187,57.5211265],[14.8656639,57.5211528],[14.8655574,57.5212305],[14.865503,57.5213346],[14.8657025,57.5214086],[14.8658562,57.5214955],[14.8660826,57.5215879],[14.8664122,57.521794],[14.8665316,57.5219046],[14.8663844,57.5220601],[14.8663398,57.5222335],[14.8664957,57.5223056],[14.8667258,57.5222986],[14.8668709,57.5222365],[14.8670847,57.5222937],[14.8671236,57.5224059],[14.8670646,57.5225051],[14.8667892,57.5225357],[14.8665016,57.5224579],[14.8663522,57.5224865],[14.8662207,57.522594],[14.8658782,57.5227016],[14.8655317,57.5227167],[14.8647986,57.5226138],[14.8646511,57.5225125],[14.8646211,57.5223431],[14.8645588,57.5222021],[14.8643815,57.5221328],[14.8641573,57.5221093],[14.8638738,57.5222358],[14.8637005,57.5223775],[14.8636804,57.5225555],[14.8634819,57.5226977],[14.8632116,57.5227403],[14.8630957,57.522665],[14.8628261,57.5226539],[14.8626301,57.5227281],[14.8623715,57.5229247],[14.8623871,57.5230253],[14.8622586,57.5232151],[14.8623873,57.5234083],[14.862092,57.523544],[14.8616953,57.5235464],[14.8609867,57.5237223],[14.8605961,57.5237077],[14.8603598,57.5236384],[14.8599733,57.5236677],[14.8598505,57.5237653],[14.8598666,57.5239986],[14.8597783,57.52411],[14.8596601,57.5241411],[14.8593564,57.5241167],[14.8588519,57.5241455],[14.8580478,57.5243851],[14.8578758,57.5244827],[14.8576347,57.5246783],[14.8573233,57.5248024],[14.8569035,57.5248287],[14.856539,57.524774],[14.8563245,57.5247972],[14.8562177,57.5248771],[14.8562048,57.5249648],[14.8560983,57.5250285],[14.8559259,57.5250827],[14.8558937,57.5250145],[14.8559479,57.5249009],[14.8561638,57.5248401],[14.8563143,57.5247305],[14.8563623,57.5244913],[14.8563411,57.5241861],[14.8562746,57.5240667],[14.8563636,57.5238285],[14.8561477,57.5236887],[14.8558041,57.5236652],[14.8554943,57.5236762],[14.8554197,57.5234714]]],[[[14.8554788,57.5378909],[14.8555109,57.5377757],[14.855629,57.5377124],[14.8556611,57.5376145],[14.855747,57.5375511],[14.8558865,57.5375108],[14.8559186,57.5374475],[14.8560474,57.537436],[14.8561332,57.5374532],[14.8561654,57.5375051],[14.8563478,57.5375166],[14.8564068,57.5375799],[14.8564336,57.5376692],[14.8563746,57.5377153],[14.8564014,57.5378391],[14.8563424,57.5378967],[14.856262,57.5379255],[14.8561708,57.5379946],[14.856203,57.5380378],[14.8562834,57.5380838],[14.8563156,57.5381731],[14.856321,57.5382595],[14.8562727,57.5382969],[14.8561976,57.5383286],[14.8561118,57.5384207],[14.8561171,57.5384754],[14.8561171,57.5385589],[14.8559991,57.5385848],[14.8558757,57.5385791],[14.855747,57.5385963],[14.855586,57.5385935],[14.8556182,57.5383286],[14.8555431,57.5381155],[14.8555753,57.5380176],[14.8554788,57.5378909]]],[[[14.8554949,57.5329439],[14.8555002,57.5328748],[14.8555646,57.5327884],[14.8556719,57.5327366],[14.8557631,57.532751],[14.8558114,57.5328086],[14.8557792,57.5328604],[14.8557792,57.5329094],[14.8557255,57.5329295],[14.8556719,57.5329151],[14.8556182,57.5329612],[14.8555324,57.5329814],[14.8554949,57.5329439]]],[[[14.8558328,57.5326617],[14.8558811,57.5326012],[14.855924,57.5325264],[14.8560152,57.5324659],[14.8561279,57.5324371],[14.8563371,57.5323853],[14.8563746,57.5323478],[14.8564283,57.5323248],[14.8565355,57.5323277],[14.8567179,57.532319],[14.8567877,57.5323421],[14.8567662,57.5324198],[14.8566214,57.5325724],[14.8565946,57.5326732],[14.8564068,57.5327308],[14.8561815,57.5327567],[14.8560527,57.5327308],[14.8559616,57.5327395],[14.8558543,57.5327078],[14.8558328,57.5326617]]],[[[14.8570049,57.532467],[14.8570433,57.5323769],[14.8573571,57.5322489],[14.8575685,57.5321755],[14.857694,57.5320226],[14.8578858,57.5319046],[14.8581564,57.5318692],[14.8584195,57.5318665],[14.8585512,57.5318001],[14.8589136,57.5317858],[14.8590102,57.5318172],[14.8595214,57.5317929],[14.8598379,57.531703],[14.8599033,57.5316495],[14.8598435,57.5315216],[14.8598387,57.5313491],[14.8600061,57.5312247],[14.860299,57.5312001],[14.8605736,57.5312093],[14.8606525,57.5312888],[14.8607606,57.531371],[14.8609969,57.53134],[14.8610851,57.5314764],[14.8610323,57.5315647],[14.8611076,57.5316858],[14.8610942,57.5317749],[14.8612487,57.5317724],[14.861278,57.5318069],[14.8612726,57.5318492],[14.8613635,57.5319128],[14.861319,57.5320254],[14.8611428,57.5321955],[14.8611103,57.5323019],[14.8609,57.5324699],[14.8607005,57.5325272],[14.860513,57.5325218],[14.8601608,57.5325989],[14.8599897,57.5326476],[14.8598706,57.5327832],[14.8597276,57.5328378],[14.8594052,57.5329105],[14.8588774,57.5329966],[14.8584182,57.53315],[14.8580671,57.5332302],[14.8577632,57.5331602],[14.8574722,57.5330107],[14.8574279,57.5329114],[14.8572297,57.5328138],[14.8571712,57.5326703],[14.8570049,57.532467]]],[[[14.8578067,57.5428],[14.8578189,57.5427655],[14.8580598,57.5426924],[14.85829,57.5425885],[14.8584812,57.5425539],[14.8586912,57.5424861],[14.8587824,57.5424001],[14.8586487,57.542234],[14.858415,57.5420779],[14.858136,57.5420425],[14.858184,57.5419702],[14.8583383,57.5417959],[14.8585358,57.5416741],[14.8588135,57.5416317],[14.8588935,57.541656],[14.8591072,57.5416522],[14.8590668,57.5417116],[14.8591802,57.5418233],[14.8591814,57.5423626],[14.8590321,57.5424528],[14.8590529,57.5425234],[14.8589386,57.5424929],[14.8588285,57.5425206],[14.8587232,57.5425722],[14.8584874,57.5427052],[14.8583358,57.5427302],[14.8583036,57.5427748],[14.8582121,57.5427724],[14.8581293,57.5428223],[14.8579847,57.5427949],[14.8578067,57.5428]]],[[[14.8579815,57.5436638],[14.8580162,57.5432999],[14.8583437,57.5432087],[14.8585461,57.5431988],[14.8585604,57.5431444],[14.8587723,57.5431163],[14.8589177,57.5431503],[14.8592005,57.5433495],[14.8591532,57.5433797],[14.8592857,57.5436299],[14.8591025,57.5436977],[14.8590667,57.543848],[14.8588819,57.5440119],[14.8587266,57.5440818],[14.858508,57.544061],[14.8583828,57.5439708],[14.8581334,57.5439747],[14.8580668,57.5438382],[14.8581226,57.5437818],[14.8579815,57.5436638]]],[[[14.8580431,57.548927],[14.858078,57.548832],[14.8581638,57.5487787],[14.8582228,57.5487341],[14.8582442,57.5486881],[14.8582657,57.5486032],[14.8583006,57.5485657],[14.8583891,57.5485254],[14.8584508,57.5485254],[14.8585581,57.5485758],[14.8586707,57.5487284],[14.8587083,57.5488507],[14.8587807,57.5489112],[14.858778,57.5489745],[14.8586707,57.5489759],[14.8586546,57.5490292],[14.8586949,57.5490695],[14.8586439,57.5491098],[14.8585152,57.5491386],[14.8584374,57.5491961],[14.8583649,57.5492263],[14.8582603,57.5492278],[14.8581772,57.5491976],[14.8581557,57.5491386],[14.8580582,57.5490236],[14.8580431,57.548927]]],[[[14.8581155,57.5482793],[14.8581316,57.5482246],[14.858204,57.5482246],[14.8582764,57.5482563],[14.8582282,57.5482923],[14.8581155,57.5482793]]],[[[14.8582013,57.5484463],[14.8582442,57.5484146],[14.858314,57.5484564],[14.8582791,57.5484967],[14.8582013,57.5484463]]],[[[14.8586902,57.5401861],[14.8586966,57.5401295],[14.858934,57.5401171],[14.8592762,57.5400994],[14.8595361,57.5400392],[14.859674,57.5400336],[14.8596622,57.5399655],[14.8594224,57.5399274],[14.8593779,57.5398289],[14.8594643,57.539751],[14.8596102,57.5397181],[14.8597808,57.5398177],[14.8598223,57.5399234],[14.8599468,57.5399555],[14.8601327,57.5400542],[14.860634,57.5400676],[14.860933,57.5402144],[14.8611972,57.5403872],[14.8611524,57.5405861],[14.8612098,57.5407118],[14.861389,57.5407702],[14.861488,57.540869],[14.8613971,57.5410045],[14.8612654,57.5410426],[14.8612085,57.5412368],[14.861076,57.5414075],[14.8607759,57.5414965],[14.8602839,57.5415161],[14.8598634,57.5414719],[14.8594264,57.5413848],[14.8593119,57.5412652],[14.8590641,57.541193],[14.8589168,57.5412368],[14.858802,57.54119],[14.858725,57.5409506],[14.858853,57.5409054],[14.8588093,57.540606],[14.858838,57.5404915],[14.8589627,57.5404743],[14.8590024,57.5404158],[14.8588543,57.5403816],[14.8588162,57.5402743],[14.8586902,57.5401861]]],[[[14.8593819,57.5481609],[14.859457,57.5481033],[14.8595079,57.5481177],[14.8595374,57.5481753],[14.8594489,57.5481969],[14.8593819,57.5481609]]],[[[14.8607923,57.5304787],[14.8608272,57.5304442],[14.8609694,57.5304413],[14.8610606,57.5304571],[14.8611169,57.5305133],[14.8612108,57.5305522],[14.8613234,57.5305637],[14.861428,57.5305407],[14.8615246,57.5305047],[14.8616641,57.5304989],[14.861766,57.5305291],[14.861774,57.5305767],[14.8617445,57.5306271],[14.8616587,57.5306429],[14.8616292,57.5306688],[14.8616748,57.5307034],[14.8616587,57.5307336],[14.8615916,57.5307379],[14.8615648,57.5307696],[14.8615702,57.5308114],[14.8615219,57.5308762],[14.8614549,57.5309078],[14.8612859,57.5309438],[14.8611786,57.5309438],[14.861082,57.5308862],[14.8610606,57.5308301],[14.8611035,57.5307581],[14.8611088,57.5307091],[14.8610767,57.5306818],[14.8610016,57.5306501],[14.8609881,57.5306069],[14.8609908,57.5305522],[14.8609613,57.5305119],[14.8607923,57.5304787]]],[[[14.8611007,57.5186665],[14.8611489,57.518606],[14.8612294,57.5185743],[14.8612348,57.518629],[14.8612723,57.5186693],[14.861224,57.5186895],[14.8611489,57.5186866],[14.8611007,57.5186665]]],[[[14.8615781,57.5176207],[14.8616049,57.5175948],[14.8616961,57.5176178],[14.861798,57.5176178],[14.8619053,57.5175948],[14.862077,57.5175833],[14.8623184,57.5176409],[14.8625169,57.5177273],[14.8625652,57.5178051],[14.8625652,57.5178713],[14.8626188,57.5179434],[14.8625812,57.5180096],[14.8624579,57.5180701],[14.8623828,57.5181364],[14.8622701,57.5181738],[14.8621789,57.5181566],[14.8621682,57.5180759],[14.8621896,57.5179808],[14.862136,57.517929],[14.8620394,57.5179578],[14.8619322,57.5179635],[14.8619107,57.5179203],[14.8619214,57.5178512],[14.861841,57.5177792],[14.8617659,57.5177359],[14.8616639,57.5177388],[14.8615888,57.517687],[14.8615781,57.5176207]]],[[[14.862946,57.5087119],[14.863048,57.5087436],[14.8631499,57.5088271],[14.8632893,57.5088473],[14.8634074,57.5088761],[14.8634127,57.5089424],[14.8633162,57.5089626],[14.8632089,57.5089193],[14.8630909,57.5088876],[14.8629728,57.5088041],[14.862946,57.5087119]]],[[[14.8637614,57.5346832],[14.8638365,57.5346141],[14.8639331,57.5345623],[14.8640404,57.5345508],[14.8641798,57.5344989],[14.8642013,57.5344298],[14.8642871,57.5343492],[14.8643944,57.5343722],[14.8644051,57.5344874],[14.8643944,57.5346314],[14.8643408,57.5347235],[14.8641906,57.5347638],[14.8639867,57.5347754],[14.8637936,57.5347523],[14.8637614,57.5346832]]],[[[14.8645768,57.548088],[14.8646358,57.5480391],[14.8647002,57.5479872],[14.8646759,57.5479441],[14.8646948,57.5479009],[14.8647431,57.5478836],[14.8647776,57.5479089],[14.864801,57.5479608],[14.8648419,57.54795],[14.8648504,57.5479038],[14.8649255,57.5478635],[14.8650274,57.5478203],[14.8651079,57.5478203],[14.8651454,57.5478721],[14.8651293,57.5479095],[14.8652044,57.5479498],[14.8651401,57.5479815],[14.8651401,57.5480074],[14.8651937,57.5480218],[14.8651615,57.5480621],[14.8650972,57.5480765],[14.8650435,57.548065],[14.8648933,57.5480563],[14.864845,57.5480189],[14.8647324,57.5480506],[14.864727,57.548088],[14.8647807,57.5481254],[14.864727,57.5481513],[14.8646626,57.548134],[14.8645794,57.5481355],[14.8645768,57.548088]]],[[[14.8653654,57.5239466],[14.8654244,57.5239092],[14.8655263,57.5239322],[14.8655585,57.5240129],[14.8654888,57.5240302],[14.8654083,57.5239956],[14.8653654,57.5239466]]],[[[14.8669779,57.5418881],[14.8671066,57.541868],[14.8670852,57.5417557],[14.8672407,57.5415772],[14.8675143,57.5414908],[14.8675626,57.5414275],[14.8677045,57.5414063],[14.8677021,57.5413469],[14.867962,57.5412221],[14.8679542,57.5410244],[14.8681741,57.540938],[14.8684102,57.5406962],[14.8685698,57.5407368],[14.8683893,57.5409807],[14.8683104,57.5411282],[14.8685049,57.5411948],[14.8685612,57.5414769],[14.8685368,57.541687],[14.8683984,57.5416658],[14.8684051,57.5417772],[14.8683203,57.5419837],[14.8681986,57.5420448],[14.8679538,57.5420326],[14.867719,57.5420713],[14.8675039,57.5420222],[14.8673588,57.542081],[14.8669779,57.5418881]]],[[[14.8707727,57.5026657],[14.8708049,57.5025332],[14.8709229,57.502487],[14.8710731,57.5024582],[14.8711697,57.5024669],[14.8712126,57.502513],[14.871175,57.5026283],[14.8710356,57.5027291],[14.8709068,57.5027291],[14.8708103,57.5027061],[14.8707727,57.5026657]]],[[[14.8745322,57.501924],[14.8746083,57.501902],[14.8746619,57.5019164],[14.8746351,57.5019596],[14.8745514,57.5019556],[14.8745322,57.501924]]],[[[14.8767004,57.5166153],[14.876754,57.5165576],[14.8768345,57.5165778],[14.8769042,57.5166383],[14.8770866,57.5166729],[14.8771027,57.516742],[14.877033,57.5167852],[14.8769257,57.5167795],[14.8768077,57.5167391],[14.8767326,57.51667],[14.8767004,57.5166153]]]]}}]}
