{"type":"FeatureCollection","pike":{"schemaVersion":1,"lakeId":"risbrodammen","purpose":"non-interactive outside-lake focus mask","source":"https://www.openstreetmap.org/relation/10523512","osmObjectType":"relation","osmObjectId":10523512,"sourceVersion":3,"sourceTimestamp":"2024-08-30T17:49:02Z","outerRingCount":1,"innerRingCount":0,"vertexCount":531},"features":[{"type":"Feature","properties":{"kind":"outside-lake-focus-mask"},"geometry":{"type":"Polygon","coordinates":[[[5,54],[30,54],[30,71],[5,71],[5,54]],[[13.99575,57.815],[13.9965791,57.8157254],[13.99775,57.81675],[13.9987436,57.8171321],[13.998808,57.8172692],[13.9999104,57.817455],[14.0009133,57.8176447],[14.0017842,57.8178443],[14.0021648,57.8176987],[14.0025451,57.8177157],[14.0030937,57.8177554],[14.003216,57.8179606],[14.0035,57.818],[14.0041655,57.8179533],[14.0040531,57.81827],[14.0040842,57.8186591],[14.0044887,57.8189113],[14.0044635,57.8190329],[14.0040485,57.8190457],[14.0037664,57.8189597],[14.0034826,57.8189049],[14.0034268,57.8190953],[14.0035491,57.8193724],[14.0038278,57.8196815],[14.0043278,57.8197811],[14.005093,57.8199074],[14.0055254,57.820031],[14.0055661,57.8203271],[14.0052537,57.8205733],[14.0052762,57.8209157],[14.005539,57.8212294],[14.0053009,57.8219567],[14.004906,57.8220671],[14.0039962,57.8221825],[14.0034818,57.8223895],[14.0038879,57.8227351],[14.0039734,57.8230024],[14.0041966,57.8230415],[14.005112,57.8229238],[14.0055774,57.8229835],[14.0066554,57.8229152],[14.0074048,57.823358],[14.0080316,57.8234703],[14.0095264,57.8232331],[14.0103488,57.8234333],[14.0110722,57.8232213],[14.0111779,57.8229608],[14.0115829,57.8227676],[14.0121601,57.8236434],[14.0127225,57.8238608],[14.0131659,57.8237461],[14.0133692,57.823573],[14.0136613,57.8237981],[14.0138094,57.8243188],[14.0141221,57.8244867],[14.0141983,57.8249531],[14.0141811,57.8255349],[14.0138375,57.8256813],[14.013955,57.8259694],[14.0143002,57.8260365],[14.014407,57.8261331],[14.0139234,57.8263191],[14.0138458,57.8266038],[14.0133778,57.8264573],[14.0130361,57.8265927],[14.0129309,57.8267664],[14.0129275,57.8270612],[14.0133427,57.8272541],[14.0128851,57.8274266],[14.0125,57.82775],[14.0123728,57.8279087],[14.0120469,57.8280226],[14.0120834,57.828203],[14.0123669,57.8283034],[14.0125254,57.8282691],[14.0125804,57.828055],[14.0126786,57.8280512],[14.0126375,57.8282318],[14.0128655,57.8283887],[14.0133271,57.8285203],[14.0135,57.82875],[14.01325,57.82925],[14.013259,57.8294215],[14.0131651,57.829487],[14.013064,57.8294561],[14.0128186,57.8294826],[14.012741,57.8295664],[14.0129908,57.8297651],[14.012961,57.8301945],[14.0123087,57.830884],[14.0112138,57.8314534],[14.0108391,57.8318017],[14.0106921,57.8323706],[14.01097,57.8325993],[14.0108139,57.8330677],[14.0115,57.83425],[14.0114466,57.8356967],[14.0112342,57.8359731],[14.011659,57.8363885],[14.0117248,57.8368441],[14.0117827,57.8372993],[14.011666,57.8375159],[14.0120107,57.8378426],[14.0121217,57.8381187],[14.012,57.8385],[14.0119763,57.8389943],[14.0122698,57.8393528],[14.0120793,57.8398674],[14.0121164,57.8401424],[14.0124597,57.8404155],[14.0129363,57.8406773],[14.0129457,57.8409312],[14.0127341,57.8412148],[14.0124251,57.8416888],[14.0124321,57.8419739],[14.0122599,57.8422649],[14.0116116,57.8429128],[14.0115585,57.8434627],[14.0117395,57.8437523],[14.0123245,57.8439238],[14.0126024,57.8442326],[14.01225,57.845],[14.0123358,57.8452058],[14.0128009,57.8455798],[14.013,57.846],[14.0127502,57.8463584],[14.0123229,57.8465213],[14.012453,57.8466056],[14.0120716,57.8470278],[14.0118063,57.8470132],[14.0115491,57.8470906],[14.0116467,57.8474954],[14.0113071,57.8477896],[14.0110617,57.8482609],[14.011448,57.8492917],[14.0122582,57.8499464],[14.0129403,57.8507877],[14.0129814,57.8510987],[14.0129406,57.8512996],[14.0130771,57.8514768],[14.0134213,57.8515377],[14.0136798,57.8515387],[14.0140738,57.8515899],[14.0145362,57.8517508],[14.0149431,57.8520271],[14.0150059,57.8521321],[14.0149375,57.852312],[14.0150912,57.8524551],[14.0154278,57.8524905],[14.0157325,57.8525398],[14.0159002,57.8525269],[14.0161075,57.8524614],[14.0165632,57.8523926],[14.0162821,57.8521919],[14.0163746,57.8519819],[14.0162167,57.8516647],[14.0164154,57.8514071],[14.01675,57.85125],[14.0172769,57.8512822],[14.0179148,57.8514538],[14.0183957,57.8516747],[14.0186996,57.8516837],[14.0190888,57.8517558],[14.0194197,57.8518978],[14.0197599,57.8517275],[14.0200498,57.8517873],[14.0204041,57.8519503],[14.0205642,57.8522302],[14.0205318,57.8525171],[14.0209642,57.8527458],[14.0212522,57.8527133],[14.0217452,57.8531006],[14.0217342,57.8533715],[14.0222063,57.8534603],[14.0226459,57.8535869],[14.0229549,57.8537888],[14.0230903,57.8538431],[14.0232298,57.853826],[14.0233183,57.8537589],[14.0235865,57.8535405],[14.0236303,57.8532244],[14.0237163,57.8531726],[14.0236906,57.8531095],[14.0235423,57.8530747],[14.0235186,57.8529864],[14.0236491,57.8528938],[14.0238251,57.852878],[14.0239081,57.8529211],[14.0239872,57.852938],[14.0240861,57.8529317],[14.0242442,57.8528717],[14.0243925,57.8527739],[14.0245119,57.8527242],[14.0245358,57.8521713],[14.0244172,57.8518047],[14.0243047,57.8516531],[14.0241482,57.8514421],[14.0243169,57.8511269],[14.0238537,57.8506518],[14.0234361,57.8505281],[14.0227532,57.8505256],[14.0222758,57.8504804],[14.021926,57.8502866],[14.0218501,57.8499516],[14.021562,57.8499202],[14.0209942,57.8496921],[14.0203161,57.8496142],[14.0197499,57.8498067],[14.0196805,57.8500349],[14.0194661,57.8501721],[14.0190627,57.8501632],[14.0186988,57.8500438],[14.0185609,57.8500775],[14.0187218,57.8502219],[14.0184123,57.8504434],[14.0180073,57.8503389],[14.0177155,57.8501146],[14.0176669,57.8498808],[14.0171198,57.8497382],[14.0167276,57.8498865],[14.0162529,57.8497883],[14.0159763,57.8496223],[14.0157151,57.8494667],[14.0155759,57.8492409],[14.0153798,57.8492236],[14.0152513,57.8493892],[14.0152741,57.8495898],[14.0152701,57.8497305],[14.0150722,57.8498408],[14.014776,57.8498405],[14.0144523,57.8497743],[14.0142509,57.8498178],[14.0140805,57.8497625],[14.0140695,57.8496299],[14.0139032,57.8495242],[14.0134719,57.849358],[14.01325,57.849],[14.0135264,57.8487502],[14.0133279,57.8485873],[14.0132748,57.8483337],[14.0133429,57.8480625],[14.0135189,57.8479355],[14.0140559,57.8478375],[14.0148326,57.8477831],[14.0147913,57.8476296],[14.0138692,57.8475098],[14.0136908,57.8473932],[14.0138638,57.8471354],[14.014246,57.8468699],[14.0146806,57.8468813],[14.0152548,57.8470209],[14.0156016,57.8469417],[14.0161276,57.8467554],[14.0164666,57.8463043],[14.0162212,57.8461861],[14.0159613,57.8463163],[14.0154351,57.8461595],[14.0152189,57.8460544],[14.015419,57.8458657],[14.0158945,57.8459311],[14.0162617,57.8458538],[14.0168808,57.8454374],[14.0171812,57.8451137],[14.0166981,57.845028],[14.0159034,57.8452225],[14.0153803,57.845212],[14.0150545,57.8448833],[14.0152122,57.84469],[14.015887,57.8443945],[14.0164243,57.8443974],[14.0167072,57.8442803],[14.0168344,57.8440717],[14.0164672,57.843929],[14.015395,57.8440201],[14.0146256,57.8440379],[14.0142906,57.8440336],[14.0139826,57.8439464],[14.0137779,57.8437304],[14.0136932,57.8435234],[14.0137131,57.8426503],[14.0138947,57.8425913],[14.0142859,57.8427475],[14.0145327,57.84275],[14.0146607,57.8428166],[14.0153245,57.8429781],[14.0155012,57.8429446],[14.0155921,57.8427868],[14.0157149,57.842702],[14.0157271,57.8426126],[14.0155534,57.8425984],[14.015506,57.8425478],[14.0155297,57.8424973],[14.0153165,57.8423939],[14.0152854,57.8423028],[14.0156777,57.8420457],[14.0155429,57.8419029],[14.0149917,57.8417361],[14.0145464,57.8418193],[14.0143847,57.8417471],[14.0143632,57.8416193],[14.0144657,57.8412193],[14.0146467,57.8411682],[14.0148033,57.8410721],[14.01475,57.8410371],[14.0141854,57.8409887],[14.014058,57.8408624],[14.014058,57.8407891],[14.0139303,57.8407502],[14.0139251,57.8406704],[14.0141245,57.8406299],[14.0142105,57.8406546],[14.0143571,57.8406577],[14.0143381,57.8405718],[14.0144853,57.8403368],[14.014547,57.840261],[14.0147084,57.8401877],[14.014652,57.8400607],[14.0147701,57.8400411],[14.0147274,57.8399426],[14.0147511,57.8397632],[14.0150312,57.8395989],[14.0152964,57.8394882],[14.0153873,57.8393967],[14.0154822,57.8392199],[14.0153588,57.8391592],[14.0154512,57.8389217],[14.0154775,57.8387903],[14.0155345,57.8386639],[14.0152543,57.838717],[14.015055,57.8385653],[14.014922,57.8384087],[14.0148746,57.8381762],[14.0149695,57.8381155],[14.0150455,57.8380043],[14.0149112,57.8378888],[14.0145945,57.8378249],[14.0144378,57.837835],[14.0144995,57.8379159],[14.0144568,57.8379715],[14.0142859,57.8378754],[14.014193,57.8377551],[14.0143476,57.8376025],[14.01449,57.8376303],[14.0146229,57.8376808],[14.0146657,57.8375671],[14.0146752,57.8373245],[14.0146704,57.837188],[14.0147616,57.8370587],[14.0150929,57.8370187],[14.0153398,57.8370869],[14.0155558,57.8371148],[14.0154015,57.8369631],[14.0153351,57.8369353],[14.0153635,57.8367382],[14.0155,57.8365],[14.0152021,57.8364804],[14.0150502,57.8363364],[14.0152449,57.8360558],[14.0152591,57.8358385],[14.0153546,57.8356577],[14.0157728,57.8355135],[14.0159712,57.8354341],[14.0165,57.8355],[14.0166786,57.8353911],[14.0166881,57.8353128],[14.0167973,57.8352446],[14.0169679,57.8352296],[14.0171059,57.8350525],[14.0167925,57.8349893],[14.0167308,57.8348326],[14.016897,57.8346329],[14.0170584,57.8345495],[14.0172246,57.8345015],[14.0173955,57.834542],[14.0172957,57.83433],[14.0169304,57.8337586],[14.0167167,57.8337851],[14.0166499,57.8339314],[14.0164692,57.834082],[14.0163003,57.8341677],[14.0161039,57.8341845],[14.0161746,57.8340485],[14.0162964,57.8338812],[14.0162768,57.8337432],[14.0160453,57.8336932],[14.0154251,57.833732],[14.0153812,57.8339273],[14.0155265,57.834036],[14.0155461,57.8341907],[14.015386,57.834342],[14.0155067,57.8347287],[14.0150174,57.8349066],[14.0146205,57.8341832],[14.014,57.83375],[14.0140985,57.8332219],[14.0148839,57.8330672],[14.01575,57.83325],[14.0163371,57.8333122],[14.0170092,57.8330095],[14.017,57.8325],[14.01725,57.83225],[14.0156998,57.8316846],[14.0151172,57.8311139],[14.016439,57.8307361],[14.0163838,57.8303785],[14.016,57.83],[14.0164294,57.8291957],[14.0162931,57.8284839],[14.0162207,57.8279569],[14.0160276,57.8275962],[14.0166396,57.8271557],[14.0176616,57.8269203],[14.019228,57.8266575],[14.0200578,57.825902],[14.0197821,57.8256769],[14.0204929,57.825339],[14.0208062,57.8243269],[14.0208813,57.8233802],[14.0215,57.8225],[14.02125,57.8215],[14.021,57.82125],[14.0223189,57.8212416],[14.02275,57.82075],[14.0223737,57.8202925],[14.0225711,57.8200451],[14.0237137,57.8197097],[14.0241198,57.8193391],[14.0241965,57.8190014],[14.024785,57.818716],[14.024785,57.818236],[14.0246718,57.8174771],[14.024815,57.8170771],[14.025581,57.8168468],[14.0261583,57.8164303],[14.027,57.8155],[14.02775,57.81475],[14.028,57.81425],[14.02875,57.814],[14.0292846,57.8140669],[14.030173,57.8137783],[14.0311938,57.8136135],[14.032,57.8135],[14.0304316,57.8131297],[14.030585,57.8127116],[14.0300169,57.8119278],[14.0299117,57.8113162],[14.0309605,57.8104438],[14.03075,57.81],[14.0298253,57.8107773],[14.0293638,57.8113404],[14.0286337,57.8126466],[14.0275337,57.8133267],[14.0266429,57.8145756],[14.02575,57.81525],[14.0241547,57.8161268],[14.0233771,57.816343],[14.0215,57.81725],[14.0212544,57.8178533],[14.02075,57.81825],[14.0205806,57.818733],[14.0202349,57.818877],[14.0196885,57.8188624],[14.0193192,57.818782],[14.0190614,57.8188676],[14.0188801,57.8191271],[14.0184236,57.8194017],[14.0181959,57.8195045],[14.0184386,57.8195564],[14.0186489,57.8194931],[14.0188213,57.819413],[14.0189911,57.8192703],[14.0191636,57.8193247],[14.0193527,57.8194925],[14.0192714,57.8195791],[14.0191272,57.8195785],[14.0191604,57.8197295],[14.0194155,57.8197077],[14.0195587,57.8196971],[14.019552,57.8197477],[14.0193275,57.8199615],[14.0192497,57.8201472],[14.019052,57.8202962],[14.018802,57.8203568],[14.0185276,57.8204724],[14.0185523,57.8205763],[14.0184356,57.8206671],[14.0182511,57.8207112],[14.0180636,57.8208962],[14.0179679,57.820871],[14.0180312,57.8207796],[14.0176047,57.8206831],[14.0174953,57.8205165],[14.0171699,57.8204089],[14.0170409,57.8202667],[14.0165959,57.8204424],[14.0169003,57.8205649],[14.0167807,57.8206283],[14.0169484,57.8207448],[14.0171385,57.820827],[14.0171562,57.820917],[14.0170387,57.8210729],[14.0166815,57.8212599],[14.016,57.8215],[14.0157143,57.8214416],[14.0156702,57.8211906],[14.0153613,57.8209007],[14.0140577,57.8209045],[14.013428,57.8207825],[14.0132281,57.820627],[14.0125809,57.8205876],[14.0120305,57.8204331],[14.0114463,57.8200657],[14.011552,57.8196828],[14.0099797,57.8189509],[14.0090731,57.8190263],[14.008,57.81875],[14.0066092,57.8182614],[14.0050149,57.8175851],[14.0029201,57.8168468],[14.0024524,57.8162594],[14.00175,57.8155],[14.0017882,57.8149333],[14.0005,57.8135],[13.9997256,57.8124948],[13.99925,57.81275],[13.9993274,57.8129822],[13.9995,57.8135],[13.9995,57.814],[13.9975154,57.8144364],[13.99725,57.8145],[13.99575,57.815]]]}}]}
