{"type":"FeatureCollection","pike":{"schemaVersion":1,"lakeId":"rocksjon","purpose":"non-interactive outside-lake focus mask","source":"https://www.openstreetmap.org/relation/9893021","osmObjectType":"relation","osmObjectId":9893021,"sourceVersion":4,"sourceTimestamp":"2021-10-31T14:53:23Z","outerRingCount":1,"innerRingCount":0,"vertexCount":268},"features":[{"type":"Feature","properties":{"kind":"outside-lake-focus-mask"},"geometry":{"type":"Polygon","coordinates":[[[5,54],[30,54],[30,71],[5,71],[5,54]],[[14.1821631,57.7710783],[14.1825126,57.7712096],[14.1826408,57.7713931],[14.182809,57.7715688],[14.1830415,57.7717416],[14.1835501,57.7720079],[14.183946,57.7721527],[14.1842501,57.7721805],[14.184514,57.7721696],[14.1850525,57.7722138],[14.1852436,57.7723106],[14.1853622,57.7723946],[14.1855886,57.7724567],[14.1858913,57.7726209],[14.1860889,57.772861],[14.1860988,57.7729954],[14.1861279,57.7731073],[14.1861618,57.773153],[14.1862093,57.7732172],[14.1863542,57.7733896],[14.1864163,57.773443],[14.1864792,57.7734755],[14.1865106,57.7735072],[14.1865519,57.7735592],[14.1866534,57.7736173],[14.1867949,57.7736635],[14.1869274,57.7737201],[14.1870503,57.7737376],[14.1871724,57.773753],[14.1872106,57.77376],[14.1872428,57.7737816],[14.1872938,57.7738128],[14.1873025,57.773846],[14.1873128,57.7739288],[14.1872924,57.7740004],[14.187214,57.7740833],[14.1871538,57.7741332],[14.1869719,57.7741544],[14.18672,57.7741593],[14.1865778,57.7742145],[14.1864725,57.7742671],[14.1863513,57.7743256],[14.1862408,57.7744756],[14.1861782,57.7745825],[14.1861395,57.7747642],[14.1861681,57.7749088],[14.1861995,57.7750305],[14.1862846,57.7751004],[14.1863389,57.7751461],[14.18639,57.7751878],[14.1864218,57.7751978],[14.1864538,57.7752079],[14.1865561,57.7752508],[14.1866829,57.7753197],[14.1867456,57.7753888],[14.1867454,57.7754421],[14.1867507,57.7754953],[14.1868423,57.7755353],[14.1870567,57.7755626],[14.1871041,57.7755968],[14.1871409,57.7756343],[14.1871889,57.7756586],[14.1872977,57.7757017],[14.1873048,57.7757256],[14.1873346,57.7757539],[14.1873536,57.775751],[14.1873535,57.7757196],[14.1872829,57.7756264],[14.1872973,57.775601],[14.1873543,57.7756022],[14.1874943,57.7757726],[14.1876626,57.7759449],[14.187803,57.7762565],[14.1881657,57.7767199],[14.188346,57.7768955],[14.1883733,57.7770547],[14.1884557,57.7771309],[14.1885584,57.7771713],[14.1885962,57.7772136],[14.1886835,57.777235],[14.1888074,57.7772804],[14.1889991,57.7773839],[14.1891045,57.777626],[14.1891743,57.7776287],[14.1892467,57.7776418],[14.1893376,57.7776898],[14.1894283,57.7777075],[14.1894393,57.7777296],[14.189432,57.777742],[14.1893948,57.7777566],[14.1893049,57.777785],[14.1893049,57.7778032],[14.1893305,57.7778247],[14.189388,57.7778423],[14.1894056,57.7778571],[14.1898701,57.7776763],[14.1899031,57.7776982],[14.1902333,57.7778884],[14.190396,57.7779954],[14.1903911,57.7780078],[14.190451,57.7780351],[14.1904876,57.7780345],[14.1905463,57.7780436],[14.1905915,57.7780684],[14.1906061,57.7780886],[14.1906293,57.7781088],[14.1906636,57.7781244],[14.1907137,57.7781146],[14.1907442,57.7781198],[14.1907572,57.7781298],[14.1907638,57.7781348],[14.1907589,57.778157],[14.1907316,57.7782138],[14.1907239,57.7782297],[14.1908456,57.7782775],[14.1909153,57.7783185],[14.1910607,57.7783211],[14.1912809,57.7783091],[14.1915792,57.7782403],[14.1917058,57.778211],[14.1918011,57.7781941],[14.191988,57.7781426],[14.19211,57.7781187],[14.1921957,57.7781029],[14.192335,57.7780684],[14.192467,57.7780117],[14.19273,57.7779553],[14.1930119,57.7778925],[14.1932673,57.7778345],[14.1934982,57.7777713],[14.1938384,57.7776417],[14.1940753,57.7775082],[14.1942598,57.777484],[14.1944188,57.7774874],[14.1945772,57.7775501],[14.1946424,57.7776711],[14.1946357,57.7777231],[14.1946931,57.7777577],[14.1948021,57.7778236],[14.1948617,57.7778493],[14.1949618,57.7778925],[14.1950274,57.7779208],[14.195319,57.7780467],[14.1955908,57.7781023],[14.195666,57.7780517],[14.1957422,57.7780003],[14.1952163,57.77783],[14.1951851,57.7778168],[14.1951275,57.7777924],[14.1949889,57.7777337],[14.1949541,57.7776979],[14.1949547,57.7776698],[14.1949792,57.7776241],[14.1950173,57.7775679],[14.1950062,57.7775365],[14.1949208,57.777478],[14.194875,57.7774435],[14.1948508,57.7774191],[14.1948592,57.7774021],[14.1949199,57.7773745],[14.1951246,57.777337],[14.1953045,57.7773285],[14.1954585,57.7773144],[14.1954653,57.7772782],[14.1955049,57.7772619],[14.195538,57.7772597],[14.1955853,57.7772252],[14.1959891,57.7769631],[14.1962231,57.7767879],[14.1963186,57.7766559],[14.1964581,57.7764664],[14.1964655,57.77635],[14.1964855,57.7763321],[14.1964776,57.7763251],[14.1956217,57.7760383],[14.1953933,57.7757923],[14.1953268,57.7755013],[14.1950781,57.7752018],[14.19469,57.7749907],[14.1940206,57.7749284],[14.1935857,57.7747562],[14.193246,57.7747494],[14.193053,57.774647],[14.1926124,57.7744638],[14.1918855,57.7743182],[14.1913224,57.7740266],[14.191064,57.7738226],[14.1909765,57.7736317],[14.1908781,57.773458],[14.1906601,57.7732364],[14.1906638,57.773068],[14.1906257,57.7729781],[14.1906275,57.7728328],[14.1906092,57.7727365],[14.1904319,57.7726208],[14.1902369,57.7724693],[14.1902079,57.7723579],[14.1902194,57.772273],[14.1901987,57.7721939],[14.1899505,57.7718399],[14.1899766,57.7717616],[14.1900273,57.7716852],[14.1901315,57.7716432],[14.190055,57.7714723],[14.189957,57.7713242],[14.1896343,57.7710346],[14.1893081,57.7709383],[14.1890785,57.7708705],[14.188823,57.7707751],[14.1887521,57.7706987],[14.1887926,57.7706374],[14.188895,57.7706008],[14.1889985,57.7705126],[14.1888177,57.7703672],[14.1887459,57.7702424],[14.1885584,57.7702138],[14.188379,57.7701864],[14.1881731,57.7701733],[14.187965,57.7700955],[14.187903,57.7699572],[14.1877468,57.7698007],[14.1876549,57.7696255],[14.1875683,57.7695676],[14.1874596,57.7694633],[14.1873361,57.7691989],[14.186818,57.7691613],[14.1867357,57.7692404],[14.1866937,57.769298],[14.186599,57.7693189],[14.1864936,57.7692926],[14.1864686,57.7692148],[14.1864384,57.7691497],[14.186339,57.7690644],[14.1862074,57.7690707],[14.1861426,57.7690975],[14.18604,57.7691311],[14.1859646,57.7691072],[14.1858837,57.7691147],[14.1858133,57.7691412],[14.1857428,57.7691269],[14.185726,57.7690925],[14.1857729,57.7690525],[14.1857503,57.7690127],[14.1855265,57.7690257],[14.1851702,57.7690605],[14.1847365,57.769087],[14.1844058,57.7691797],[14.1841476,57.7692623],[14.1840738,57.7693881],[14.1840443,57.769519],[14.1840564,57.7696721],[14.1838874,57.7697028],[14.183936,57.7698747],[14.1838573,57.7699447],[14.183663,57.7700978],[14.1834949,57.7701439],[14.1834746,57.7702392],[14.1834341,57.7703476],[14.1832973,57.770389],[14.1831259,57.770388],[14.1830284,57.7704528],[14.1830123,57.7705528],[14.1829137,57.770684],[14.1827059,57.7708766],[14.1825234,57.7708449],[14.1824451,57.7708956],[14.1822876,57.7709977],[14.1821631,57.7710783]]]}}]}
