{"type":"FeatureCollection","pike":{"schemaVersion":1,"lakeId":"ryssbysjon","purpose":"non-interactive outside-lake focus mask","source":"https://www.openstreetmap.org/relation/2381619","osmObjectType":"relation","osmObjectId":2381619,"sourceVersion":3,"sourceTimestamp":"2024-08-30T17:45:45Z","outerRingCount":1,"innerRingCount":1,"vertexCount":201},"features":[{"type":"Feature","properties":{"kind":"outside-lake-focus-mask"},"geometry":{"type":"Polygon","coordinates":[[[5,54],[30,54],[30,71],[5,71],[5,54]],[[14.6223303,57.6986594],[14.6223593,57.6990608],[14.6228034,57.6991187],[14.6239471,57.699481],[14.624239,57.7000428],[14.62425,57.7005],[14.6245,57.70075],[14.624342,57.7010518],[14.6234901,57.7009784],[14.6226962,57.7011046],[14.6223314,57.7016796],[14.6224,57.7021221],[14.6230009,57.702344],[14.6239192,57.7023675],[14.6243362,57.702183],[14.62475,57.702],[14.6252078,57.7020894],[14.6256788,57.7025354],[14.6257775,57.7028525],[14.6263654,57.7035266],[14.626521,57.7040345],[14.6262367,57.7046966],[14.6259223,57.7048743],[14.6257152,57.70508],[14.6257217,57.7053575],[14.6261347,57.7053924],[14.6270521,57.7051895],[14.6278245,57.7053552],[14.6280606,57.7059439],[14.6285348,57.7065234],[14.6290648,57.7066919],[14.629627,57.7064947],[14.630142,57.7060631],[14.630628,57.7057089],[14.6312213,57.7057971],[14.6317084,57.7061244],[14.6319659,57.7065348],[14.632,57.707],[14.632307,57.7071906],[14.632954,57.7072743],[14.6335602,57.7071212],[14.6335108,57.706779],[14.6339035,57.7064408],[14.6347285,57.7063801],[14.6356995,57.7066862],[14.6359355,57.7069286],[14.6355643,57.7074044],[14.63528,57.7075952],[14.6346878,57.7076692],[14.6342586,57.707856],[14.6337898,57.7079724],[14.6335967,57.7085347],[14.6338423,57.709262],[14.6339003,57.7096775],[14.6334904,57.7102289],[14.6330666,57.7107866],[14.633161,57.7108833],[14.633307,57.711033],[14.634147,57.7112496],[14.6350697,57.7111849],[14.6354721,57.7115104],[14.6356566,57.7120291],[14.6360364,57.7127598],[14.6364891,57.713083],[14.6373303,57.7130945],[14.63825,57.713],[14.6387808,57.7126652],[14.6390877,57.7119958],[14.6395404,57.7115964],[14.6401766,57.7116004],[14.640785,57.7116096],[14.641036,57.7112943],[14.6416218,57.7109189],[14.6421196,57.7109642],[14.6422173,57.7112135],[14.6419651,57.7116451],[14.6424222,57.7131357],[14.6423728,57.7136452],[14.6424501,57.7141667],[14.642979,57.7146011],[14.6441002,57.7148292],[14.6456752,57.7146905],[14.6467502,57.714459],[14.6473789,57.7142481],[14.6474572,57.7140223],[14.6475195,57.7136452],[14.6473714,57.7132194],[14.6474641,57.7129822],[14.6478016,57.7127523],[14.6476858,57.7123173],[14.6476568,57.7119677],[14.6472008,57.7118199],[14.6468167,57.7111786],[14.64725,57.7105],[14.6476375,57.7101114],[14.6481525,57.7100077],[14.6498401,57.7091072],[14.6498596,57.708911],[14.6493627,57.7086206],[14.6496395,57.7079111],[14.65,57.7075],[14.6508937,57.7070559],[14.6511222,57.7067721],[14.6510748,57.7063756],[14.6513539,57.7061795],[14.6511919,57.7059444],[14.6508443,57.7056796],[14.6504753,57.7057507],[14.649883,57.7057134],[14.650059,57.7054796],[14.6504838,57.7050858],[14.6508154,57.7052039],[14.6510707,57.7053775],[14.651399,57.7054756],[14.6518249,57.7052864],[14.6522434,57.7052669],[14.6525652,57.7053282],[14.6526886,57.705056],[14.6522648,57.7047969],[14.6526242,57.7044363],[14.6523721,57.7037335],[14.6520073,57.7034578],[14.6511705,57.7031798],[14.6506308,57.7031121],[14.6503658,57.7032004],[14.6499796,57.7030777],[14.6498653,57.7027916],[14.6500193,57.7026249],[14.6495225,57.7025056],[14.6489282,57.7021187],[14.6491213,57.701362],[14.649044,57.7010272],[14.6492822,57.7004803],[14.6495612,57.7000761],[14.6492253,57.6994735],[14.6488198,57.6992207],[14.6484024,57.699145],[14.6481997,57.6988756],[14.6485,57.69875],[14.6487136,57.6987953],[14.6490226,57.6985482],[14.6489496,57.6983068],[14.6484239,57.6979302],[14.6484239,57.697393],[14.6489024,57.696412],[14.6491191,57.6957274],[14.6494968,57.6951144],[14.6492178,57.6945359],[14.6495,57.69425],[14.649883,57.6933083],[14.6497757,57.6927263],[14.649132,57.6923117],[14.6484454,57.6919103],[14.6472437,57.6917468],[14.6456559,57.6918002],[14.6445068,57.6922836],[14.6442611,57.6929206],[14.6438502,57.692951],[14.6426518,57.6926311],[14.6416862,57.6926219],[14.6403,57.6927945],[14.638,57.69425],[14.6385,57.69475],[14.6384225,57.6952113],[14.6379729,57.6953661],[14.6376307,57.695295],[14.6373088,57.6950657],[14.6370438,57.6952727],[14.6369591,57.6955169],[14.6365149,57.6957996],[14.635192,57.6958667],[14.6337715,57.6957956],[14.6333499,57.6956723],[14.6332533,57.6953489],[14.6334894,57.6950193],[14.6330323,57.6947148],[14.6325667,57.6945135],[14.6319605,57.6946196],[14.6314573,57.6945319],[14.6310067,57.6943128],[14.6300572,57.6943295],[14.6288974,57.6947257],[14.6283803,57.6950961],[14.6283181,57.6954997],[14.6275767,57.6958134],[14.6274598,57.6965318],[14.6271808,57.6970404],[14.6267302,57.6972777],[14.6257217,57.6972559],[14.6243237,57.6974744],[14.6237861,57.697544],[14.623297,57.6976074],[14.6223957,57.6981819],[14.6223303,57.6986594]]]}},{"type":"Feature","properties":{"kind":"lake-islands-focus-mask"},"geometry":{"type":"MultiPolygon","coordinates":[[[[14.6452053,57.7067148],[14.6454198,57.7066804],[14.6457632,57.7067836],[14.6456559,57.7068982],[14.6453125,57.7068982],[14.6452053,57.7067721],[14.6452053,57.7067148]]]]}}]}
