{"type":"FeatureCollection","pike":{"schemaVersion":1,"lakeId":"sandhemssjon","purpose":"non-interactive outside-lake focus mask","source":"https://www.openstreetmap.org/relation/123702","osmObjectType":"relation","osmObjectId":123702,"sourceVersion":8,"sourceTimestamp":"2025-08-31T21:18:11Z","outerRingCount":1,"innerRingCount":1,"vertexCount":214},"features":[{"type":"Feature","properties":{"kind":"outside-lake-focus-mask"},"geometry":{"type":"Polygon","coordinates":[[[5,54],[30,54],[30,71],[5,71],[5,54]],[[13.77521,57.98916],[13.77552,57.98966],[13.77584,57.99007],[13.77648,57.99062],[13.77637,57.99107],[13.77661,57.99139],[13.77701,57.99171],[13.77716,57.99207],[13.77681,57.99229],[13.77595,57.99254],[13.77565,57.99335],[13.7757,57.99389],[13.77619,57.99434],[13.77626,57.99453],[13.7764,57.99502],[13.77638,57.99538],[13.776316,57.9955781],[13.7764553,57.99579],[13.7765866,57.9959603],[13.77676,57.9961],[13.777,57.99642],[13.7773644,57.9964873],[13.7772572,57.9966732],[13.77747,57.9971],[13.77805,57.99734],[13.77863,57.99753],[13.77946,57.99772],[13.77995,57.99804],[13.78044,57.99832],[13.78076,57.99868],[13.78133,57.9991],[13.78191,57.99938],[13.7822989,57.9995482],[13.78265,57.9997],[13.78322,58.00011],[13.78354,58.00048],[13.78351,58.00084],[13.78367,58.00106],[13.78407,58.00143],[13.78416,58.00148],[13.78448,58.00175],[13.78515,58.0019],[13.78625,58.00191],[13.7865,58.00187],[13.78676,58.00183],[13.78699,58.00215],[13.78716,58.0022],[13.78715,58.00229],[13.78707,58.00238],[13.78673,58.00237],[13.78665,58.00228],[13.78614,58.00223],[13.78563,58.00231],[13.78487,58.00234],[13.78427,58.00238],[13.78392,58.0026],[13.78391,58.00286],[13.78431,58.00319],[13.78523,58.00338],[13.7854555,58.0035687],[13.78572,58.00379],[13.78654,58.00425],[13.78728,58.00462],[13.78735,58.00481],[13.78726,58.00498],[13.78733,58.00521],[13.78774,58.0054],[13.78807,58.00554],[13.78798,58.00571],[13.78796,58.00603],[13.78827,58.00648],[13.78894,58.00672],[13.7891211,58.006919],[13.7893218,58.0073651],[13.7896734,58.0075603],[13.79041,58.00764],[13.79099,58.00778],[13.79106,58.00801],[13.79088,58.00818],[13.79087,58.00845],[13.792001,58.0092159],[13.79372,58.01038],[13.79369,58.01088],[13.79483,58.01179],[13.79533,58.01194],[13.795573,58.0118984],[13.79609,58.01181],[13.7960976,58.0116071],[13.7957,58.01131],[13.79554,58.01118],[13.79563,58.01095],[13.7958891,58.0109873],[13.7961674,58.0113262],[13.7965036,58.0115507],[13.79703,58.01174],[13.79728,58.01174],[13.7979518,58.0113457],[13.79799,58.01117],[13.79734,58.0108],[13.79659,58.01056],[13.7966,58.01034],[13.79618,58.01029],[13.79586,58.00988],[13.7957,58.0097],[13.79615,58.0093],[13.79609,58.0089],[13.79577,58.00862],[13.79452,58.00829],[13.79377,58.00792],[13.79319,58.00782],[13.79261,58.00763],[13.79147,58.00671],[13.79096,58.0054],[13.79,58.00435],[13.79002,58.00399],[13.79019,58.00395],[13.79052,58.00414],[13.7910252,58.0040636],[13.79112,58.00401],[13.79121,58.00383],[13.79166,58.00348],[13.79167,58.00321],[13.79128,58.00271],[13.7903,58.00202],[13.78996,58.00202],[13.78913,58.00182],[13.78915,58.00138],[13.78928,58.00053],[13.78897,58.00003],[13.78783,57.99929],[13.78665,57.99923],[13.78596,57.99944],[13.7857759,57.999371],[13.78574,57.99894],[13.78549,57.99876],[13.78465,57.99866],[13.78426,57.9982],[13.78461,57.99785],[13.78498,57.99727],[13.78536,57.99669],[13.78556,57.99607],[13.7850463,57.9956197],[13.78483,57.99543],[13.78501,57.99529],[13.78683,57.9946],[13.78701,57.99443],[13.78744,57.99421],[13.7875299,57.9941375],[13.7875789,57.9940979],[13.7875548,57.9940254],[13.787458,57.9939959],[13.7872732,57.9940097],[13.78711,57.99407],[13.7869701,57.9940339],[13.786903,57.994068],[13.7867998,57.9942275],[13.7866294,57.9944234],[13.7864,57.99464],[13.78468,57.99524],[13.78418,57.9951],[13.78312,57.99437],[13.78324,57.99365],[13.7831354,57.9932616],[13.78296,57.99261],[13.78206,57.99215],[13.7820056,57.9919769],[13.7820713,57.991592],[13.7822036,57.9912952],[13.7823667,57.9909583],[13.7820872,57.9911759],[13.7818807,57.9914112],[13.78172,57.99214],[13.78101,57.99271],[13.78076,57.99276],[13.78068,57.99262],[13.78113,57.99222],[13.78123,57.99195],[13.78116,57.99164],[13.78083,57.99141],[13.78088,57.99065],[13.78141,57.99012],[13.781784,57.9894281],[13.7819132,57.9890912],[13.782367,57.9883971],[13.7823238,57.9879574],[13.78179,57.9878089],[13.7812167,57.987757],[13.7807981,57.9879128],[13.7804711,57.9880841],[13.7800151,57.9884708],[13.7798112,57.9885465],[13.7795678,57.9886132],[13.7792265,57.9885732],[13.7789544,57.9884238],[13.7788886,57.9882405],[13.7786525,57.9880471],[13.7780973,57.9877773],[13.7773812,57.987649],[13.77673,57.98766],[13.77587,57.98792],[13.77576,57.98846],[13.77567,57.9884974],[13.7755594,57.9885535],[13.77521,57.98916]]]}},{"type":"Feature","properties":{"kind":"lake-islands-focus-mask"},"geometry":{"type":"MultiPolygon","coordinates":[[[[13.78403,57.99914],[13.78405,57.99892],[13.78421,57.99896],[13.78454,57.99915],[13.7847183,57.9992937],[13.78478,57.99938],[13.78477,57.99951],[13.78452,57.99946],[13.78419,57.99928],[13.78403,57.99914]]]]}}]}
