{"type":"FeatureCollection","pike":{"schemaVersion":1,"lakeId":"spexhultasjon","purpose":"non-interactive outside-lake focus mask","source":"https://www.openstreetmap.org/relation/2402331","osmObjectType":"relation","osmObjectId":2402331,"sourceVersion":4,"sourceTimestamp":"2021-05-22T12:57:50Z","outerRingCount":1,"innerRingCount":5,"vertexCount":510},"features":[{"type":"Feature","properties":{"kind":"outside-lake-focus-mask"},"geometry":{"type":"Polygon","coordinates":[[[5,54],[30,54],[30,71],[5,71],[5,54]],[[14.6595541,57.6142077],[14.6596047,57.6144331],[14.660245,57.6150583],[14.6607519,57.6153831],[14.6612712,57.615536],[14.661389,57.6157117],[14.661,57.616],[14.6608898,57.6162619],[14.6611215,57.6164494],[14.6614525,57.6165867],[14.6617334,57.6166295],[14.6618455,57.6167415],[14.6621,57.6167328],[14.6623422,57.6166758],[14.6625313,57.6167619],[14.6625978,57.6168611],[14.6627563,57.6168819],[14.6629952,57.6168533],[14.6635017,57.6168953],[14.6638008,57.6168517],[14.6641329,57.6166709],[14.6645027,57.6163261],[14.6648533,57.6154864],[14.6652763,57.615096],[14.6661088,57.6148109],[14.667304,57.614536],[14.6677495,57.6145328],[14.6681438,57.6147535],[14.6687318,57.6151791],[14.66975,57.61575],[14.6701445,57.6160125],[14.6704709,57.6160493],[14.6707456,57.6159908],[14.6708722,57.6157666],[14.6710784,57.6157229],[14.6712909,57.6157447],[14.6717511,57.6157687],[14.6721057,57.6157223],[14.6723047,57.6157508],[14.672493,57.6158642],[14.6723123,57.616199],[14.671859,57.6167076],[14.6715846,57.6168519],[14.6710159,57.6169981],[14.6708944,57.6173001],[14.6710505,57.6178309],[14.6705326,57.6184915],[14.6704162,57.618917],[14.6708024,57.6201464],[14.671318,57.6213005],[14.6718206,57.6219327],[14.6718708,57.6226754],[14.6722422,57.6236291],[14.6719928,57.62498],[14.671753,57.6260824],[14.6720057,57.626171],[14.6719606,57.6264047],[14.6716198,57.626699],[14.6714735,57.626968],[14.6716294,57.627219],[14.6718866,57.6275654],[14.6716725,57.6280137],[14.6715116,57.6281803],[14.67201,57.6285852],[14.6722771,57.6288149],[14.6725644,57.6289753],[14.6727532,57.6292799],[14.6729635,57.6293408],[14.6732175,57.6292502],[14.6742646,57.6294718],[14.6747823,57.6295928],[14.6750226,57.6297966],[14.6750355,57.6299827],[14.6753684,57.6301648],[14.675889,57.6302023],[14.6763916,57.6301414],[14.6766451,57.629869],[14.6766775,57.6295009],[14.6769045,57.6292851],[14.6775458,57.6291708],[14.6777185,57.6290358],[14.6777716,57.6289298],[14.677394,57.6288481],[14.6774573,57.6287996],[14.6779055,57.6288263],[14.6779916,57.6285765],[14.6776118,57.6284443],[14.6777671,57.6282338],[14.6781149,57.6282722],[14.6781967,57.6281532],[14.6782118,57.6280798],[14.678222,57.6280137],[14.6783266,57.627953],[14.6784942,57.6277571],[14.6788011,57.6277262],[14.6791768,57.6277264],[14.6794252,57.6278721],[14.6796795,57.6278867],[14.6799793,57.6279032],[14.6801419,57.6279649],[14.6801886,57.6280732],[14.6801108,57.6282521],[14.6800357,57.6284361],[14.680166,57.6284548],[14.6802822,57.6284157],[14.6804962,57.6283726],[14.6806327,57.6283687],[14.6808806,57.6284008],[14.6811775,57.6283812],[14.6814358,57.6282496],[14.6816871,57.6277265],[14.681623,57.6275539],[14.6810002,57.6272924],[14.6808838,57.6269675],[14.6811016,57.6263533],[14.6811389,57.6259337],[14.6813534,57.625485],[14.6813848,57.624928],[14.6811571,57.624894],[14.6810576,57.6248128],[14.6810807,57.6246049],[14.681258,57.6243601],[14.6811504,57.6242217],[14.6808264,57.6242273],[14.6806453,57.6242043],[14.6805775,57.6240729],[14.6806512,57.6238371],[14.6813658,57.6232916],[14.6817139,57.6232653],[14.6820683,57.6234004],[14.6824443,57.6235961],[14.6828238,57.6235781],[14.6832964,57.6234263],[14.6835534,57.6232996],[14.6832704,57.6230215],[14.682878,57.6227024],[14.6821755,57.6222544],[14.6821168,57.621996],[14.6818218,57.6218436],[14.6816305,57.6217883],[14.6818049,57.6217372],[14.6820516,57.6215819],[14.6821082,57.6213571],[14.6818859,57.6212605],[14.6815661,57.6212477],[14.6808505,57.6205743],[14.680706,57.6202419],[14.6806424,57.6200553],[14.68071,57.6200177],[14.6809444,57.6200811],[14.6811917,57.6202557],[14.6813382,57.6204511],[14.6816332,57.6205077],[14.6818783,57.6206065],[14.6820251,57.6205338],[14.6819822,57.6203739],[14.6820959,57.6203206],[14.6822681,57.6203966],[14.682429,57.6203761],[14.6827442,57.6201721],[14.6826267,57.6197899],[14.6821278,57.6192297],[14.6818419,57.6187963],[14.6818051,57.6182841],[14.6813314,57.6174918],[14.6812963,57.6164486],[14.6811193,57.6162935],[14.6810171,57.6160724],[14.6808167,57.6158203],[14.6806523,57.615561],[14.6808336,57.6153601],[14.6806507,57.6151878],[14.6804372,57.6151559],[14.6803675,57.6150593],[14.6805662,57.6145496],[14.6804788,57.614237],[14.6801751,57.6140441],[14.6802065,57.6136735],[14.6801269,57.6133139],[14.6797672,57.6130727],[14.6791918,57.6128781],[14.6791344,57.612791],[14.6793901,57.612593],[14.6797896,57.6121131],[14.6797382,57.6118965],[14.6794518,57.6117278],[14.6791554,57.6113603],[14.6788831,57.61068],[14.6788306,57.6101629],[14.6786047,57.6097948],[14.6782869,57.6096474],[14.6781742,57.6095273],[14.6782429,57.6094467],[14.6785468,57.6094112],[14.6786079,57.609366],[14.6783094,57.6089203],[14.678421,57.608745],[14.6779806,57.6083834],[14.6778693,57.6081881],[14.6780465,57.6078111],[14.6777837,57.607028],[14.6781155,57.6063615],[14.6784685,57.6054462],[14.678572,57.6050041],[14.6788992,57.6046364],[14.6790752,57.6045934],[14.6792576,57.6044462],[14.6794088,57.6042095],[14.6795947,57.6040034],[14.680272,57.6037462],[14.6809125,57.6032538],[14.6812582,57.6031558],[14.6820202,57.6027168],[14.68212,57.6025584],[14.6827106,57.6023108],[14.6829952,57.6021454],[14.6832667,57.6018725],[14.6839774,57.6014281],[14.6843385,57.6011522],[14.6843202,57.6009279],[14.6841716,57.6007492],[14.6841974,57.6006342],[14.6840778,57.6005288],[14.6837111,57.6003253],[14.6837656,57.600185],[14.6840472,57.6001722],[14.6846405,57.5997193],[14.6852799,57.5991723],[14.6853389,57.5989312],[14.6858381,57.5982584],[14.6859365,57.5978693],[14.6857372,57.597559],[14.6854106,57.5973749],[14.6848419,57.5972485],[14.6844077,57.597372],[14.6841561,57.5975344],[14.6842167,57.5977272],[14.683901,57.597821],[14.6834528,57.5977694],[14.6830827,57.5976307],[14.6827957,57.5976457],[14.6827222,57.5977974],[14.6824454,57.5977476],[14.6821171,57.5976336],[14.6813524,57.597321],[14.6808698,57.5970252],[14.6806993,57.5967116],[14.6804206,57.5959151],[14.6805541,57.5956883],[14.6805059,57.5950386],[14.6803793,57.5949125],[14.6803476,57.5948269],[14.6805936,57.5946902],[14.6808578,57.5943751],[14.6809404,57.5939259],[14.6807913,57.5935141],[14.6806456,57.5933045],[14.68032,57.5932496],[14.6795869,57.5931731],[14.6790215,57.5930429],[14.6789555,57.592885],[14.678638,57.5928945],[14.6785519,57.5930056],[14.6783861,57.5932019],[14.6778625,57.593339],[14.6775498,57.5934717],[14.6772676,57.593637],[14.6772118,57.5937439],[14.6767781,57.5940143],[14.6765577,57.5939966],[14.676,57.59425],[14.675819,57.5944342],[14.6760105,57.5947738],[14.675888,57.5950543],[14.6758329,57.5954498],[14.6760714,57.5956961],[14.67625,57.596],[14.6758855,57.5964648],[14.6754746,57.5966339],[14.6752667,57.5968833],[14.6752772,57.5971162],[14.6751954,57.5972704],[14.6752935,57.5975962],[14.6755867,57.5977377],[14.6758683,57.5977717],[14.6760703,57.5977316],[14.6762334,57.5977552],[14.6764734,57.5978923],[14.6764986,57.5980484],[14.6764018,57.598212],[14.6764131,57.5984274],[14.6762015,57.5985271],[14.6757522,57.5986177],[14.6751089,57.5985544],[14.6748735,57.5986059],[14.6746139,57.5985566],[14.6743505,57.5985795],[14.6741565,57.5984949],[14.6740769,57.5982489],[14.6739387,57.5980508],[14.6738065,57.5979269],[14.6739893,57.5976807],[14.67377,57.5973289],[14.6733232,57.5972143],[14.6728581,57.5972311],[14.6726811,57.5973892],[14.672632,57.5976044],[14.6723815,57.5977095],[14.6719123,57.5979216],[14.6717506,57.5980741],[14.6714574,57.5982289],[14.6709577,57.5982809],[14.6707169,57.598167],[14.670601,57.5979714],[14.670277,57.5977372],[14.6700144,57.5976684],[14.6699358,57.5975892],[14.6700761,57.5973694],[14.670019,57.5971166],[14.669733,57.5970145],[14.6694927,57.5970827],[14.6692639,57.5970667],[14.6690051,57.5970845],[14.6685657,57.5973062],[14.6679904,57.5974098],[14.6675186,57.5974733],[14.6673418,57.5976198],[14.66675,57.59775],[14.6666217,57.5979333],[14.6666619,57.5980458],[14.666843,57.5981248],[14.6668703,57.5982347],[14.6667789,57.5984444],[14.6665967,57.5985682],[14.6665895,57.5984193],[14.6664615,57.5982979],[14.6662421,57.5982809],[14.6659906,57.5983412],[14.6658146,57.5985333],[14.6658672,57.5986745],[14.6660415,57.598759],[14.6663958,57.5987465],[14.6665747,57.598795],[14.6665804,57.5989086],[14.6664565,57.5990543],[14.6662765,57.5991095],[14.6661847,57.5993008],[14.6662105,57.5993835],[14.6661349,57.5995423],[14.6658795,57.5996127],[14.6659346,57.5996864],[14.665876,57.5998534],[14.6656604,57.600002],[14.6653613,57.6000201],[14.665254,57.5999027],[14.6654251,57.5997591],[14.6653844,57.5996113],[14.6651435,57.5994131],[14.6648412,57.599356],[14.6645465,57.599494],[14.6643812,57.5997291],[14.6641779,57.5998672],[14.664264,57.6000821],[14.6643673,57.6004361],[14.6645,57.60125],[14.6642777,57.6014316],[14.6640344,57.6014425],[14.6635752,57.6016324],[14.6634937,57.6017476],[14.6636965,57.601928],[14.6637917,57.602204],[14.664046,57.6026046],[14.6639706,57.602806],[14.6636715,57.6028481],[14.6637482,57.6029804],[14.6639564,57.6031093],[14.663958,57.6032445],[14.6637517,57.6032885],[14.6635,57.60325],[14.6633403,57.6032561],[14.6631804,57.6033221],[14.6632872,57.6034542],[14.663565,57.6036357],[14.6637633,57.603836],[14.6639239,57.6041937],[14.6645102,57.6048398],[14.6649482,57.605108],[14.665103,57.605122],[14.6651019,57.6051691],[14.6649399,57.6053223],[14.6647001,57.6056686],[14.664691,57.605901],[14.6645414,57.6062968],[14.6647881,57.6063581],[14.664797,57.6065598],[14.6645261,57.6067279],[14.6642074,57.6067708],[14.6637879,57.6076736],[14.6639185,57.6080644],[14.6638923,57.6082657],[14.6636965,57.6083452],[14.6635763,57.6085901],[14.6638113,57.6086236],[14.6638035,57.6087665],[14.6640433,57.6089063],[14.6643928,57.6089985],[14.6649445,57.6089242],[14.6651974,57.6088515],[14.6652607,57.6087942],[14.6653964,57.6087525],[14.6655276,57.6087913],[14.6655799,57.6088906],[14.6654302,57.6090767],[14.6654715,57.6092745],[14.6657663,57.6093922],[14.6657033,57.6096028],[14.6653031,57.6098783],[14.6647146,57.610113],[14.6644193,57.6100234],[14.6643101,57.6100743],[14.6643531,57.6103001],[14.6638611,57.6104409],[14.6630348,57.6111044],[14.6630889,57.6113431],[14.6624549,57.611814],[14.6620906,57.6119222],[14.66175,57.61225],[14.6617194,57.6126018],[14.662162,57.612873],[14.661897,57.6131592],[14.661559,57.6132243],[14.6612219,57.6131727],[14.6607828,57.6133513],[14.6601517,57.6137322],[14.659667,57.6141099],[14.6595541,57.6142077]]]}},{"type":"Feature","properties":{"kind":"lake-islands-focus-mask"},"geometry":{"type":"MultiPolygon","coordinates":[[[[14.6666083,57.6084808],[14.6666297,57.6084003],[14.6667692,57.6083601],[14.667016,57.6083716],[14.6672305,57.6084118],[14.6672091,57.6084866],[14.6671018,57.6085095],[14.6668872,57.6085153],[14.6667048,57.6085325],[14.6666083,57.6084808]]],[[[14.6667907,57.6007726],[14.6668658,57.6007037],[14.6668979,57.6006462],[14.6671125,57.6006347],[14.6673378,57.6007037],[14.6675846,57.6008474],[14.6675202,57.6009738],[14.6672413,57.6009853],[14.6669194,57.6009279],[14.6668014,57.6008589],[14.6667907,57.6007726]]],[[[14.6709749,57.5996804],[14.6710071,57.5995999],[14.6712324,57.5995079],[14.6716401,57.5994734],[14.6719298,57.5994964],[14.6720585,57.5995712],[14.6726808,57.5995999],[14.6728417,57.5995654],[14.672949,57.5994619],[14.6730563,57.5994562],[14.6732172,57.5994734],[14.6733245,57.5995424],[14.6733567,57.5996976],[14.6733031,57.5998299],[14.6730885,57.5998701],[14.6728203,57.5998586],[14.6726808,57.5997609],[14.6723697,57.5997321],[14.6718332,57.5997609],[14.6714577,57.5998011],[14.6712109,57.5998241],[14.67105,57.5997724],[14.6709749,57.5996804]]],[[[14.6752235,57.6277811],[14.6753845,57.627649],[14.6756419,57.62758],[14.6758673,57.6276145],[14.6759424,57.6277179],[14.6757814,57.6279534],[14.6756312,57.6280281],[14.6754166,57.6280109],[14.675245,57.627919],[14.6752235,57.6277811]]],[[[14.679772,57.621726],[14.6799222,57.6214387],[14.6801797,57.6212434],[14.6802226,57.6209906],[14.6806732,57.6211744],[14.6808878,57.6211744],[14.681038,57.6215996],[14.6809951,57.621726],[14.6813813,57.6217949],[14.681274,57.6219443],[14.6812526,57.6220937],[14.6808605,57.6222247],[14.6807591,57.622358],[14.6806732,57.6225648],[14.6806732,57.6227487],[14.6802441,57.6227257],[14.6801797,57.6225648],[14.6801153,57.6222546],[14.6799222,57.6220707],[14.679772,57.621726]]]]}}]}
