{"type":"FeatureCollection","pike":{"schemaVersion":1,"lakeId":"straken","purpose":"non-interactive outside-lake focus mask","source":"https://www.openstreetmap.org/relation/8027895","osmObjectType":"relation","osmObjectId":8027895,"sourceVersion":10,"sourceTimestamp":"2021-02-19T18:17:09Z","outerRingCount":1,"innerRingCount":4,"vertexCount":1750},"features":[{"type":"Feature","properties":{"kind":"outside-lake-focus-mask"},"geometry":{"type":"Polygon","coordinates":[[[5,54],[30,54],[30,71],[5,71],[5,54]],[[13.8143861,57.9581558],[13.8145774,57.9582577],[13.8147068,57.9582417],[13.8148355,57.9581535],[13.8151122,57.9581837],[13.8167961,57.9573458],[13.8173161,57.9569958],[13.8176948,57.9569126],[13.8180917,57.9569496],[13.8184961,57.9570558],[13.8190627,57.9567589],[13.8194328,57.9567134],[13.8195876,57.9567715],[13.8192759,57.9571103],[13.8189436,57.9572958],[13.8183861,57.9575458],[13.817904,57.9577579],[13.8170403,57.9584694],[13.816355,57.9587972],[13.8159696,57.9592585],[13.8157743,57.9595309],[13.8158261,57.9596658],[13.8161391,57.9596903],[13.8165583,57.9596673],[13.8169223,57.9595537],[13.8173729,57.9595025],[13.8181842,57.9594386],[13.8185316,57.9591268],[13.8187301,57.9588906],[13.8189017,57.9588341],[13.8191915,57.9589134],[13.8193846,57.9590443],[13.8193907,57.9591842],[13.8191559,57.95937],[13.8184512,57.9596647],[13.8179469,57.9598383],[13.8176787,57.9600574],[13.8173193,57.9604501],[13.81736,57.9606285],[13.8181561,57.9618058],[13.8188461,57.9629858],[13.8195461,57.9640758],[13.8201661,57.9650258],[13.8201461,57.9655258],[13.8190461,57.9654658],[13.8174661,57.9650358],[13.8183661,57.9656258],[13.8196061,57.9661458],[13.8206761,57.9666058],[13.8211861,57.9664858],[13.8213361,57.9669358],[13.8205461,57.9673658],[13.8224103,57.967746],[13.8244761,57.9666658],[13.8248761,57.9671258],[13.8238361,57.9676058],[13.8235561,57.9680458],[13.8241192,57.9682857],[13.8254761,57.9683858],[13.8263,57.96887],[13.82661,57.96936],[13.82726,57.96978],[13.82714,57.9705],[13.8262,57.97066],[13.8256842,57.9706031],[13.82561,57.97061],[13.8255338,57.9706669],[13.8254736,57.9707289],[13.8255214,57.9709063],[13.8256913,57.9710442],[13.8257727,57.9711672],[13.8257885,57.9712403],[13.8258099,57.9713389],[13.8257019,57.9714459],[13.8255331,57.97154],[13.8254276,57.9716693],[13.825486,57.9716861],[13.825434,57.971877],[13.8255331,57.9720455],[13.8256934,57.9721722],[13.8257925,57.9722727],[13.8258916,57.9724644],[13.8260111,57.972619],[13.8261831,57.9728431],[13.82659,57.97291],[13.8267719,57.9729529],[13.8268972,57.9729142],[13.8271858,57.9729575],[13.8272091,57.9730209],[13.8275181,57.9731492],[13.8275298,57.9731755],[13.8277659,57.9734475],[13.8278591,57.9735356],[13.8278679,57.9735758],[13.8278329,57.9736191],[13.8277367,57.9737149],[13.82737,57.97405],[13.82742,57.97459],[13.82824,57.97514],[13.8285789,57.9753741],[13.828576,57.9755612],[13.8286459,57.9755797],[13.8287159,57.9756184],[13.8287684,57.9764484],[13.8290336,57.9766493],[13.82962,57.97758],[13.83098,57.97904],[13.831079,57.9794355],[13.8312292,57.9795293],[13.8316552,57.9796723],[13.8317925,57.9797455],[13.8323128,57.9798109],[13.8325703,57.9799076],[13.8328115,57.9799769],[13.8328761,57.9800953],[13.832742,57.9801864],[13.8323772,57.9803087],[13.8322766,57.9805163],[13.8323128,57.9806727],[13.83241,57.98077],[13.8325435,57.9809173],[13.83286,57.9809515],[13.8331711,57.9809287],[13.8335611,57.9807418],[13.8337505,57.9808373],[13.8336701,57.9809721],[13.83301,57.98208],[13.8332784,57.9823593],[13.8334018,57.9827575],[13.8335695,57.9828411],[13.8339168,57.982985],[13.8341635,57.983241],[13.8341635,57.9834059],[13.8340509,57.9835026],[13.8341438,57.9836728],[13.8339972,57.9837728],[13.8341314,57.9839207],[13.8342279,57.9842392],[13.8350257,57.9848768],[13.836473,57.9856108],[13.8367948,57.9860615],[13.83651,57.98613],[13.83629,57.98698],[13.8367117,57.9874859],[13.83821,57.98751],[13.8392947,57.9881886],[13.8381869,57.9887238],[13.8376794,57.9883504],[13.8365567,57.9888031],[13.83711,57.98902],[13.8376,57.98934],[13.8374777,57.9901114],[13.83813,57.9907205],[13.83785,57.99091],[13.83758,57.99131],[13.83782,57.99159],[13.83842,57.99137],[13.8390157,57.9915425],[13.8391192,57.9919665],[13.8391455,57.9926742],[13.83983,57.9929315],[13.841103,57.99411],[13.8435154,57.9941279],[13.8438319,57.9939207],[13.8451403,57.9937327],[13.8461903,57.9943517],[13.8467115,57.9943653],[13.8460528,57.9936142],[13.8456134,57.9934916],[13.8447444,57.9934834],[13.8431608,57.9936247],[13.8424436,57.9926568],[13.8421904,57.9923464],[13.8414383,57.992238],[13.8402576,57.9928411],[13.83987,57.99265],[13.8397286,57.992325],[13.84051,57.99181],[13.84097,57.9911],[13.84001,57.99005],[13.8394298,57.9892026],[13.8397195,57.9882475],[13.8388,57.98747],[13.83831,57.98724],[13.83713,57.98717],[13.8366935,57.9867392],[13.8368437,57.9864613],[13.8381445,57.986078],[13.8379981,57.9854706],[13.8372744,57.9852291],[13.83686,57.98434],[13.83635,57.98442],[13.8367407,57.9850943],[13.8352166,57.9843614],[13.8349377,57.9833376],[13.8354548,57.983289],[13.8361436,57.9840586],[13.836606,57.9840267],[13.83681,57.9838],[13.83684,57.98308],[13.8373946,57.9827284],[13.83731,57.98233],[13.8356,57.98113],[13.8341947,57.9806439],[13.8338311,57.9805182],[13.8337398,57.9799531],[13.8336915,57.9794724],[13.8336593,57.9792705],[13.8335203,57.9790335],[13.8331834,57.9788293],[13.8323396,57.9787357],[13.8317764,57.9787585],[13.831476,57.9788239],[13.8312775,57.9788097],[13.8310396,57.9786189],[13.82974,57.97705],[13.82944,57.97628],[13.8293018,57.9755689],[13.8293047,57.9752304],[13.82926,57.97497],[13.82894,57.97461],[13.82949,57.97381],[13.8289085,57.9735666],[13.8286257,57.9736207],[13.8284712,57.9736809],[13.828378,57.9737242],[13.828273,57.9737041],[13.8281943,57.9735774],[13.8279495,57.9733594],[13.8276755,57.9730224],[13.8274277,57.9728663],[13.8271916,57.9727782],[13.826938,57.9727411],[13.8268127,57.9726499],[13.8268069,57.9725139],[13.8270575,57.9722573],[13.8270925,57.9720779],[13.8276376,57.9717317],[13.8276201,57.971591],[13.8283051,57.9711288],[13.8285121,57.9711458],[13.8285441,57.9712076],[13.8286928,57.9712277],[13.8287219,57.971288],[13.8287,57.97142],[13.8288239,57.9714441],[13.8287831,57.9717657],[13.8288269,57.9718198],[13.8289231,57.9718213],[13.8289551,57.9718631],[13.82874,57.97214],[13.82855,57.97249],[13.82904,57.97277],[13.8295623,57.9728387],[13.8298,57.97287],[13.83029,57.9731],[13.8305694,57.9731575],[13.830784,57.9731205],[13.830902,57.9730124],[13.8309,57.97289],[13.8307429,57.9725484],[13.83067,57.97239],[13.8308966,57.9723268],[13.8310468,57.9720906],[13.8309663,57.9719256],[13.8307,57.97181],[13.8303159,57.9712118],[13.83,57.97072],[13.8294861,57.9692658],[13.8286761,57.9687058],[13.8298961,57.9679658],[13.8295861,57.9674658],[13.8295361,57.9668858],[13.8293631,57.9666696],[13.8290561,57.9662858],[13.8293422,57.9659652],[13.8288157,57.9654716],[13.8288581,57.9650567],[13.8282961,57.9647058],[13.8281361,57.9647058],[13.8269486,57.9649005],[13.8263811,57.9640986],[13.8259433,57.9638562],[13.8270361,57.9630258],[13.8278961,57.9629058],[13.8275061,57.9622658],[13.8263907,57.9615489],[13.8242061,57.9607858],[13.8244864,57.9606109],[13.8249761,57.9605658],[13.8249861,57.9605258],[13.8250861,57.9601658],[13.8243619,57.9599005],[13.8236268,57.9597445],[13.8227596,57.9597307],[13.8236387,57.9595827],[13.8251461,57.9589958],[13.8251061,57.9583258],[13.8256261,57.9579758],[13.8267361,57.9579058],[13.8271961,57.9571458],[13.8268628,57.9565152],[13.8251561,57.9558558],[13.8255786,57.9554846],[13.8271261,57.9552558],[13.8275484,57.9551602],[13.8282479,57.9546697],[13.8278418,57.954292],[13.827602,57.953548],[13.8283289,57.9534393],[13.8287452,57.9531595],[13.8289989,57.9526944],[13.8287784,57.9521009],[13.827352,57.9513511],[13.8262829,57.9508504],[13.8274761,57.9505458],[13.827992,57.948801],[13.8284399,57.948456],[13.8285537,57.9478029],[13.8288729,57.9475003],[13.8305561,57.9468258],[13.8308158,57.9461426],[13.830833,57.9455328],[13.8314354,57.94405],[13.8322857,57.9432073],[13.8310374,57.94208],[13.8348861,57.9416858],[13.8352908,57.9415015],[13.8354561,57.9412888],[13.8352415,57.9405835],[13.8357861,57.9392258],[13.8358525,57.9378843],[13.8361953,57.9374036],[13.8370187,57.9366757],[13.8373669,57.9365644],[13.8377891,57.9359564],[13.8376061,57.9351258],[13.8350361,57.9328358],[13.8341702,57.9318998],[13.8344749,57.9316787],[13.8352796,57.9325861],[13.8362237,57.9328373],[13.8372194,57.9334218],[13.8391025,57.9331644],[13.8398123,57.9328177],[13.8408761,57.9325758],[13.8422161,57.9312458],[13.8427861,57.9300458],[13.842705,57.9299077],[13.8424861,57.9294058],[13.8436061,57.9288458],[13.8431961,57.9287458],[13.8423361,57.9289558],[13.8418761,57.9296658],[13.8407961,57.9293358],[13.8416375,57.9284306],[13.8413779,57.9271516],[13.8402009,57.9265238],[13.8407993,57.9252126],[13.8412928,57.9245859],[13.8412499,57.9242669],[13.8409603,57.9239307],[13.8404799,57.9237058],[13.8393617,57.923492],[13.8386536,57.9232242],[13.8381474,57.9229658],[13.8384765,57.9221388],[13.8387036,57.9217464],[13.8402468,57.9209764],[13.8413274,57.9203658],[13.8419044,57.9199394],[13.8419473,57.9195405],[13.8417374,57.9189758],[13.8432274,57.9180158],[13.8423174,57.9176858],[13.8423374,57.9174158],[13.8430674,57.9163558],[13.8408074,57.9165275],[13.8405432,57.9161473],[13.8404729,57.9160645],[13.8404888,57.9159818],[13.8406249,57.9159268],[13.8407117,57.9158817],[13.8408545,57.9157914],[13.8408858,57.915743],[13.8409723,57.9157057],[13.8410712,57.9156979],[13.8412027,57.9157448],[13.8414133,57.9157683],[13.8417625,57.9157901],[13.8424899,57.9154951],[13.8431316,57.9151716],[13.8436374,57.9136258],[13.8448924,57.9126964],[13.8451981,57.9126394],[13.8456702,57.9124228],[13.8455737,57.9123715],[13.8460457,57.9120637],[13.846271,57.9113855],[13.8468987,57.9111775],[13.8471649,57.9108316],[13.8469952,57.9100632],[13.846432,57.9095531],[13.8462073,57.9090734],[13.8462762,57.9088531],[13.8466626,57.9082535],[13.8463783,57.9079286],[13.8459814,57.9077946],[13.8449889,57.9075296],[13.8444462,57.9073427],[13.843857,57.9070508],[13.8439858,57.9069225],[13.8442594,57.9068655],[13.8454035,57.9062871],[13.845756,57.9058281],[13.8456863,57.9057112],[13.84574,57.9055659],[13.8456219,57.9054091],[13.8456074,57.9052958],[13.8452572,57.9051013],[13.8447905,57.9052181],[13.8442579,57.9051532],[13.8441038,57.9049588],[13.8444574,57.9048358],[13.844651,57.9048276],[13.8449514,57.9046224],[13.8452335,57.9045633],[13.8454556,57.9048533],[13.8454825,57.9049673],[13.8458674,57.9051258],[13.8462374,57.9045958],[13.8468774,57.9036158],[13.8467538,57.9029977],[13.8460664,57.9022123],[13.846055,57.9020498],[13.8462764,57.9019288],[13.846389,57.9017692],[13.8463139,57.9017179],[13.8460082,57.9016124],[13.8458633,57.9015383],[13.8458861,57.9014977],[13.8459545,57.9013758],[13.8461584,57.9012989],[13.8462871,57.9012989],[13.8464266,57.9013274],[13.8466358,57.9013872],[13.84655,57.9011164],[13.8465822,57.9006917],[13.8466519,57.9004893],[13.8467318,57.9002389],[13.8466552,57.9001792],[13.8465596,57.9000853],[13.8465488,57.8999099],[13.8465017,57.8998137],[13.8465506,57.8996677],[13.8466959,57.8995351],[13.8469131,57.8994464],[13.8471733,57.8993215],[13.8473064,57.8991723],[13.847419,57.8990811],[13.8475555,57.8990221],[13.8477224,57.8989954],[13.8480077,57.8989811],[13.8482176,57.8989611],[13.8483397,57.8989296],[13.8484419,57.8988771],[13.8487147,57.8987865],[13.8489318,57.8987389],[13.8494235,57.8986559],[13.8499313,57.8985882],[13.8504123,57.898489],[13.8507263,57.8983898],[13.8509919,57.8982678],[13.851331,57.8981848],[13.8516199,57.8981839],[13.8518424,57.8982268],[13.8521439,57.8982878],[13.8523144,57.898283],[13.8525728,57.8982592],[13.8528114,57.8982554],[13.8530914,57.8982363],[13.8534036,57.8981266],[13.8535759,57.8980504],[13.8536889,57.897913],[13.8538563,57.8976813],[13.8534774,57.8971558],[13.8537008,57.8969715],[13.8538885,57.8968517],[13.8539904,57.8966864],[13.8540548,57.8963471],[13.8541974,57.8961858],[13.8542908,57.8959138],[13.8544464,57.8958339],[13.8547736,57.8957883],[13.8554817,57.8957342],[13.8558412,57.8957513],[13.8560879,57.8957484],[13.8563561,57.8959366],[13.8567209,57.8960563],[13.8569689,57.8961645],[13.8576329,57.8963329],[13.8579708,57.8963956],[13.8583541,57.8963278],[13.8588588,57.8962728],[13.8590974,57.8961533],[13.8593709,57.8961476],[13.8595748,57.8960991],[13.8597171,57.8960262],[13.8603974,57.8954258],[13.8604867,57.8951298],[13.8604063,57.8948332],[13.8602668,57.8946736],[13.859961,57.8944769],[13.8597465,57.8944084],[13.8594682,57.8944833],[13.8590491,57.8946764],[13.8589632,57.8948104],[13.8588613,57.8948503],[13.8587594,57.8947591],[13.8584825,57.8943854],[13.8583946,57.894129],[13.8584644,57.8939323],[13.8587199,57.8937633],[13.8592744,57.893459],[13.8595656,57.8932018],[13.8597679,57.8927548],[13.8597947,57.8923242],[13.8599173,57.8914686],[13.8594621,57.891446],[13.859151,57.8913462],[13.8590995,57.8911349],[13.8596874,57.8905136],[13.8601756,57.8901601],[13.8604277,57.8899262],[13.8604474,57.8898158],[13.8606477,57.8896896],[13.8609803,57.8895327],[13.8614201,57.8891392],[13.8617849,57.8887429],[13.8620374,57.8884858],[13.8623321,57.8883408],[13.8632065,57.8880927],[13.8640648,57.8878846],[13.8649285,57.8877762],[13.8653576,57.8876821],[13.8656473,57.8875652],[13.8658243,57.8873798],[13.8658029,57.8871061],[13.8657653,57.8869578],[13.8660765,57.8868009],[13.8662674,57.8866658],[13.8664091,57.8865072],[13.8669884,57.8862905],[13.8671374,57.8861858],[13.8676774,57.8854758],[13.8678092,57.8851726],[13.8679433,57.8848075],[13.8679165,57.8845423],[13.8677623,57.884179],[13.8676429,57.8838978],[13.8674498,57.8833074],[13.8674229,57.8823748],[13.8676053,57.8818358],[13.8665539,57.8812397],[13.8664573,57.8810857],[13.8665217,57.8808718],[13.8666451,57.8807577],[13.8669026,57.8805637],[13.867085,57.8801131],[13.8670957,57.879691],[13.8671064,57.8794257],[13.8673478,57.8791091],[13.8674819,57.8787839],[13.8674176,57.8786099],[13.8670152,57.8783504],[13.8665807,57.8781422],[13.8664949,57.8779311],[13.8665914,57.8777371],[13.8666075,57.8776287],[13.8663232,57.8774775],[13.8660604,57.8773577],[13.8657975,57.8772864],[13.8647246,57.8772978],[13.8644081,57.8772408],[13.8644028,57.8771552],[13.864392,57.8770326],[13.864215,57.8770097],[13.8641345,57.877024],[13.863861,57.8770639],[13.8637322,57.8769242],[13.8634372,57.8769698],[13.8630402,57.876927],[13.8626808,57.8769185],[13.8624233,57.8769955],[13.8621604,57.8770069],[13.8618922,57.8769755],[13.8617527,57.8769185],[13.8617635,57.8768443],[13.8621874,57.8763258],[13.862493,57.8761084],[13.8629007,57.8759372],[13.8635552,57.8758602],[13.8637054,57.8759001],[13.8638127,57.8759686],[13.8639682,57.876077],[13.8641077,57.8760599],[13.8643652,57.8760627],[13.8647622,57.87594],[13.8651967,57.875709],[13.8655561,57.8756505],[13.8659531,57.8756491],[13.8662615,57.8755835],[13.866275,57.8755065],[13.8661543,57.875351],[13.8659155,57.8752825],[13.8655266,57.8751898],[13.8649124,57.8750871],[13.8647174,57.8747858],[13.8652128,57.8743654],[13.8652718,57.8742199],[13.8652182,57.8740431],[13.8650787,57.8738063],[13.864907,57.8735581],[13.8646173,57.8733983],[13.864392,57.8732101],[13.8641185,57.8730303],[13.8638288,57.8729077],[13.863582,57.8728021],[13.8633031,57.8726423],[13.8632977,57.8725111],[13.8635713,57.8725425],[13.8641292,57.8726481],[13.8649874,57.8728658],[13.8653952,57.8730104],[13.8655508,57.8732215],[13.8658029,57.873638],[13.8666397,57.8737264],[13.8667846,57.8733755],[13.8666129,57.8731501],[13.8665874,57.8728458],[13.8668972,57.8725339],[13.8671494,57.8724056],[13.8677716,57.8720889],[13.8680774,57.8718778],[13.8683242,57.8716039],[13.8685173,57.8713386],[13.8684744,57.8710989],[13.86841,57.8709962],[13.8682491,57.8709306],[13.868174,57.8707965],[13.8681096,57.8706254],[13.8682008,57.8704856],[13.8684154,57.87038],[13.8684422,57.8701803],[13.8685334,57.8700091],[13.8683778,57.8699635],[13.8678145,57.8699064],[13.8668489,57.8698436],[13.8660335,57.8696753],[13.8655776,57.8695811],[13.8654756,57.8695013],[13.865422,57.8693044],[13.8655347,57.8691189],[13.8657224,57.8688964],[13.8658458,57.8687309],[13.866173,57.868457],[13.8665754,57.868263],[13.8670152,57.8681289],[13.8673907,57.8680091],[13.8675946,57.8679805],[13.8678575,57.8680148],[13.868072,57.8680319],[13.8682491,57.8681318],[13.8684797,57.8681403],[13.8686031,57.8680233],[13.8686997,57.8678892],[13.8689035,57.8677865],[13.8693058,57.8676553],[13.8697618,57.8675412],[13.8702607,57.8672302],[13.8704538,57.8670475],[13.8705665,57.8668307],[13.8703251,57.8667137],[13.8693756,57.8666509],[13.8689786,57.8665967],[13.8689893,57.8665397],[13.8690537,57.8664797],[13.869161,57.8664598],[13.8701051,57.8665739],[13.8702446,57.8666081],[13.870486,57.8666167],[13.870706,57.8665511],[13.8709874,57.8663558],[13.8712424,57.8662001],[13.8710815,57.8659804],[13.8712209,57.8658891],[13.871294,57.8658158],[13.8715965,57.8655125],[13.871693,57.8651815],[13.8719666,57.8649988],[13.8721651,57.8648077],[13.8721758,57.864665],[13.872149,57.8643654],[13.8719237,57.8638118],[13.8716555,57.8633324],[13.8715804,57.8627902],[13.8715482,57.8624478],[13.8716018,57.862191],[13.871752,57.8619627],[13.8716662,57.8617001],[13.8714945,57.8615632],[13.8713229,57.8614376],[13.8710868,57.8612949],[13.8707542,57.8611694],[13.8702714,57.8608954],[13.8699925,57.8606785],[13.8694346,57.8603075],[13.8691556,57.8602219],[13.868823,57.8602276],[13.8685119,57.8600735],[13.8686192,57.8598167],[13.8690054,57.8596112],[13.8699174,57.8589091],[13.8701642,57.8586808],[13.8703304,57.8585809],[13.8706309,57.8584668],[13.8707006,57.8583783],[13.8707474,57.8581758],[13.8713404,57.8574116],[13.871516,57.8571853],[13.8718378,57.8567572],[13.8719559,57.856272],[13.8718271,57.8559638],[13.8714892,57.8557497],[13.8710761,57.8555585],[13.8707864,57.8549991],[13.8698423,57.8539202],[13.869338,57.853335],[13.8692951,57.8532237],[13.8692415,57.8531638],[13.8679755,57.8527784],[13.8673371,57.8525073],[13.8671976,57.8522846],[13.8670474,57.8521562],[13.8671118,57.8520134],[13.8669723,57.8518736],[13.8668543,57.8517594],[13.8666374,57.8516958],[13.8667631,57.8515453],[13.8671225,57.8513426],[13.8670367,57.851003],[13.867144,57.8507061],[13.8670796,57.8505862],[13.8667074,57.8503058],[13.8668328,57.8496356],[13.866688,57.8491817],[13.8667363,57.848902],[13.8666826,57.8487392],[13.8654174,57.8477258],[13.8651274,57.8467258],[13.8661874,57.8458958],[13.8664509,57.8448286],[13.8651974,57.8439458],[13.864742,57.8437334],[13.864215,57.843529],[13.8637966,57.8432664],[13.8630343,57.8428072],[13.8628792,57.842723],[13.8627155,57.8427616],[13.8626283,57.8428426],[13.8624984,57.8428095],[13.8625252,57.8426696],[13.8626384,57.842504],[13.8629222,57.8423812],[13.8632762,57.8423841],[13.863979,57.8425012],[13.864342,57.8425116],[13.8659774,57.8418958],[13.8661874,57.8412658],[13.8660574,57.8405458],[13.8647774,57.8392758],[13.8633174,57.8382158],[13.8614674,57.8381858],[13.8617474,57.8376958],[13.8619745,57.8375432],[13.8618742,57.8370718],[13.8613291,57.8368625],[13.8608574,57.8369658],[13.8610574,57.8364758],[13.8621674,57.8361758],[13.8628674,57.8356458],[13.8630874,57.8346158],[13.8643574,57.8330258],[13.8645176,57.8328732],[13.8644177,57.8325301],[13.8639879,57.8321889],[13.8634874,57.8319758],[13.8632506,57.8318853],[13.8626132,57.8317555],[13.8622751,57.8316631],[13.8621289,57.8315176],[13.8621974,57.8308358],[13.8618174,57.8301558],[13.8620274,57.8292558],[13.8617051,57.8287538],[13.8603576,57.8282997],[13.8595735,57.8274422],[13.8584958,57.8266334],[13.8593045,57.8264711],[13.8593542,57.8266848],[13.8596543,57.8267639],[13.8599674,57.8268458],[13.8599974,57.8264458],[13.8596674,57.8261658],[13.8596974,57.8256358],[13.8596177,57.8251002],[13.8594836,57.8247974],[13.8590401,57.8246973],[13.8594085,57.8245603],[13.859328,57.8242547],[13.8595319,57.8238119],[13.8594874,57.8233858],[13.8610439,57.822239],[13.8628474,57.8218658],[13.8630574,57.8211958],[13.8623642,57.8210283],[13.8614523,57.8203004],[13.8611275,57.8196897],[13.8602862,57.8195865],[13.8595157,57.8194758],[13.8601274,57.8193558],[13.8605674,57.8188658],[13.8614374,57.8183358],[13.8616774,57.8170858],[13.8636774,57.8159058],[13.8652674,57.8144958],[13.8655076,57.8142435],[13.8658067,57.8140107],[13.8661889,57.8138212],[13.8670774,57.8135758],[13.8670107,57.8128422],[13.866279,57.8124021],[13.8657868,57.8120404],[13.8661774,57.8115458],[13.8656874,57.8112658],[13.8668674,57.8113258],[13.8672774,57.8114658],[13.8677074,57.8113858],[13.8675474,57.8111158],[13.8664674,57.8108258],[13.8654574,57.8109958],[13.8653374,57.8116658],[13.8652174,57.8121958],[13.8654883,57.8128039],[13.8649274,57.8129158],[13.8645865,57.8129098],[13.8643205,57.8123581],[13.8646574,57.8116958],[13.8649274,57.8113458],[13.8643474,57.8112858],[13.8635674,57.8116858],[13.8626374,57.8116658],[13.8627174,57.8118958],[13.8623674,57.8119758],[13.8609586,57.8119352],[13.8604704,57.8118066],[13.8602274,57.8111758],[13.8607274,57.8113258],[13.8607574,57.8107858],[13.8610291,57.8098407],[13.8599174,57.8091958],[13.8580574,57.8092158],[13.8585274,57.8083258],[13.858408,57.8078702],[13.8580352,57.8073908],[13.8578582,57.8071478],[13.85737,57.8069878],[13.8570405,57.8067001],[13.8552874,57.8060758],[13.8545433,57.8048349],[13.8528574,57.8043758],[13.8517574,57.8044958],[13.8522774,57.8040958],[13.8535474,57.8039858],[13.8565689,57.8034592],[13.8583474,57.8037258],[13.859549,57.8043681],[13.8602574,57.8044458],[13.8610274,57.8040958],[13.8621174,57.8041158],[13.8628804,57.8043544],[13.8634337,57.804506],[13.8633409,57.8043024],[13.8624629,57.8037178],[13.8624179,57.8036649],[13.8622854,57.8035781],[13.8619874,57.8035258],[13.8612191,57.8033484],[13.8609461,57.8032124],[13.8596875,57.8023626],[13.8586874,57.8022658],[13.8580874,57.8024358],[13.8572538,57.8022568],[13.8564974,57.8023658],[13.8563074,57.8026758],[13.8561777,57.8022546],[13.8563162,57.8020941],[13.8564219,57.8019901],[13.8572074,57.8016158],[13.8576774,57.8006758],[13.8577806,57.7995272],[13.8562874,57.7985058],[13.8570033,57.7964998],[13.8568752,57.7960632],[13.8565174,57.7957258],[13.8557793,57.795761],[13.8549776,57.795933],[13.8544025,57.7950748],[13.8548474,57.7939458],[13.855721,57.7936194],[13.8556466,57.7934678],[13.8555853,57.7932307],[13.8558974,57.7932458],[13.8562271,57.7929575],[13.8560436,57.7925932],[13.8552311,57.7929054],[13.8549185,57.792881],[13.8556264,57.792531],[13.8556341,57.7923629],[13.8557752,57.7918751],[13.8556711,57.791355],[13.8554737,57.7910239],[13.8551358,57.7907769],[13.8540055,57.7910011],[13.8541788,57.7906963],[13.8547554,57.7900978],[13.8562868,57.7885656],[13.856495,57.7874062],[13.8561544,57.7868738],[13.8551968,57.786651],[13.8544464,57.786434],[13.8546181,57.7862155],[13.8545002,57.7859654],[13.8542119,57.7857639],[13.8538724,57.7856349],[13.8533682,57.7856149],[13.8528854,57.7856521],[13.8526922,57.7857579],[13.8524508,57.7859466],[13.8524133,57.7861411],[13.8523275,57.7863413],[13.8522416,57.7865014],[13.8522363,57.7866959],[13.8522041,57.7868989],[13.8520861,57.7869389],[13.8519466,57.7869304],[13.8518339,57.7868446],[13.8516569,57.7866987],[13.8514209,57.7866673],[13.8511366,57.7866215],[13.8509273,57.7865043],[13.8504982,57.7864986],[13.8504875,57.7863763],[13.8505036,57.7863441],[13.8510829,57.7863327],[13.851295,57.7863377],[13.8515155,57.7862319],[13.8517574,57.7860889],[13.85185,57.785858],[13.8522413,57.7856202],[13.8521813,57.7852378],[13.8521775,57.7846825],[13.8523684,57.7835786],[13.853569,57.7827249],[13.8537573,57.7820792],[13.853459,57.7816539],[13.8527198,57.7813072],[13.8526737,57.7810782],[13.8530274,57.7810258],[13.8531074,57.7809858],[13.8535157,57.7809958],[13.8537408,57.7810148],[13.8538337,57.7808928],[13.8540653,57.7809758],[13.854284,57.7809908],[13.8543213,57.7809078],[13.8542979,57.7808418],[13.8541776,57.7806918],[13.8541145,57.7806168],[13.8538887,57.7803598],[13.8541109,57.7800134],[13.854195,57.7791836],[13.8550233,57.7782237],[13.855196,57.7777014],[13.8543844,57.7780003],[13.8542009,57.7769245],[13.8548709,57.776371],[13.8547245,57.7756785],[13.8540774,57.7755658],[13.853517,57.7755128],[13.8530926,57.7749474],[13.8525733,57.7748776],[13.8526061,57.7747345],[13.8534494,57.7746559],[13.853828,57.7742668],[13.8532519,57.7737104],[13.8527922,57.773036],[13.8523674,57.772424],[13.851943,57.7724343],[13.851714,57.7728476],[13.8512403,57.7727678],[13.8504592,57.7728245],[13.8505129,57.772676],[13.8502388,57.7724717],[13.8495575,57.7722066],[13.8495317,57.7719548],[13.8491208,57.7717016],[13.8486289,57.7715534],[13.8484551,57.771431],[13.848201,57.7714241],[13.8479803,57.7712728],[13.847718,57.7712782],[13.8474884,57.7715025],[13.8470121,57.7714444],[13.8470206,57.7713037],[13.8466269,57.7712287],[13.8459322,57.7714567],[13.8446314,57.7715565],[13.8441805,57.7714438],[13.8438525,57.7715892],[13.8437193,57.7716373],[13.8441227,57.7718651],[13.8444135,57.7721053],[13.8439467,57.7721379],[13.8436223,57.7720843],[13.8434483,57.7717378],[13.8431333,57.7715434],[13.84291,57.7716517],[13.8429034,57.772031],[13.8426832,57.7724257],[13.842486,57.7727688],[13.8427963,57.7731799],[13.8432398,57.7732304],[13.8433278,57.7742116],[13.8434587,57.774542],[13.8436094,57.7747957],[13.8440648,57.7749085],[13.8443449,57.7748264],[13.8446748,57.7750603],[13.8449274,57.7751284],[13.8448877,57.7755978],[13.8459644,57.7758727],[13.8459551,57.7766572],[13.8465121,57.7769774],[13.8468447,57.7775721],[13.8475689,57.7775429],[13.8483113,57.7768853],[13.8500129,57.7770035],[13.8502125,57.777208],[13.849021,57.7781897],[13.8481638,57.7794602],[13.8486825,57.7800073],[13.8485951,57.7802221],[13.8491487,57.7810782],[13.8506255,57.7817182],[13.8507714,57.7821369],[13.8498075,57.7832808],[13.8497297,57.7836121],[13.8501148,57.7837545],[13.850588,57.7844249],[13.8497774,57.7850658],[13.8501674,57.7856558],[13.8495674,57.7858658],[13.8495111,57.7862069],[13.8496399,57.7862841],[13.8498156,57.7863213],[13.8503104,57.7863384],[13.8502997,57.7865014],[13.8495219,57.7864214],[13.8494146,57.7864728],[13.8494575,57.7866673],[13.8495433,57.7871649],[13.8491946,57.7874337],[13.848862,57.7872764],[13.8488352,57.7867102],[13.8483846,57.7866387],[13.8479501,57.786693],[13.8477678,57.7871833],[13.8469331,57.7883377],[13.8460003,57.7890485],[13.846188,57.7892882],[13.8460774,57.7896758],[13.8454574,57.7902558],[13.8455341,57.7904742],[13.8461178,57.7908079],[13.8464605,57.7908245],[13.8474047,57.7908305],[13.8483279,57.7910307],[13.8485827,57.791149],[13.8486777,57.791316],[13.8483021,57.7911776],[13.8478639,57.7910984],[13.8475093,57.7911101],[13.8465904,57.7916423],[13.8469954,57.7922993],[13.847564,57.792506],[13.8483692,57.7925452],[13.8484819,57.7929172],[13.8490237,57.793089],[13.8485596,57.7938438],[13.8486208,57.7944448],[13.8480355,57.7945577],[13.8463162,57.7946203],[13.8467379,57.7952673],[13.8464343,57.7956561],[13.8464804,57.7963134],[13.8467137,57.7967805],[13.8477909,57.7972233],[13.8493788,57.7978119],[13.8501786,57.7977642],[13.8505901,57.7973368],[13.8504383,57.7969026],[13.8513245,57.7972957],[13.8517568,57.7980458],[13.8525626,57.798452],[13.8530164,57.7994623],[13.8529965,57.7997541],[13.8523501,57.7986275],[13.8515299,57.7986301],[13.8512209,57.7991481],[13.8504174,57.7997558],[13.8503235,57.8002044],[13.8506625,57.8006094],[13.8502988,57.8010247],[13.8504914,57.8012706],[13.850537,57.8024145],[13.8499989,57.8034295],[13.85017,57.8041109],[13.8508368,57.8049415],[13.8508197,57.8062314],[13.8518325,57.8071694],[13.8511871,57.8076953],[13.8503814,57.8078636],[13.8505874,57.8090558],[13.8509913,57.8089913],[13.8512258,57.810512],[13.8523936,57.8113367],[13.8528903,57.8119008],[13.8536671,57.8129098],[13.8542647,57.8130741],[13.8544047,57.8127075],[13.8547212,57.8124229],[13.855027,57.8129132],[13.8546547,57.8132336],[13.8549701,57.8138728],[13.8545903,57.8150503],[13.8543462,57.8160576],[13.8528674,57.8165458],[13.8526146,57.8169313],[13.8526237,57.8177642],[13.8524247,57.8179545],[13.8521753,57.8196679],[13.8527101,57.8198736],[13.853187,57.8199384],[13.8537095,57.8199007],[13.8541477,57.8200504],[13.8540464,57.8206749],[13.8546874,57.8218311],[13.8547629,57.8221092],[13.8547736,57.8222864],[13.8548863,57.8223406],[13.855169,57.8224079],[13.8555944,57.8225435],[13.8559032,57.8227176],[13.8560193,57.8228747],[13.8562208,57.8231751],[13.8559699,57.8232691],[13.8559431,57.8233891],[13.8560666,57.8237239],[13.8561791,57.824029],[13.856281,57.8242032],[13.8564177,57.8243081],[13.8566029,57.8245775],[13.8570106,57.8247631],[13.8571501,57.8248774],[13.857174,57.8249626],[13.8573915,57.8251174],[13.857427,57.8253072],[13.8575417,57.8254601],[13.8568658,57.8254373],[13.8562971,57.8255116],[13.8554442,57.8257658],[13.8552633,57.8259158],[13.8549614,57.8262742],[13.8541166,57.8268744],[13.8539636,57.8272512],[13.854141,57.8277044],[13.8544139,57.8281955],[13.8543708,57.8284072],[13.8539904,57.8288022],[13.8536247,57.829423],[13.8536686,57.8297904],[13.8537708,57.8301945],[13.8543369,57.8309272],[13.8542962,57.83105],[13.8540569,57.8311759],[13.8541514,57.8313099],[13.8543981,57.8315527],[13.8546395,57.8316269],[13.8549399,57.8316583],[13.8552142,57.8317102],[13.8558091,57.8322102],[13.8559812,57.8323474],[13.8562994,57.8324377],[13.8574048,57.83246],[13.8581379,57.8325374],[13.8581876,57.8328053],[13.8580994,57.8340946],[13.8580394,57.8345765],[13.8579374,57.8349858],[13.8577198,57.8351679],[13.857453,57.8359915],[13.8567112,57.8364772],[13.8564688,57.8366875],[13.8564378,57.8369172],[13.8571994,57.8375184],[13.8588144,57.838447],[13.8589662,57.8392093],[13.8599275,57.8402354],[13.860361,57.8406311],[13.8605993,57.840975],[13.8607979,57.8412195],[13.8608091,57.8414983],[13.8605974,57.8417658],[13.8610574,57.8425858],[13.8608874,57.8426658],[13.8608474,57.8433858],[13.8622927,57.8438393],[13.863561,57.8444027],[13.8644325,57.844721],[13.8639239,57.8447303],[13.8624474,57.8449358],[13.8621874,57.8450258],[13.8614174,57.8453758],[13.8609574,57.8460358],[13.8609269,57.8466528],[13.8609174,57.8468458],[13.8609143,57.8474063],[13.8614628,57.8477696],[13.8606027,57.8488958],[13.8607335,57.8492559],[13.8609213,57.8494586],[13.8615212,57.8497372],[13.8615757,57.8499239],[13.8614792,57.8503122],[13.8615864,57.8505634],[13.8620575,57.8510469],[13.8621014,57.8512856],[13.8623321,57.8514797],[13.862312,57.8516985],[13.8615174,57.8528758],[13.8612699,57.8545881],[13.8613147,57.8549278],[13.8615006,57.8554301],[13.8623697,57.8564804],[13.862461,57.8566915],[13.8623569,57.8568688],[13.8620136,57.8570188],[13.8618064,57.8571882],[13.8618708,57.857328],[13.8622677,57.857622],[13.8622731,57.857739],[13.8622624,57.8579474],[13.862375,57.8581129],[13.8626281,57.8583716],[13.8625252,57.8591232],[13.8623267,57.8594485],[13.8622785,57.8596397],[13.8625467,57.8597425],[13.8627237,57.859868],[13.8629705,57.8599993],[13.8632333,57.860162],[13.8634908,57.8603988],[13.8635981,57.8605872],[13.8639092,57.8608069],[13.8636874,57.8609458],[13.8632494,57.8610695],[13.8628846,57.8612778],[13.8629973,57.8614718],[13.8629168,57.8616202],[13.8629168,57.8616944],[13.8631475,57.8617116],[13.8633782,57.8618],[13.8636142,57.8624335],[13.8656205,57.863321],[13.8658029,57.8633324],[13.8661355,57.8634951],[13.8664037,57.8636206],[13.866629,57.8637405],[13.8668382,57.8638289],[13.8670957,57.863866],[13.867439,57.8640601],[13.8681042,57.8643254],[13.8682759,57.8643511],[13.8685173,57.8643511],[13.8689035,57.8643511],[13.8692576,57.8644167],[13.8694239,57.8644824],[13.8695472,57.8645822],[13.8694668,57.864625],[13.8693005,57.864645],[13.8691556,57.8646108],[13.8690752,57.8646736],[13.8692093,57.8649218],[13.8693273,57.8651415],[13.8693219,57.865327],[13.8693058,57.8654982],[13.8692146,57.8657093],[13.8692146,57.8659861],[13.8689759,57.8662572],[13.8689464,57.8663142],[13.8689008,57.8664098],[13.8688794,57.8665054],[13.8688418,57.8665696],[13.8686433,57.8665411],[13.8685521,57.8665097],[13.8685012,57.8664541],[13.8685092,57.8663799],[13.868469,57.8663242],[13.8684395,57.8662415],[13.8685092,57.8661459],[13.8684529,57.8660774],[13.8684958,57.8659547],[13.868638,57.865832],[13.8686809,57.8657764],[13.8686782,57.865678],[13.8686514,57.8655824],[13.8686916,57.8654982],[13.8686836,57.865414],[13.8686648,57.8653184],[13.8686594,57.8651972],[13.868646,57.8650844],[13.8686058,57.8649846],[13.8685146,57.8649175],[13.8683644,57.8648704],[13.8682008,57.8648733],[13.8680452,57.864956],[13.8679218,57.8650288],[13.8674232,57.8658801],[13.8674068,57.8660032],[13.8669127,57.8663101],[13.866232,57.8669277],[13.86635,57.8670047],[13.8663125,57.8670875],[13.8661194,57.8671474],[13.8657174,57.8671658],[13.8646871,57.8670675],[13.8638556,57.8670447],[13.8636035,57.8670133],[13.8630582,57.8671929],[13.8625596,57.8674834],[13.8620436,57.8678016],[13.8617397,57.8680316],[13.8614738,57.8684228],[13.8613236,57.8686625],[13.8609974,57.8687158],[13.8596736,57.8690331],[13.8595641,57.8691817],[13.8595158,57.8694528],[13.8595392,57.8696415],[13.8605617,57.8711073],[13.8608408,57.87135],[13.8610232,57.8715611],[13.8610017,57.8717665],[13.8608274,57.8718958],[13.8603297,57.8720827],[13.8596217,57.8722802],[13.8600717,57.8724644],[13.860318,57.8729888],[13.8609964,57.8734097],[13.8614523,57.8736494],[13.8617098,57.8737977],[13.8618976,57.8739717],[13.8620263,57.8741486],[13.8619083,57.8742798],[13.8616025,57.8743854],[13.8610232,57.8744653],[13.8597464,57.8746364],[13.8592636,57.8748532],[13.8590276,57.8750871],[13.8588023,57.8754979],[13.8587594,57.8757775],[13.8588667,57.8760427],[13.8598806,57.877372],[13.8598859,57.8776629],[13.8600147,57.8781108],[13.8601327,57.8785928],[13.8600951,57.8788809],[13.8599396,57.8791604],[13.8597574,57.8792458],[13.8594407,57.8792317],[13.8591349,57.8792546],[13.8592368,57.8791091],[13.8593924,57.8789693],[13.8594675,57.8788581],[13.8594246,57.8787212],[13.8590276,57.8786927],[13.8584804,57.8787611],[13.8580781,57.8789408],[13.8578421,57.8791091],[13.8576168,57.8793145],[13.8575363,57.8795911],[13.857767,57.8798393],[13.8579386,57.8799106],[13.8581103,57.8800047],[13.8581639,57.8801502],[13.8580459,57.8802015],[13.8578045,57.8802044],[13.8575095,57.8801901],[13.8573968,57.8800988],[13.8571984,57.8799819],[13.8569677,57.8798764],[13.8567746,57.8798222],[13.8565117,57.879825],[13.8562596,57.8799448],[13.8561416,57.8801302],[13.8560879,57.8803156],[13.8562006,57.880501],[13.8566136,57.8807491],[13.8568497,57.8809602],[13.8569623,57.8810971],[13.8570696,57.8813766],[13.857016,57.8815249],[13.8569677,57.8816476],[13.8571233,57.8818101],[13.857252,57.8818871],[13.8573593,57.8819499],[13.8576865,57.8820269],[13.8581908,57.8821153],[13.8585395,57.882178],[13.858856,57.8822893],[13.8588881,57.8826087],[13.8592583,57.8830736],[13.859446,57.8831648],[13.8595533,57.8833702],[13.8597894,57.8835213],[13.8603258,57.8837124],[13.8608515,57.883798],[13.8613826,57.883835],[13.8617527,57.8838037],[13.86208,57.8838037],[13.8623589,57.883855],[13.8624823,57.8839035],[13.8626486,57.8839776],[13.862713,57.8840176],[13.862654,57.8841088],[13.8624072,57.8841145],[13.8620263,57.8841003],[13.8615006,57.8841031],[13.8612574,57.8842158],[13.861109,57.8843398],[13.860417,57.8844568],[13.8593924,57.8846393],[13.8591274,57.8847158],[13.8588023,57.8850471],[13.8580781,57.886145],[13.8577777,57.8864188],[13.8577187,57.8866783],[13.8573271,57.8868494],[13.8571125,57.8869749],[13.8570428,57.8871802],[13.8567692,57.8877135],[13.8565654,57.8880984],[13.8565439,57.8885233],[13.8564473,57.8887258],[13.8565707,57.8889083],[13.8567424,57.8889881],[13.8568389,57.8890195],[13.856914,57.8889681],[13.8572144,57.8887942],[13.8573432,57.888683],[13.8575846,57.8886089],[13.8577241,57.8884549],[13.8580298,57.8882182],[13.8583034,57.8882553],[13.8584429,57.8883094],[13.8586628,57.8883237],[13.8586467,57.8884577],[13.8584214,57.8886032],[13.8583074,57.8888758],[13.8578421,57.8894215],[13.8576436,57.8897323],[13.8575953,57.8898436],[13.8576436,57.8901487],[13.8577402,57.8903768],[13.8578153,57.8905735],[13.8577938,57.8907845],[13.8577455,57.8909699],[13.8577348,57.8912322],[13.8573807,57.8915459],[13.8568228,57.8920277],[13.8565922,57.8922957],[13.8560974,57.8923458],[13.855819,57.8923032],[13.8555193,57.8922216],[13.8552028,57.8922644],[13.8547474,57.8924158],[13.8542104,57.8926664],[13.8536739,57.8930713],[13.8534808,57.8932252],[13.8532877,57.8932651],[13.8526547,57.8931796],[13.8511097,57.8930827],[13.850466,57.8930713],[13.8499296,57.8931739],[13.8496374,57.8933258],[13.8494166,57.8944173],[13.8494437,57.8946162],[13.8494682,57.8947962],[13.8493297,57.8955057],[13.8493073,57.8955403],[13.8480842,57.8964829],[13.8485885,57.8971653],[13.8485885,57.8973478],[13.8483497,57.8975231],[13.8480678,57.8977386],[13.8474528,57.8979953],[13.8467888,57.8984226],[13.845315,57.8986435],[13.8445307,57.8989457],[13.8436944,57.8997898],[13.8439536,57.9000503],[13.844304,57.9002443],[13.8447314,57.9001843],[13.8451123,57.9001786],[13.8453966,57.9002584],[13.8455361,57.9002954],[13.8455468,57.900381],[13.8454986,57.9005663],[13.8454486,57.9007431],[13.8454878,57.9009796],[13.8454878,57.9011164],[13.8454703,57.90118],[13.8457215,57.9012353],[13.8457054,57.9012611],[13.8457162,57.9012839],[13.8455798,57.9013946],[13.845648,57.9014384],[13.8455367,57.9014766],[13.8449657,57.9014177],[13.8445008,57.9014585],[13.844372,57.9015212],[13.8443539,57.9015588],[13.8444471,57.9017492],[13.8444525,57.9021184],[13.8445249,57.9025659],[13.8444525,57.9026999],[13.8443291,57.9027782],[13.8441374,57.9028558],[13.8438876,57.9028274],[13.8437793,57.9026885],[13.8436773,57.9025146],[13.8434756,57.9023229],[13.8431434,57.902323],[13.8422634,57.9027404],[13.8428132,57.9031861],[13.8424838,57.9039127],[13.8420474,57.9041658],[13.8414645,57.904611],[13.8414174,57.9048358],[13.8415693,57.9049797],[13.8409917,57.9056384],[13.8406501,57.9058409],[13.840338,57.9059107],[13.8396996,57.9059848],[13.8390674,57.9062358],[13.8389409,57.9062895],[13.8390225,57.9065891],[13.8398552,57.9065834],[13.8399743,57.906793],[13.8399571,57.9068684],[13.8392329,57.9069995],[13.8388413,57.9071306],[13.838439,57.9074298],[13.8385558,57.9076888],[13.8387984,57.9077946],[13.8389395,57.9080268],[13.8392115,57.9083276],[13.8391524,57.9087009],[13.8396406,57.9094106],[13.8395195,57.9101458],[13.8398538,57.9108545],[13.8387924,57.9113204],[13.8391079,57.9117041],[13.8391042,57.9118358],[13.8393617,57.912021],[13.8393027,57.9121293],[13.8394797,57.9121492],[13.839451,57.9132973],[13.8377774,57.9143358],[13.8382874,57.9157858],[13.8390087,57.9163508],[13.8402558,57.916282],[13.8404407,57.9165947],[13.839383,57.9168244],[13.8384574,57.9173158],[13.8385874,57.9179858],[13.8384974,57.9180358],[13.8368374,57.9191258],[13.8376674,57.9193258],[13.8370674,57.9196258],[13.8356874,57.9200558],[13.8339074,57.9202058],[13.8340474,57.9208358],[13.8333274,57.9215458],[13.8328174,57.9215858],[13.8326374,57.9218958],[13.8328874,57.9219458],[13.8329074,57.9231558],[13.8325474,57.9235558],[13.8326874,57.9240058],[13.8327608,57.9253731],[13.8312761,57.9260458],[13.8310685,57.9267376],[13.8317335,57.9269844],[13.8325703,57.926654],[13.8331389,57.9263806],[13.8335788,57.9264489],[13.8345659,57.9271155],[13.8346624,57.9277194],[13.8342118,57.9287961],[13.8335574,57.9290695],[13.8335037,57.9292461],[13.8336646,57.929605],[13.8339865,57.9297588],[13.8340509,57.9298898],[13.8335252,57.9300208],[13.8329673,57.9300379],[13.8323772,57.9299696],[13.8318944,57.9297474],[13.8309073,57.9295423],[13.8299661,57.9298458],[13.8285161,57.9301758],[13.8285456,57.9304777],[13.8276989,57.9306415],[13.8271952,57.9308981],[13.8269806,57.9311202],[13.8271902,57.9316267],[13.8271093,57.931838],[13.8268887,57.9318787],[13.8266461,57.9319458],[13.8269161,57.9331158],[13.8273668,57.9332905],[13.8276609,57.9333881],[13.8280573,57.9335197],[13.8281929,57.9338772],[13.8281979,57.9342054],[13.8270342,57.9350049],[13.8265799,57.9352872],[13.8249528,57.9358365],[13.8245022,57.936201],[13.8241911,57.9368431],[13.8240516,57.9373743],[13.8243561,57.9382458],[13.8256761,57.9403258],[13.8267161,57.9412458],[13.8234861,57.9416858],[13.8218161,57.9428258],[13.8220561,57.9446258],[13.8214761,57.9459658],[13.8204961,57.9468458],[13.8204961,57.9469358],[13.8206071,57.9471199],[13.8213461,57.9483458],[13.8222761,57.9483158],[13.8226161,57.9483158],[13.8212961,57.9492358],[13.8202261,57.9502158],[13.8197861,57.9520458],[13.8193761,57.9518558],[13.8190261,57.9522158],[13.8194861,57.9530258],[13.8191605,57.9535981],[13.8188261,57.9541858],[13.8182861,57.9548558],[13.8185761,57.9556658],[13.818301,57.9558197],[13.8180244,57.9558916],[13.8178503,57.955851],[13.8177162,57.9556489],[13.8174266,57.9554582],[13.8169861,57.9553258],[13.8164502,57.9554553],[13.8160372,57.9556062],[13.8155682,57.9558023],[13.815313,57.9562694],[13.8152486,57.9567134],[13.8154461,57.9573258],[13.8143861,57.9581558]]]}},{"type":"Feature","properties":{"kind":"lake-islands-focus-mask"},"geometry":{"type":"MultiPolygon","coordinates":[[[[13.8372159,57.9278219],[13.8373124,57.9275143],[13.8379669,57.9277307],[13.8386536,57.9280783],[13.8388038,57.9285283],[13.8386106,57.9293258],[13.8385785,57.9297588],[13.837806,57.9292689],[13.8374627,57.9289157],[13.8372803,57.9282606],[13.8372159,57.9278219]]],[[[13.8379347,57.926392],[13.8382995,57.926147],[13.8388789,57.9261242],[13.8389647,57.926278],[13.8383961,57.9264888],[13.8380098,57.9265458],[13.8379347,57.926392]]],[[[13.8597233,57.8807745],[13.8597802,57.8807356],[13.8598696,57.880714],[13.859955,57.8807205],[13.860077,57.8807075],[13.8601867,57.8806773],[13.8602721,57.8806751],[13.8603168,57.8807291],[13.860329,57.8808156],[13.8603128,57.8809172],[13.8602599,57.8811009],[13.8602111,57.8812328],[13.8601949,57.8812695],[13.8601339,57.8813214],[13.8600851,57.8813257],[13.8600119,57.8812739],[13.8599875,57.8811896],[13.8599021,57.8810815],[13.8597842,57.8809518],[13.8597355,57.8808372],[13.8597233,57.8807745]]],[[[13.8625574,57.8718093],[13.8625789,57.8716096],[13.8626271,57.8715383],[13.8627076,57.8715269],[13.862772,57.8715583],[13.8629168,57.8716467],[13.8629651,57.8718093],[13.8629276,57.8720375],[13.8628685,57.8720775],[13.8627613,57.8720689],[13.862654,57.8719862],[13.8625574,57.8718093]]]]}}]}
