{"type":"FeatureCollection","pike":{"schemaVersion":1,"lakeId":"svansjon","purpose":"non-interactive outside-lake focus mask","source":"https://www.openstreetmap.org/relation/2719114","osmObjectType":"relation","osmObjectId":2719114,"sourceVersion":5,"sourceTimestamp":"2024-08-30T17:49:34Z","outerRingCount":1,"innerRingCount":1,"vertexCount":310},"features":[{"type":"Feature","properties":{"kind":"outside-lake-focus-mask"},"geometry":{"type":"Polygon","coordinates":[[[5,54],[30,54],[30,71],[5,71],[5,54]],[[13.7754382,57.81008],[13.7760982,57.8118],[13.7760882,57.81198],[13.7766567,57.812382],[13.7763582,57.8132],[13.7766712,57.8134747],[13.7768991,57.813629],[13.7772846,57.8137378],[13.7777752,57.8137444],[13.7780515,57.8137775],[13.7785353,57.813763],[13.7788832,57.8136721],[13.7792082,57.81338],[13.7789851,57.8130091],[13.7786093,57.812646],[13.7785122,57.8125472],[13.7784273,57.8124471],[13.7783521,57.8123547],[13.7785453,57.811949],[13.7785774,57.8117889],[13.7787169,57.8116603],[13.7788982,57.81144],[13.778851,57.8113631],[13.778733,57.811286],[13.7787706,57.8111945],[13.7788564,57.8110917],[13.7790503,57.8110214],[13.7793928,57.8109173],[13.7797791,57.8108888],[13.7800112,57.8108343],[13.7800741,57.8107316],[13.7798864,57.8106287],[13.7799118,57.8105711],[13.7801438,57.8105544],[13.7804713,57.8104044],[13.7805086,57.8103144],[13.7803048,57.8102286],[13.7801063,57.8101115],[13.7801063,57.8100543],[13.7802637,57.8100707],[13.780637,57.8102144],[13.7808466,57.8102315],[13.7811832,57.8101579],[13.7812275,57.8100114],[13.7811711,57.8097771],[13.7806803,57.8095685],[13.780218,57.80909],[13.7799293,57.808614],[13.779747,57.8083487],[13.779822,57.8080652],[13.7798327,57.8077795],[13.7796074,57.8074251],[13.7793982,57.8073222],[13.7793928,57.8072221],[13.7795734,57.8070058],[13.7795334,57.8069186],[13.7796718,57.806782],[13.779704,57.8065362],[13.7797181,57.8063016],[13.779881,57.806199],[13.7801727,57.8061515],[13.780809,57.8061618],[13.781485,57.806279],[13.7816834,57.8062504],[13.7819141,57.8063104],[13.7819824,57.8064886],[13.7820876,57.8065929],[13.7823647,57.8065962],[13.7824291,57.8066848],[13.7823111,57.8068963],[13.7823862,57.8070935],[13.7826329,57.8072307],[13.7828529,57.8074308],[13.782908,57.80774],[13.7827885,57.807868],[13.7823325,57.8080395],[13.7820268,57.8082357],[13.7819785,57.8084225],[13.782177,57.8085597],[13.7822682,57.8086797],[13.7822366,57.8090285],[13.7823236,57.8093771],[13.7825471,57.8096085],[13.7825954,57.8098085],[13.7825751,57.8100372],[13.7825578,57.8102315],[13.7825125,57.8103248],[13.7823727,57.8103858],[13.7819946,57.8103473],[13.7817123,57.8102404],[13.7815836,57.8102452],[13.7815831,57.8104246],[13.7817317,57.8106716],[13.7824886,57.8110342],[13.7823325,57.8113385],[13.7823041,57.813612],[13.780808,57.81359],[13.7806749,57.8136435],[13.7807393,57.813875],[13.7806588,57.814115],[13.7807715,57.8142464],[13.7810504,57.8143664],[13.7813348,57.8144522],[13.7816349,57.8144848],[13.7820053,57.8144979],[13.782387,57.8143871],[13.7829095,57.8142377],[13.7833,57.8142528],[13.7835073,57.8142464],[13.7839794,57.8141121],[13.7841833,57.8140321],[13.7846539,57.8140396],[13.7850255,57.8140578],[13.7853742,57.8140178],[13.7857228,57.8139292],[13.7861013,57.8139236],[13.7863558,57.8140264],[13.7866992,57.8140893],[13.7873858,57.8140407],[13.7877734,57.8140643],[13.7880027,57.8140664],[13.788169,57.8140321],[13.788346,57.8139121],[13.7884587,57.8138835],[13.7887108,57.8138978],[13.7889093,57.813915],[13.7892848,57.8138178],[13.7897358,57.8135843],[13.7901217,57.8131634],[13.7902933,57.8128405],[13.790351,57.81252],[13.790229,57.8121433],[13.7900379,57.8117457],[13.7899393,57.8116603],[13.7897354,57.8116489],[13.789553,57.8117404],[13.7896067,57.8118718],[13.789494,57.8119318],[13.7892526,57.8119347],[13.7888986,57.8118489],[13.7888028,57.8117086],[13.7885392,57.8114289],[13.7884902,57.81121],[13.7885968,57.8111257],[13.788861,57.8110831],[13.7891936,57.811106],[13.789553,57.8110917],[13.7900667,57.8110014],[13.7905884,57.8108316],[13.7911624,57.8105173],[13.7912482,57.810403],[13.7912482,57.8102544],[13.7913662,57.8102143],[13.7916673,57.8102157],[13.7918866,57.8101543],[13.7920743,57.8099543],[13.792173,57.8096371],[13.7920636,57.8094027],[13.7917203,57.8092427],[13.7916827,57.8091655],[13.7918091,57.8088343],[13.7919831,57.8086483],[13.7918383,57.8085139],[13.7918276,57.8083396],[13.791967,57.8081424],[13.7922456,57.8079728],[13.7923908,57.8077337],[13.7924123,57.8074079],[13.7923318,57.8072193],[13.7919925,57.8070571],[13.7917364,57.8069906],[13.7914842,57.8070678],[13.7912375,57.8070821],[13.7909478,57.8070257],[13.7909532,57.8069078],[13.7911034,57.8067048],[13.7912214,57.8066105],[13.7912375,57.8064962],[13.7910551,57.8063705],[13.7908727,57.8062704],[13.7909263,57.8061132],[13.7910873,57.8061018],[13.7912536,57.8062075],[13.791398,57.80626],[13.7917417,57.8063819],[13.7918758,57.8065362],[13.792069,57.8065677],[13.7922889,57.8065105],[13.7925571,57.8062961],[13.792758,57.80614],[13.7926966,57.8059989],[13.7925518,57.8058531],[13.7924015,57.8057731],[13.7923479,57.8056045],[13.7924606,57.8054959],[13.7924498,57.8053501],[13.7925625,57.8052129],[13.7926681,57.8050857],[13.7927288,57.8049385],[13.792761,57.804587],[13.7929755,57.8042926],[13.793288,57.80404],[13.7933189,57.803801],[13.7932438,57.8035723],[13.7930882,57.8034065],[13.792938,57.8032093],[13.7927956,57.8031586],[13.7926108,57.8032436],[13.7925568,57.8032387],[13.7923908,57.8032236],[13.7920475,57.8030407],[13.7918597,57.8028777],[13.7913823,57.8027434],[13.7909424,57.8027034],[13.7907815,57.8026662],[13.79076,57.8025805],[13.7908727,57.8024404],[13.79091,57.8023128],[13.79076,57.8022346],[13.7905723,57.8020888],[13.7905776,57.8019402],[13.7904227,57.8017443],[13.7903255,57.8013228],[13.7900519,57.8011227],[13.789758,57.80111],[13.7888718,57.8013342],[13.7884969,57.8016329],[13.7884533,57.8018373],[13.7886143,57.8022432],[13.788861,57.8024661],[13.7890771,57.8027757],[13.7890541,57.8029235],[13.7887752,57.8030092],[13.7884319,57.8030092],[13.7882388,57.8031007],[13.7881338,57.8032829],[13.7877896,57.8032794],[13.787538,57.80305],[13.787395,57.8029374],[13.7871015,57.8029063],[13.7869298,57.8029921],[13.7870157,57.8033636],[13.7868225,57.803438],[13.7866509,57.8033694],[13.786118,57.80289],[13.7856531,57.8028148],[13.7852991,57.8028434],[13.7847953,57.8030072],[13.7844193,57.8030778],[13.7842905,57.8032493],[13.7845909,57.8035866],[13.7845158,57.8037467],[13.7840974,57.8039296],[13.7834546,57.804463],[13.7832391,57.8045127],[13.7827241,57.8044612],[13.7821795,57.8045216],[13.7818947,57.804983],[13.7809114,57.8048314],[13.7802837,57.8048486],[13.7792385,57.804967],[13.7789624,57.8049998],[13.7785537,57.8050943],[13.7779591,57.8051289],[13.777745,57.8052178],[13.7776744,57.8054818],[13.7774941,57.8057176],[13.7773441,57.805933],[13.777442,57.8059976],[13.777219,57.8062829],[13.7756782,57.80721],[13.7758682,57.80839],[13.7754582,57.80973],[13.7754382,57.81008]]]}},{"type":"Feature","properties":{"kind":"lake-islands-focus-mask"},"geometry":{"type":"MultiPolygon","coordinates":[[[[13.7832119,57.8069086],[13.7832391,57.8068392],[13.7835342,57.8067792],[13.7836679,57.8066428],[13.7838238,57.8065819],[13.7840277,57.8065591],[13.7840491,57.8064648],[13.7836897,57.806439],[13.7836035,57.8063256],[13.7836415,57.8061875],[13.7838989,57.8061389],[13.7841403,57.8060989],[13.7842637,57.8060046],[13.7843871,57.8058646],[13.7846763,57.8057968],[13.7848002,57.8058703],[13.7849986,57.8060046],[13.7855078,57.8061655],[13.7855673,57.8062618],[13.7855512,57.806399],[13.7853576,57.8065085],[13.7851542,57.8065734],[13.7849021,57.8065762],[13.7847465,57.8065648],[13.7844998,57.8065934],[13.7844944,57.8067249],[13.7845905,57.8069343],[13.7847568,57.8072087],[13.7850308,57.8074594],[13.7851055,57.8077089],[13.7849819,57.8077561],[13.7846446,57.8076994],[13.7840272,57.8075488],[13.7837112,57.8073708],[13.7833786,57.8070707],[13.7832119,57.8069086]]]]}}]}
