{"type":"FeatureCollection","pike":{"schemaVersion":1,"lakeId":"tenhultasjon","purpose":"non-interactive outside-lake focus mask","source":"https://www.openstreetmap.org/way/23212660","osmObjectType":"way","osmObjectId":23212660,"sourceVersion":8,"sourceTimestamp":"2023-03-22T17:15:57Z","outerRingCount":1,"innerRingCount":0,"vertexCount":289},"features":[{"type":"Feature","properties":{"kind":"outside-lake-focus-mask"},"geometry":{"type":"Polygon","coordinates":[[[5,54],[30,54],[30,71],[5,71],[5,54]],[[14.3287494,57.6845245],[14.3288407,57.6846593],[14.3289131,57.6846908],[14.3290315,57.6847326],[14.3291652,57.6847725],[14.3292403,57.6848256],[14.3292669,57.6848648],[14.3298408,57.6851828],[14.3304023,57.6855889],[14.3308521,57.6858997],[14.3314574,57.6861372],[14.3317158,57.6862831],[14.3325162,57.6866536],[14.3330956,57.6867104],[14.3334067,57.6873223],[14.3337398,57.6875423],[14.3339775,57.6876125],[14.33422,57.6879549],[14.3339407,57.6882747],[14.3342468,57.6887681],[14.3345748,57.6889421],[14.3346215,57.6890864],[14.3344501,57.6892757],[14.3337404,57.6896638],[14.3338101,57.6900469],[14.3333531,57.690426],[14.332778,57.690629],[14.3325865,57.6911511],[14.3328142,57.6915265],[14.3330859,57.6917454],[14.3331111,57.6924251],[14.3333169,57.6927399],[14.3336457,57.6933417],[14.3335403,57.6937651],[14.3329456,57.6939542],[14.3324663,57.6940838],[14.3323931,57.6943497],[14.3325176,57.6945503],[14.3323545,57.6947833],[14.3322914,57.6950953],[14.3319964,57.6956722],[14.3320029,57.6959584],[14.3320593,57.6960709],[14.3321079,57.696158],[14.3322207,57.6965215],[14.3321667,57.6967064],[14.3320804,57.6969218],[14.3324872,57.6973291],[14.3332206,57.6976749],[14.3341137,57.697994],[14.3351724,57.6981426],[14.3357118,57.6982038],[14.337754,57.698267],[14.3383648,57.6982802],[14.3386923,57.6983515],[14.3390351,57.6983172],[14.3392529,57.6982034],[14.3393513,57.6979391],[14.3392998,57.6975355],[14.3398164,57.6972147],[14.3401688,57.6970368],[14.3404354,57.697106],[14.3405296,57.6972805],[14.3406685,57.6974221],[14.340985,57.6975806],[14.3414497,57.6977372],[14.3415392,57.6979306],[14.3417814,57.6984952],[14.3423073,57.6988355],[14.343314,57.6991959],[14.3435927,57.6997392],[14.3436305,57.7000955],[14.3437214,57.7004389],[14.3441659,57.7006388],[14.344393,57.7008059],[14.3446929,57.7012331],[14.3450515,57.7014352],[14.3454351,57.7019947],[14.3453077,57.7021627],[14.3454702,57.7023327],[14.3459364,57.7023788],[14.3464117,57.7023747],[14.3464991,57.7022132],[14.3468161,57.7021879],[14.3470404,57.7024343],[14.347061,57.7027731],[14.3467185,57.7031619],[14.3465651,57.7035056],[14.3466472,57.7038236],[14.3469959,57.7040255],[14.3471275,57.7043443],[14.3471866,57.7048244],[14.3474132,57.7049853],[14.3477825,57.7051172],[14.347947,57.7052694],[14.3479244,57.7058424],[14.3483042,57.706303],[14.3489093,57.7070599],[14.3495853,57.7076016],[14.3505543,57.7081639],[14.3515685,57.7086222],[14.352102,57.7086989],[14.3525512,57.7088286],[14.3529772,57.7088484],[14.3533661,57.7087804],[14.3537998,57.7085711],[14.3540651,57.708546],[14.3543609,57.708653],[14.3545549,57.7086747],[14.354649,57.7086217],[14.354631,57.708536],[14.3543928,57.7083577],[14.3548869,57.7081012],[14.3549821,57.7079565],[14.3548939,57.707774],[14.3550382,57.70759],[14.3550637,57.7073663],[14.355227,57.7070224],[14.3554904,57.7067032],[14.3558453,57.7066277],[14.3560507,57.7064139],[14.3560741,57.706212],[14.3559598,57.7060213],[14.3556578,57.7059018],[14.3554113,57.7057317],[14.355322,57.7051704],[14.3555339,57.7049967],[14.3555449,57.7047811],[14.3553155,57.704632],[14.3551369,57.7043994],[14.3550961,57.7041846],[14.354885,57.704087],[14.3547995,57.7037264],[14.3551613,57.7034479],[14.3551496,57.7032893],[14.354517,57.7027974],[14.3540718,57.7022687],[14.3537184,57.7014694],[14.3535787,57.7011778],[14.3534439,57.7006265],[14.3537164,57.7000552],[14.3539143,57.6982004],[14.3541713,57.6978868],[14.354197,57.6975185],[14.3544916,57.6972739],[14.3543891,57.697],[14.3540334,57.6966461],[14.3539516,57.6960099],[14.3536697,57.695823],[14.3536126,57.6957148],[14.3539095,57.6955337],[14.3536429,57.6953546],[14.353111,57.6950634],[14.3525708,57.6943881],[14.3529984,57.6943583],[14.3527883,57.6939316],[14.3528466,57.6935731],[14.3523957,57.6932679],[14.3522551,57.6929184],[14.3522372,57.6923318],[14.3520427,57.6918158],[14.3523815,57.6915341],[14.3523216,57.6913304],[14.351624,57.6910774],[14.3506509,57.6902376],[14.3504666,57.6897927],[14.3509859,57.6888019],[14.3511753,57.6881047],[14.3509379,57.6875116],[14.3509154,57.6870933],[14.3508266,57.6868201],[14.3505248,57.6866829],[14.3502335,57.6865114],[14.3502188,57.6863329],[14.3503644,57.6860147],[14.3498969,57.6853983],[14.3494302,57.6850367],[14.3488399,57.6848249],[14.3484593,57.6846126],[14.3483249,57.6844434],[14.348477,57.6842924],[14.3487154,57.6841413],[14.3485569,57.6839498],[14.3482801,57.6839103],[14.347991,57.6837513],[14.3479059,57.6836434],[14.3480996,57.6835491],[14.3484048,57.6835167],[14.3486108,57.6833331],[14.348716,57.6830356],[14.34819,57.6825666],[14.3474494,57.6814825],[14.3472241,57.6808402],[14.3474508,57.6802188],[14.3476302,57.6796709],[14.3475838,57.679141],[14.3475079,57.6782398],[14.3473625,57.677521],[14.3474569,57.6772673],[14.3474178,57.6771473],[14.3472434,57.6769668],[14.3469956,57.6768456],[14.3467947,57.6768163],[14.3467609,57.6766059],[14.3452677,57.6762868],[14.3441404,57.6761721],[14.3425533,57.6761889],[14.3416333,57.6763764],[14.3414096,57.6766522],[14.3413973,57.6772021],[14.3417253,57.6776748],[14.3418554,57.6780452],[14.3417669,57.6782613],[14.3414525,57.6784352],[14.3415059,57.6785581],[14.3415402,57.6786627],[14.3414051,57.6787704],[14.3411607,57.6787683],[14.3409536,57.6785873],[14.3405269,57.678575],[14.3401707,57.6785956],[14.3399411,57.6787389],[14.3398016,57.6790286],[14.3396037,57.6792808],[14.3392668,57.6793958],[14.339149,57.679502],[14.3391037,57.6796352],[14.3390069,57.6796455],[14.3389034,57.679562],[14.338651,57.6795164],[14.3383489,57.6794663],[14.3380888,57.679548],[14.3374788,57.6795649],[14.3369392,57.6797267],[14.3366082,57.6799619],[14.3366618,57.6802077],[14.3369006,57.6804403],[14.3369161,57.6806915],[14.337142,57.6808163],[14.3372594,57.6811378],[14.3371591,57.6813434],[14.3369204,57.6813233],[14.3368614,57.681173],[14.3366055,57.681128],[14.3362488,57.6808954],[14.3361506,57.6806284],[14.3359634,57.6804563],[14.3357424,57.6805042],[14.3355782,57.6806436],[14.335318,57.6808538],[14.3349102,57.6810517],[14.334881,57.6813053],[14.3348265,57.6814489],[14.3347844,57.6815979],[14.3346152,57.6816755],[14.3343285,57.681757],[14.3338073,57.6818189],[14.3331188,57.6818804],[14.3329704,57.6819135],[14.3328086,57.6820489],[14.3328747,57.6822317],[14.3330035,57.6823722],[14.3330521,57.6825106],[14.3330076,57.6826024],[14.3329847,57.6827608],[14.3331582,57.6829245],[14.3332046,57.6830203],[14.333159,57.6830791],[14.3330783,57.6830965],[14.332982,57.6830892],[14.3328962,57.6830605],[14.3327805,57.6829488],[14.3319437,57.6822491],[14.3315631,57.6820639],[14.3312761,57.6819879],[14.3310163,57.6819551],[14.330676,57.6819575],[14.3303344,57.6820211],[14.330045,57.6821084],[14.3298891,57.6822964],[14.3294822,57.6827317],[14.3291166,57.6832471],[14.3290284,57.6834548],[14.3290418,57.683581],[14.3289775,57.6836828],[14.3288594,57.6838864],[14.3287817,57.6842004],[14.3287853,57.6844346],[14.3287494,57.6845245]]]}}]}
