{"type":"FeatureCollection","pike":{"lakeId":"ulvstorpasjon","purpose":"non-interactive outside-lake focus mask","source":"https://www.openstreetmap.org/way/23543708","osmObjectType":"way","osmObjectId":23543708,"retrievedAt":"2026-09-24","sourceRingCount":1,"sourceVertexCount":88,"runtimeRingCount":1,"runtimeVertexCount":88,"simplificationToleranceMeters":0},"features":[{"type":"Feature","properties":{"kind":"outside-lake-focus-mask"},"geometry":{"type":"Polygon","coordinates":[[[5.0,54.0],[30.0,54.0],[30.0,71.0],[5.0,71.0],[5.0,54.0]],[[14.0950671,57.7581375],[14.0952757,57.7581536],[14.0954984,57.7581205],[14.0957155,57.7580853],[14.0958234,57.7580098],[14.0959129,57.7579129],[14.0959377,57.7578195],[14.0959752,57.7577797],[14.0959664,57.7577456],[14.095967,57.7577004],[14.0959953,57.7576807],[14.0960179,57.7576281],[14.0960166,57.7574962],[14.0960475,57.7572824],[14.0962018,57.7571396],[14.0962346,57.7571242],[14.0965687,57.7569676],[14.0965593,57.7567403],[14.0965576,57.7567],[14.0968151,57.7565443],[14.0968151,57.7564149],[14.0968151,57.7563337],[14.096811,57.7563045],[14.0967979,57.7562101],[14.0966606,57.7560727],[14.0961113,57.7558895],[14.0955706,57.7557521],[14.0951843,57.7557063],[14.0949521,57.7557282],[14.0945411,57.7557669],[14.0944548,57.755775],[14.0938969,57.7558117],[14.093812,57.7558352],[14.0939198,57.7559267],[14.0939038,57.7559644],[14.0938267,57.7559952],[14.0937111,57.7560363],[14.0936341,57.7560843],[14.093483,57.7561046],[14.0930337,57.7561648],[14.0928745,57.7562447],[14.0927463,57.7562864],[14.0925376,57.7562967],[14.0923932,57.7562454],[14.0923525,57.7562507],[14.092079,57.7562863],[14.0918877,57.7562645],[14.0916795,57.7562771],[14.0913219,57.7562558],[14.0909615,57.7562558],[14.0907898,57.7563337],[14.0905623,57.7564712],[14.0901973,57.7565417],[14.0899155,57.7566944],[14.0896509,57.7568622],[14.0894095,57.7570712],[14.0894036,57.7570763],[14.0893048,57.7572489],[14.0893122,57.7573821],[14.089313,57.7573964],[14.0893776,57.757555],[14.0894552,57.7576775],[14.0895643,57.7579131],[14.0895997,57.758092],[14.0895882,57.758202],[14.0896683,57.7582403],[14.0898123,57.7583092],[14.090002,57.7583168],[14.0901762,57.7582782],[14.0903225,57.7583418],[14.09051,57.7583346],[14.090707,57.7582751],[14.09098,57.7581395],[14.0912189,57.7579822],[14.0915365,57.7577807],[14.0917786,57.7574752],[14.0918205,57.7574596],[14.091845,57.7574504],[14.0921116,57.7575243],[14.0925665,57.7576525],[14.0929527,57.7577807],[14.0934248,57.7580097],[14.0939655,57.7580875],[14.094119,57.7581337],[14.0942318,57.7581677],[14.0944911,57.7582329],[14.0948145,57.7582097],[14.0950671,57.7581375]]]}}]}
